{
"type": "FeatureCollection",
"lastupdate": "2020-07-26T00:31:07Z",
"features": [
	{"geometry":{"coordinates":[-3.467489,51.204527],"type":"Point"},"properties":{"amenity":"recycling","name":"Minehead Recycling Centre","osm_id":"1322906003","tag":{"operator":"Somerset County Council","recycling_type":"centre"}},"type":"Feature"},
	{"geometry":{"coordinates":[-3.464369,51.202238],"type":"Point"},"properties":{"amenity":"recycling","osm_id":"1633779339","ref":"Recyling Bins"},"type":"Feature"},
	{"geometry":{"coordinates":[-3.444298,51.185168],"type":"Point"},"properties":{"amenity":"waste_basket","osm_id":"5765595785","tag":{"waste":"trash"}},"type":"Feature"},
	{"geometry":{"coordinates":[-3.477572,51.215614],"type":"Point"},"properties":{"amenity":"waste_basket","osm_id":"6567489060"},"type":"Feature"},
	{"geometry":{"coordinates":[-3.4763,51.214754],"type":"Point"},"properties":{"amenity":"waste_basket","osm_id":"6567489061"},"type":"Feature"},
	{"geometry":{"coordinates":[-3.476184,51.214685],"type":"Point"},"properties":{"amenity":"waste_basket","osm_id":"6567489064"},"type":"Feature"}
]
}
