{
"type": "FeatureCollection",
"lastupdate": "2020-07-26T00:31:07Z",
"features": [
	{"geometry":{"coordinates":[-0.866808,51.478313],"type":"Point"},"properties":{"amenity":"recycling","osm_id":"1111349908","tag":{"recycling:cans":"no","recycling:clothes":"yes","recycling:glass":"yes"}},"type":"Feature"},
	{"geometry":{"coordinates":[-0.869516,51.500808],"type":"Point"},"properties":{"amenity":"recycling","osm_id":"1278382579"},"type":"Feature"},
	{"geometry":{"coordinates":[-0.868743,51.476779],"type":"Point"},"properties":{"amenity":"recycling","osm_id":"1311009579"},"type":"Feature"},
	{"geometry":{"coordinates":[-0.845886,51.495145],"type":"Point"},"properties":{"amenity":"recycling","osm_id":"1477544025","tag":{"recycling:clothes":"yes","recycling:glass":"yes"}},"type":"Feature"},
	{"geometry":{"coordinates":[-0.869917,51.487375],"type":"Point"},"properties":{"amenity":"waste_basket","osm_id":"1843335039"},"type":"Feature"},
	{"geometry":{"coordinates":[-0.871999,51.499251],"type":"Point"},"properties":{"amenity":"waste_basket","osm_id":"1843335103"},"type":"Feature"},
	{"geometry":{"coordinates":[-0.878629,51.456546],"type":"Point"},"properties":{"amenity":"waste_basket","osm_id":"1860575122"},"type":"Feature"},
	{"geometry":{"coordinates":[-0.80705,51.485144],"type":"Point"},"properties":{"amenity":"waste_basket","osm_id":"6780635720","tag":{"waste":"trash"}},"type":"Feature"}
]
}
