{
"type": "FeatureCollection",
"lastupdate": "2020-07-24T00:48:03Z",
"features": [
	{"geometry":{"coordinates":[-0.816352,51.199913],"type":"Point"},"properties":{"amenity":"recycling","osm_id":"296972550","tag":{"recycling:cans":"yes"}},"type":"Feature"},
	{"geometry":{"coordinates":[-0.802639,51.215938],"type":"Point"},"properties":{"amenity":"recycling","name":"Recycling containers","osm_id":"297009244","tag":{"addr:city":"Farnham","addr:housename":"Upper Hart Car Park","addr:postcode":"GU9 7HA","addr:street":"The Hart","recycling:cans":"yes","recycling:cardboard":"yes","recycling:cartons":"yes","recycling:foil":"yes","recycling:glass":"yes","recycling:paper":"yes","recycling:plastic_bottles":"yes","recycling:small_appliances":"yes","recycling_type":"container"}},"type":"Feature"},
	{"geometry":{"coordinates":[-0.798712,51.212527],"type":"Point"},"properties":{"amenity":"recycling","osm_id":"297044525","tag":{"recycling:cans":"yes","recycling:foil":"yes","recycling:paper":"yes","recycling:plastic_bottles":"y","recycling:shoes":"yes"}},"type":"Feature"},
	{"geometry":{"coordinates":[-0.794563,51.216104],"type":"Point"},"properties":{"amenity":"recycling","osm_id":"297145485"},"type":"Feature"},
	{"geometry":{"coordinates":[-0.795008,51.213727],"type":"Point"},"properties":{"amenity":"waste_basket","osm_id":"1324435052"},"type":"Feature"},
	{"geometry":{"coordinates":[-0.794766,51.213715],"type":"Point"},"properties":{"amenity":"waste_basket","osm_id":"1324435142"},"type":"Feature"},
	{"geometry":{"coordinates":[-0.796529,51.213216],"type":"Point"},"properties":{"amenity":"waste_basket","osm_id":"1324435447"},"type":"Feature"},
	{"geometry":{"coordinates":[-0.796041,51.213262],"type":"Point"},"properties":{"amenity":"waste_basket","osm_id":"1324435546"},"type":"Feature"},
	{"geometry":{"coordinates":[-0.797238,51.213137],"type":"Point"},"properties":{"amenity":"waste_basket","osm_id":"1324435547"},"type":"Feature"},
	{"geometry":{"coordinates":[-0.795624,51.217093],"type":"Point"},"properties":{"amenity":"waste_basket","osm_id":"1324435680"},"type":"Feature"},
	{"geometry":{"coordinates":[-0.80343,51.213119],"type":"Point"},"properties":{"amenity":"waste_basket","osm_id":"1328032309"},"type":"Feature"},
	{"geometry":{"coordinates":[-0.803068,51.213499],"type":"Point"},"properties":{"amenity":"waste_basket","osm_id":"1328032358"},"type":"Feature"}
]
}
