{
"type": "FeatureCollection",
"lastupdate": "2020-07-28T01:29:12Z",
"features": [
	{"geometry":{"coordinates":[-2.904386,54.376162],"type":"Point"},"properties":{"amenity":"recycling","osm_id":"834435990","tag":{"recycling:cans":"yes","recycling:clothes":"yes","recycling:glass":"yes","recycling:paper":"yes"}},"type":"Feature"},
	{"geometry":{"coordinates":[-2.901015,54.373037],"type":"Point"},"properties":{"amenity":"waste_basket","osm_id":"3915080159"},"type":"Feature"},
	{"geometry":{"coordinates":[-2.92274,54.392874],"type":"Point"},"properties":{"amenity":"recycling","osm_id":"4041962332","tag":{"recycling:cardboard":"yes","recycling:clothes":"no","recycling:glass":"no","recycling:glass_bottles":"no","recycling:paper":"yes","recycling:plastic":"no"}},"type":"Feature"},
	{"geometry":{"coordinates":[-2.902596,54.378565],"type":"Point"},"properties":{"amenity":"recycling","osm_id":"4056509054","tag":{"recycling:books":"yes","recycling:cans":"yes","recycling:cardboard":"yes","recycling:cds":"yes","recycling:clothes":"yes","recycling:glass":"yes","recycling:glass_bottles":"yes","recycling:paper":"yes","recycling:plastic":"yes","recycling:plastic_bags":"yes","recycling:shoes":"yes"}},"type":"Feature"},
	{"geometry":{"coordinates":[-2.905639,54.377676],"type":"Point"},"properties":{"amenity":"waste_basket","osm_id":"4088972242"},"type":"Feature"},
	{"geometry":{"coordinates":[-2.918747,54.393348],"type":"Point"},"properties":{"amenity":"waste_basket","osm_id":"4248081380"},"type":"Feature"},
	{"geometry":{"coordinates":[-2.918818,54.381082],"type":"Point"},"properties":{"amenity":"waste_basket","osm_id":"4248118971"},"type":"Feature"},
	{"geometry":{"coordinates":[-2.918926,54.380786],"type":"Point"},"properties":{"amenity":"waste_basket","osm_id":"4248118979"},"type":"Feature"},
	{"geometry":{"coordinates":[-2.919613,54.379022],"type":"Point"},"properties":{"amenity":"waste_basket","osm_id":"4248142305"},"type":"Feature"},
	{"geometry":{"coordinates":[-2.920237,54.394468],"type":"Point"},"properties":{"amenity":"waste_basket","osm_id":"4958467090"},"type":"Feature"},
	{"geometry":{"coordinates":[-2.913073,54.369037],"type":"Point"},"properties":{"amenity":"waste_basket","osm_id":"5028971321"},"type":"Feature"},
	{"geometry":{"coordinates":[-2.911883,54.369476],"type":"Point"},"properties":{"amenity":"waste_basket","osm_id":"5028971325"},"type":"Feature"},
	{"geometry":{"coordinates":[-2.911538,54.370489],"type":"Point"},"properties":{"amenity":"waste_basket","osm_id":"5028971331"},"type":"Feature"},
	{"geometry":{"coordinates":[-2.91108,54.370751],"type":"Point"},"properties":{"amenity":"waste_basket","osm_id":"5028971333"},"type":"Feature"},
	{"geometry":{"coordinates":[-2.91137,54.37093],"type":"Point"},"properties":{"amenity":"waste_basket","osm_id":"5028971334"},"type":"Feature"},
	{"geometry":{"coordinates":[-2.909877,54.372652],"type":"Point"},"properties":{"amenity":"waste_basket","osm_id":"5028971354"},"type":"Feature"},
	{"geometry":{"coordinates":[-2.909779,54.372881],"type":"Point"},"properties":{"amenity":"waste_basket","osm_id":"5028971355"},"type":"Feature"},
	{"geometry":{"coordinates":[-2.905083,54.380383],"type":"Point"},"properties":{"amenity":"waste_basket","osm_id":"5028971416"},"type":"Feature"},
	{"geometry":{"coordinates":[-2.914694,54.415641],"type":"Point"},"properties":{"amenity":"waste_basket","osm_id":"5109845784"},"type":"Feature"},
	{"geometry":{"coordinates":[-2.901036,54.373492],"type":"Point"},"properties":{"amenity":"waste_basket","osm_id":"5110986669"},"type":"Feature"},
	{"geometry":{"coordinates":[-2.90472,54.38035],"type":"Point"},"properties":{"amenity":"waste_basket","osm_id":"5180347989"},"type":"Feature"},
	{"geometry":{"coordinates":[-2.90339,54.37968],"type":"Point"},"properties":{"amenity":"waste_basket","osm_id":"5180347993"},"type":"Feature"},
	{"geometry":{"coordinates":[-2.903134,54.379462],"type":"Point"},"properties":{"amenity":"waste_basket","osm_id":"5180347994"},"type":"Feature"},
	{"geometry":{"coordinates":[-2.905924,54.380731],"type":"Point"},"properties":{"amenity":"waste_basket","osm_id":"5181961137"},"type":"Feature"},
	{"geometry":{"coordinates":[-2.905519,54.380837],"type":"Point"},"properties":{"amenity":"waste_basket","osm_id":"5181961139"},"type":"Feature"},
	{"geometry":{"coordinates":[-2.909671,54.377354],"type":"Point"},"properties":{"amenity":"waste_basket","osm_id":"5357690901"},"type":"Feature"},
	{"geometry":{"coordinates":[-2.913455,54.370757],"type":"Point"},"properties":{"amenity":"waste_basket","osm_id":"5368438298"},"type":"Feature"},
	{"geometry":{"coordinates":[-2.902151,54.37434],"type":"Point"},"properties":{"amenity":"waste_basket","osm_id":"5525914630"},"type":"Feature"},
	{"geometry":{"coordinates":[-2.901559,54.370389],"type":"Point"},"properties":{"amenity":"waste_basket","osm_id":"5562146223"},"type":"Feature"},
	{"geometry":{"coordinates":[-2.910721,54.381119],"type":"Point"},"properties":{"amenity":"waste_basket","osm_id":"5679521605"},"type":"Feature"},
	{"geometry":{"coordinates":[-2.970626,54.40476],"type":"Point"},"properties":{"amenity":"recycling","osm_id":"6551543873","tag":{"access":"customers","operator":"Low Wray Campsite","recycling_type":"centre"}},"type":"Feature"},
	{"geometry":{"coordinates":[-2.971888,54.406691],"type":"Point"},"properties":{"amenity":"waste_basket","osm_id":"6657291696"},"type":"Feature"},
	{"geometry":{"coordinates":[-2.971933,54.406675],"type":"Point"},"properties":{"amenity":"recycling","osm_id":"6657291708","tag":{"recycling_type":"container"}},"type":"Feature"},
	{"geometry":{"coordinates":[-2.905221,54.374917],"type":"Point"},"properties":{"amenity":"recycling","osm_id":"7223242056","tag":{"operator":"The Fire Fighters Charity","recycling:clothes":"yes","recycling:handbags":"yes","recycling:linen":"yes","recycling:shoes":"yes","recycling_type":"container"}},"type":"Feature"},
	{"geometry":{"coordinates":[-2.909132,54.372634],"type":"Point"},"properties":{"amenity":"waste_basket","osm_id":"7223242060"},"type":"Feature"},
	{"geometry":{"coordinates":[-2.9078,54.372123],"type":"Point"},"properties":{"amenity":"recycling","osm_id":"7223242061","tag":{"operator":"The Salvation Army","recycling:clothes":"yes","recycling:handbags":"yes","recycling:shoes":"yes","recycling:textiles":"yes","recycling_type":"container"}},"type":"Feature"},
	{"geometry":{"coordinates":[-2.918238,54.369974],"type":"Point"},"properties":{"amenity":"waste_basket","osm_id":"7389369639"},"type":"Feature"}
]
}
