{
"type": "FeatureCollection",
"lastupdate": "2020-07-25T00:42:33Z",
"features": [
	{"geometry":{"coordinates":[0.427406,50.832469],"type":"Point"},"properties":{"amenity":"waste_basket","osm_id":"4034002322"},"type":"Feature"},
	{"geometry":{"coordinates":[0.427639,50.832627],"type":"Point"},"properties":{"amenity":"waste_basket","osm_id":"4034002339"},"type":"Feature"},
	{"geometry":{"coordinates":[0.428896,50.834182],"type":"Point"},"properties":{"amenity":"recycling","osm_id":"4046265101","tag":{" The Gorses Car Park - geograph.org.uk - 1751711.jpg":null,"addr:street":"The Gorses","opening_hours":"24/7","recycling:books":"yes","recycling:cds":"yes","recycling:clothes":"yes","recycling:shoes":"yes","recycling_type":"container","wikimedia_commons":"File:Recycling Area"}},"type":"Feature"},
	{"geometry":{"coordinates":[0.43496,50.843699],"type":"Point"},"properties":{"amenity":"recycling","osm_id":"4046265126","tag":{" Bexhill-on-Sea.jpg":null," Little Common":null,"addr:street":"Eastway","opening_hours":"24/7","recycling:cans":"yes","recycling:clothes":"yes","recycling:glass_bottles":"yes","recycling:paper":"yes","recycling:plastic":"yes","recycling:plastic_packaging":"yes","recycling:shoes":"yes","recycling:small_appliances":"yes","recycling_type":"container","wikimedia_commons":"File:Recycling Centre"}},"type":"Feature"},
	{"geometry":{"coordinates":[0.435138,50.83351],"type":"Point"},"properties":{"amenity":"waste_basket","osm_id":"4095577335","tag":{"waste":"dog_excrement"}},"type":"Feature"},
	{"geometry":{"coordinates":[0.435387,50.833551],"type":"Point"},"properties":{"amenity":"waste_basket","osm_id":"4095577337"},"type":"Feature"},
	{"geometry":{"coordinates":[0.428905,50.83422],"type":"Point"},"properties":{"amenity":"waste_basket","osm_id":"4095577374","tag":{"waste":"dog_excrement"}},"type":"Feature"},
	{"geometry":{"coordinates":[0.434554,50.833416],"type":"Point"},"properties":{"amenity":"waste_basket","osm_id":"4212335618"},"type":"Feature"},
	{"geometry":{"coordinates":[0.433795,50.84484],"type":"Point"},"properties":{"amenity":"waste_basket","osm_id":"4407258145"},"type":"Feature"},
	{"geometry":{"coordinates":[0.433523,50.845235],"type":"Point"},"properties":{"amenity":"waste_basket","osm_id":"4407258208"},"type":"Feature"},
	{"geometry":{"coordinates":[0.433966,50.844004],"type":"Point"},"properties":{"amenity":"waste_basket","osm_id":"4411370476"},"type":"Feature"},
	{"geometry":{"coordinates":[0.438102,50.836244],"type":"Point"},"properties":{"amenity":"waste_basket","osm_id":"4821134940","tag":{"waste":"dog_excrement"}},"type":"Feature"},
	{"geometry":{"coordinates":[0.417469,50.831381],"type":"Point"},"properties":{"amenity":"waste_basket","osm_id":"4823486211"},"type":"Feature"},
	{"geometry":{"coordinates":[0.427389,50.832469],"type":"Point"},"properties":{"amenity":"waste_basket","osm_id":"4823486212","tag":{"waste":"dog_excrement"}},"type":"Feature"},
	{"geometry":{"coordinates":[0.433423,50.843877],"type":"Point"},"properties":{"amenity":"waste_basket","osm_id":"4861797515"},"type":"Feature"},
	{"geometry":{"coordinates":[0.435741,50.845312],"type":"Point"},"properties":{"amenity":"waste_basket","osm_id":"4872594860","tag":{"waste":"dog_excrement"}},"type":"Feature"},
	{"geometry":{"coordinates":[0.433909,50.84499],"type":"Point"},"properties":{"amenity":"waste_basket","osm_id":"4953331201"},"type":"Feature"},
	{"geometry":{"coordinates":[0.437089,50.846932],"type":"Point"},"properties":{"amenity":"waste_basket","osm_id":"4953331207","tag":{"waste":"dog_excrement"}},"type":"Feature"},
	{"geometry":{"coordinates":[0.438796,50.840404],"type":"Point"},"properties":{"amenity":"waste_basket","osm_id":"4970140613","tag":{"waste":"dog_excrement"}},"type":"Feature"},
	{"geometry":{"coordinates":[0.427495,50.833829],"type":"Point"},"properties":{"amenity":"waste_basket","osm_id":"5117483645"},"type":"Feature"},
	{"geometry":{"coordinates":[0.436652,50.8436],"type":"Point"},"properties":{"amenity":"waste_basket","osm_id":"5331722001"},"type":"Feature"},
	{"geometry":{"coordinates":[0.409523,50.846397],"type":"Point"},"properties":{"amenity":"waste_basket","osm_id":"5370274603"},"type":"Feature"},
	{"geometry":{"coordinates":[0.390375,50.824767],"type":"Point"},"properties":{"amenity":"waste_basket","osm_id":"5617549405"},"type":"Feature"},
	{"geometry":{"coordinates":[0.386499,50.823552],"type":"Point"},"properties":{"amenity":"waste_basket","osm_id":"5617549624","tag":{"waste":"dog_excrement"}},"type":"Feature"},
	{"geometry":{"coordinates":[0.387254,50.823706],"type":"Point"},"properties":{"amenity":"waste_basket","osm_id":"5617549630"},"type":"Feature"},
	{"geometry":{"coordinates":[0.388516,50.824074],"type":"Point"},"properties":{"amenity":"waste_basket","osm_id":"5617549631"},"type":"Feature"},
	{"geometry":{"coordinates":[0.389772,50.824328],"type":"Point"},"properties":{"amenity":"waste_basket","osm_id":"5617549638","tag":{"waste":"dog_excrement"}},"type":"Feature"},
	{"geometry":{"coordinates":[0.389691,50.824437],"type":"Point"},"properties":{"amenity":"waste_basket","osm_id":"5617549639"},"type":"Feature"},
	{"geometry":{"coordinates":[0.393502,50.826067],"type":"Point"},"properties":{"amenity":"waste_basket","osm_id":"5617549654"},"type":"Feature"},
	{"geometry":{"coordinates":[0.395636,50.825872],"type":"Point"},"properties":{"amenity":"waste_basket","osm_id":"5617549668"},"type":"Feature"},
	{"geometry":{"coordinates":[0.396714,50.826254],"type":"Point"},"properties":{"amenity":"waste_basket","osm_id":"5617549688"},"type":"Feature"},
	{"geometry":{"coordinates":[0.41166,50.830201],"type":"Point"},"properties":{"amenity":"waste_basket","osm_id":"5625271004"},"type":"Feature"},
	{"geometry":{"coordinates":[0.385252,50.823496],"type":"Point"},"properties":{"amenity":"waste_basket","osm_id":"5625271011"},"type":"Feature"},
	{"geometry":{"coordinates":[0.408939,50.845222],"type":"Point"},"properties":{"amenity":"waste_basket","osm_id":"5659084675"},"type":"Feature"},
	{"geometry":{"coordinates":[0.377535,50.821146],"type":"Point"},"properties":{"amenity":"waste_basket","osm_id":"6815640714"},"type":"Feature"},
	{"geometry":{"coordinates":[0.379103,50.821752],"type":"Point"},"properties":{"amenity":"waste_basket","osm_id":"6815640715"},"type":"Feature"}
]
}
