{
"type": "FeatureCollection",
"lastupdate": "2020-07-31T01:06:47Z",
"features": [
	{"geometry":{"coordinates":[-2.739399,54.326854],"type":"Point"},"properties":{"amenity":"recycling","name":"Canal Head HWRC","osm_id":"618370947"},"type":"Feature"},
	{"geometry":{"coordinates":[-2.736464,54.341238],"type":"Point"},"properties":{"amenity":"recycling","osm_id":"833911653"},"type":"Feature"},
	{"geometry":{"coordinates":[-2.757825,54.339519],"type":"Point"},"properties":{"amenity":"waste_basket","osm_id":"3596567222"},"type":"Feature"},
	{"geometry":{"coordinates":[-2.753714,54.336555],"type":"Point"},"properties":{"amenity":"waste_basket","osm_id":"3596618413"},"type":"Feature"},
	{"geometry":{"coordinates":[-2.739743,54.331249],"type":"Point"},"properties":{"amenity":"waste_basket","osm_id":"3598590049"},"type":"Feature"},
	{"geometry":{"coordinates":[-2.741373,54.330258],"type":"Point"},"properties":{"amenity":"waste_basket","osm_id":"3598631235"},"type":"Feature"},
	{"geometry":{"coordinates":[-2.747409,54.329235],"type":"Point"},"properties":{"amenity":"waste_basket","osm_id":"3605158127"},"type":"Feature"},
	{"geometry":{"coordinates":[-2.747055,54.323468],"type":"Point"},"properties":{"amenity":"waste_basket","osm_id":"3629306265"},"type":"Feature"},
	{"geometry":{"coordinates":[-2.747696,54.323288],"type":"Point"},"properties":{"amenity":"waste_basket","osm_id":"3631670087"},"type":"Feature"},
	{"geometry":{"coordinates":[-2.751812,54.322047],"type":"Point"},"properties":{"amenity":"waste_basket","osm_id":"3631679853"},"type":"Feature"},
	{"geometry":{"coordinates":[-2.748491,54.320577],"type":"Point"},"properties":{"amenity":"waste_basket","osm_id":"3631683635"},"type":"Feature"},
	{"geometry":{"coordinates":[-2.743599,54.324435],"type":"Point"},"properties":{"amenity":"waste_basket","osm_id":"3916756638"},"type":"Feature"},
	{"geometry":{"coordinates":[-2.757448,54.323404],"type":"Point"},"properties":{"amenity":"waste_basket","osm_id":"4738894932"},"type":"Feature"},
	{"geometry":{"coordinates":[-2.743198,54.316836],"type":"Point"},"properties":{"amenity":"waste_basket","osm_id":"4753807551"},"type":"Feature"},
	{"geometry":{"coordinates":[-2.755689,54.317034],"type":"Point"},"properties":{"amenity":"waste_basket","osm_id":"4763873484"},"type":"Feature"},
	{"geometry":{"coordinates":[-2.7611,54.35459],"type":"Point"},"properties":{"amenity":"waste_basket","osm_id":"4889492766"},"type":"Feature"},
	{"geometry":{"coordinates":[-2.7591,54.354924],"type":"Point"},"properties":{"amenity":"waste_basket","osm_id":"4889492768"},"type":"Feature"},
	{"geometry":{"coordinates":[-2.744902,54.319905],"type":"Point"},"properties":{"amenity":"waste_basket","osm_id":"4930436322"},"type":"Feature"},
	{"geometry":{"coordinates":[-2.745104,54.321721],"type":"Point"},"properties":{"amenity":"waste_basket","osm_id":"4941871995"},"type":"Feature"},
	{"geometry":{"coordinates":[-2.752388,54.321873],"type":"Point"},"properties":{"amenity":"waste_basket","osm_id":"4943479781"},"type":"Feature"},
	{"geometry":{"coordinates":[-2.745312,54.321783],"type":"Point"},"properties":{"amenity":"waste_basket","osm_id":"4954448083"},"type":"Feature"},
	{"geometry":{"coordinates":[-2.750658,54.32869],"type":"Point"},"properties":{"amenity":"waste_basket","osm_id":"5105087203"},"type":"Feature"},
	{"geometry":{"coordinates":[-2.749482,54.330116],"type":"Point"},"properties":{"amenity":"waste_basket","osm_id":"5105087204"},"type":"Feature"},
	{"geometry":{"coordinates":[-2.749505,54.330147],"type":"Point"},"properties":{"amenity":"waste_basket","osm_id":"5105087205"},"type":"Feature"},
	{"geometry":{"coordinates":[-2.744465,54.336561],"type":"Point"},"properties":{"amenity":"waste_basket","osm_id":"5105087220"},"type":"Feature"},
	{"geometry":{"coordinates":[-2.74671,54.334477],"type":"Point"},"properties":{"amenity":"waste_basket","osm_id":"5105088117"},"type":"Feature"},
	{"geometry":{"coordinates":[-2.746909,54.333563],"type":"Point"},"properties":{"amenity":"waste_basket","osm_id":"5105088442"},"type":"Feature"},
	{"geometry":{"coordinates":[-2.745825,54.332128],"type":"Point"},"properties":{"amenity":"waste_basket","osm_id":"5105088451"},"type":"Feature"},
	{"geometry":{"coordinates":[-2.745205,54.332182],"type":"Point"},"properties":{"amenity":"waste_basket","osm_id":"5106424154"},"type":"Feature"},
	{"geometry":{"coordinates":[-2.748492,54.335473],"type":"Point"},"properties":{"amenity":"waste_basket","osm_id":"5119555674"},"type":"Feature"},
	{"geometry":{"coordinates":[-2.74746,54.324419],"type":"Point"},"properties":{"amenity":"waste_basket","osm_id":"5141928571"},"type":"Feature"},
	{"geometry":{"coordinates":[-2.747531,54.326006],"type":"Point"},"properties":{"amenity":"waste_basket","osm_id":"5141928574"},"type":"Feature"},
	{"geometry":{"coordinates":[-2.747658,54.326599],"type":"Point"},"properties":{"amenity":"waste_basket","osm_id":"5141928578"},"type":"Feature"},
	{"geometry":{"coordinates":[-2.748723,54.333304],"type":"Point"},"properties":{"amenity":"waste_basket","osm_id":"5201864174"},"type":"Feature"},
	{"geometry":{"coordinates":[-2.745481,54.32966],"type":"Point"},"properties":{"amenity":"waste_basket","osm_id":"5305121710"},"type":"Feature"},
	{"geometry":{"coordinates":[-2.724611,54.322517],"type":"Point"},"properties":{"amenity":"waste_basket","osm_id":"5325337562"},"type":"Feature"},
	{"geometry":{"coordinates":[-2.733288,54.325147],"type":"Point"},"properties":{"amenity":"waste_basket","osm_id":"5366091144"},"type":"Feature"},
	{"geometry":{"coordinates":[-2.729043,54.327817],"type":"Point"},"properties":{"amenity":"waste_basket","osm_id":"5366393732"},"type":"Feature"},
	{"geometry":{"coordinates":[-2.748777,54.326745],"type":"Point"},"properties":{"amenity":"waste_basket","osm_id":"5396206083"},"type":"Feature"},
	{"geometry":{"coordinates":[-2.742961,54.319911],"type":"Point"},"properties":{"amenity":"waste_basket","osm_id":"5478398638"},"type":"Feature"},
	{"geometry":{"coordinates":[-2.735202,54.340426],"type":"Point"},"properties":{"amenity":"recycling","osm_id":"5491599065","tag":{"recycling:accessories":"yes","recycling:clothes":"yes","recycling:shoes":"yes","recycling_type":"container"}},"type":"Feature"},
	{"geometry":{"coordinates":[-2.748186,54.332615],"type":"Point"},"properties":{"amenity":"recycling","osm_id":"5744025708","tag":{"operator":"The Fire Fighters Charity","recycling:clothes":"yes","recycling:handbags":"yes","recycling:linen":"yes","recycling:shoes":"yes","recycling_type":"container"}},"type":"Feature"},
	{"geometry":{"coordinates":[-2.741111,54.339989],"type":"Point"},"properties":{"amenity":"recycling","osm_id":"5932298549","tag":{"operator":"Sainsbury's","recycling_type":"centre"}},"type":"Feature"},
	{"geometry":{"coordinates":[-2.735104,54.341121],"type":"Point"},"properties":{"amenity":"recycling","osm_id":"6535353269","tag":{"indoor":"yes","recycling:batteries":"yes","recycling_type":"container"}},"type":"Feature"}
]
}
