{
"type": "FeatureCollection",
"lastupdate": "2020-07-24T00:48:03Z",
"features": [
	{"geometry":{"coordinates":[-2.735358,51.408568],"type":"Point"},"properties":{"amenity":"recycling","name":"Backwell Recycling Center","osm_id":"29267843"},"type":"Feature"},
	{"geometry":{"coordinates":[-2.753913,51.434159],"type":"Point"},"properties":{"amenity":"waste_basket","osm_id":"6003273363"},"type":"Feature"},
	{"geometry":{"coordinates":[-2.757651,51.433553],"type":"Point"},"properties":{"amenity":"waste_basket","osm_id":"6003610483"},"type":"Feature"},
	{"geometry":{"coordinates":[-2.757821,51.433473],"type":"Point"},"properties":{"amenity":"waste_basket","osm_id":"6003610687"},"type":"Feature"},
	{"geometry":{"coordinates":[-2.758147,51.433462],"type":"Point"},"properties":{"amenity":"waste_basket","osm_id":"6003610691"},"type":"Feature"},
	{"geometry":{"coordinates":[-2.751661,51.421387],"type":"Point"},"properties":{"amenity":"waste_basket","osm_id":"6008531478"},"type":"Feature"},
	{"geometry":{"coordinates":[-2.751644,51.421431],"type":"Point"},"properties":{"amenity":"waste_basket","osm_id":"6008531479"},"type":"Feature"},
	{"geometry":{"coordinates":[-2.758954,51.433487],"type":"Point"},"properties":{"amenity":"waste_basket","osm_id":"6071897190"},"type":"Feature"},
	{"geometry":{"coordinates":[-2.758873,51.433401],"type":"Point"},"properties":{"amenity":"waste_basket","osm_id":"6071897195"},"type":"Feature"},
	{"geometry":{"coordinates":[-2.758214,51.43233],"type":"Point"},"properties":{"amenity":"waste_basket","osm_id":"6122424488"},"type":"Feature"},
	{"geometry":{"coordinates":[-2.754894,51.43423],"type":"Point"},"properties":{"amenity":"waste_basket","osm_id":"6125468125"},"type":"Feature"},
	{"geometry":{"coordinates":[-2.756966,51.433513],"type":"Point"},"properties":{"amenity":"waste_basket","osm_id":"6125472107"},"type":"Feature"},
	{"geometry":{"coordinates":[-2.756703,51.433628],"type":"Point"},"properties":{"amenity":"waste_basket","osm_id":"6125472108"},"type":"Feature"},
	{"geometry":{"coordinates":[-2.75633,51.433703],"type":"Point"},"properties":{"amenity":"waste_basket","osm_id":"6125472109"},"type":"Feature"},
	{"geometry":{"coordinates":[-2.756207,51.433639],"type":"Point"},"properties":{"amenity":"waste_basket","osm_id":"6125472111"},"type":"Feature"},
	{"geometry":{"coordinates":[-2.758434,51.433136],"type":"Point"},"properties":{"amenity":"waste_basket","osm_id":"6125708146"},"type":"Feature"},
	{"geometry":{"coordinates":[-2.761201,51.433828],"type":"Point"},"properties":{"amenity":"waste_basket","osm_id":"6125732282"},"type":"Feature"},
	{"geometry":{"coordinates":[-2.761244,51.433939],"type":"Point"},"properties":{"amenity":"waste_basket","osm_id":"6125732284"},"type":"Feature"},
	{"geometry":{"coordinates":[-2.758916,51.432491],"type":"Point"},"properties":{"amenity":"waste_basket","osm_id":"6125732309"},"type":"Feature"},
	{"geometry":{"coordinates":[-2.760257,51.432523],"type":"Point"},"properties":{"amenity":"waste_basket","osm_id":"6125744271"},"type":"Feature"},
	{"geometry":{"coordinates":[-2.761861,51.432558],"type":"Point"},"properties":{"amenity":"waste_basket","osm_id":"6125744899"},"type":"Feature"},
	{"geometry":{"coordinates":[-2.789483,51.44299],"type":"Point"},"properties":{"amenity":"waste_basket","osm_id":"6355493000"},"type":"Feature"},
	{"geometry":{"coordinates":[-2.769987,51.442249],"type":"Point"},"properties":{"amenity":"waste_basket","osm_id":"6356542147"},"type":"Feature"},
	{"geometry":{"coordinates":[-2.792027,51.443054],"type":"Point"},"properties":{"amenity":"waste_basket","osm_id":"6357003163"},"type":"Feature"},
	{"geometry":{"coordinates":[-2.795352,51.441786],"type":"Point"},"properties":{"amenity":"waste_basket","osm_id":"6357074646","tag":{"waste":"dog_excrement"}},"type":"Feature"},
	{"geometry":{"coordinates":[-2.781306,51.439177],"type":"Point"},"properties":{"amenity":"waste_basket","osm_id":"6358514987"},"type":"Feature"},
	{"geometry":{"coordinates":[-2.743972,51.441403],"type":"Point"},"properties":{"amenity":"waste_basket","osm_id":"7467880733"},"type":"Feature"},
	{"geometry":{"coordinates":[-2.743346,51.441427],"type":"Point"},"properties":{"amenity":"waste_basket","osm_id":"7467880734"},"type":"Feature"},
	{"geometry":{"coordinates":[-2.733685,51.444119],"type":"Point"},"properties":{"amenity":"waste_basket","osm_id":"7512325171"},"type":"Feature"},
	{"geometry":{"coordinates":[-2.727891,51.440673],"type":"Point"},"properties":{"amenity":"waste_basket","osm_id":"7519638325"},"type":"Feature"}
]
}
