{
"type": "FeatureCollection",
"lastupdate": "2020-07-27T00:28:31Z",
"features": [
	{"geometry":{"coordinates":[-0.709313,51.601426],"type":"Point"},"properties":{"amenity":"recycling","osm_id":"1231149797"},"type":"Feature"},
	{"geometry":{"coordinates":[-0.710892,51.579246],"type":"Point"},"properties":{"amenity":"recycling","osm_id":"1595053383","tag":{"recycling_type":"centre"}},"type":"Feature"},
	{"geometry":{"coordinates":[-0.713542,51.615963],"type":"Point"},"properties":{"amenity":"waste_basket","osm_id":"2829661023","tag":{"waste":"dog_excrement"}},"type":"Feature"},
	{"geometry":{"coordinates":[-0.718094,51.616286],"type":"Point"},"properties":{"amenity":"waste_basket","osm_id":"2829661058"},"type":"Feature"},
	{"geometry":{"coordinates":[-0.719138,51.61674],"type":"Point"},"properties":{"amenity":"waste_basket","osm_id":"2829661093"},"type":"Feature"},
	{"geometry":{"coordinates":[-0.719753,51.616939],"type":"Point"},"properties":{"amenity":"waste_basket","osm_id":"2829661101"},"type":"Feature"},
	{"geometry":{"coordinates":[-0.715137,51.617204],"type":"Point"},"properties":{"amenity":"waste_basket","osm_id":"2829661120"},"type":"Feature"},
	{"geometry":{"coordinates":[-0.716106,51.617738],"type":"Point"},"properties":{"amenity":"waste_basket","osm_id":"2829661152"},"type":"Feature"},
	{"geometry":{"coordinates":[-0.715961,51.617843],"type":"Point"},"properties":{"amenity":"waste_basket","osm_id":"2829661159"},"type":"Feature"},
	{"geometry":{"coordinates":[-0.718653,51.617853],"type":"Point"},"properties":{"amenity":"waste_basket","osm_id":"2829661162"},"type":"Feature"},
	{"geometry":{"coordinates":[-0.715513,51.617795],"type":"Point"},"properties":{"amenity":"waste_basket","osm_id":"2882479238"},"type":"Feature"},
	{"geometry":{"coordinates":[-0.704504,51.612856],"type":"Point"},"properties":{"amenity":"waste_basket","osm_id":"2891417015","tag":{"waste":"dog_excrement"}},"type":"Feature"},
	{"geometry":{"coordinates":[-0.704538,51.612883],"type":"Point"},"properties":{"amenity":"waste_basket","osm_id":"2891417016"},"type":"Feature"},
	{"geometry":{"coordinates":[-0.705253,51.613416],"type":"Point"},"properties":{"amenity":"waste_basket","osm_id":"2891417026"},"type":"Feature"},
	{"geometry":{"coordinates":[-0.70984,51.615696],"type":"Point"},"properties":{"amenity":"waste_basket","osm_id":"2891417079"},"type":"Feature"},
	{"geometry":{"coordinates":[-0.705953,51.610778],"type":"Point"},"properties":{"amenity":"waste_basket","osm_id":"2927356350"},"type":"Feature"},
	{"geometry":{"coordinates":[-0.709697,51.612382],"type":"Point"},"properties":{"amenity":"waste_basket","osm_id":"2927356403","tag":{"waste":"dog_excrement"}},"type":"Feature"},
	{"geometry":{"coordinates":[-0.709581,51.6124],"type":"Point"},"properties":{"amenity":"waste_basket","osm_id":"2927356405"},"type":"Feature"},
	{"geometry":{"coordinates":[-0.710234,51.612723],"type":"Point"},"properties":{"amenity":"waste_basket","osm_id":"2927356410"},"type":"Feature"},
	{"geometry":{"coordinates":[-0.710945,51.613099],"type":"Point"},"properties":{"amenity":"waste_basket","osm_id":"2927356412"},"type":"Feature"},
	{"geometry":{"coordinates":[-0.711418,51.61335],"type":"Point"},"properties":{"amenity":"waste_basket","osm_id":"2927356414"},"type":"Feature"},
	{"geometry":{"coordinates":[-0.714037,51.614707],"type":"Point"},"properties":{"amenity":"waste_basket","osm_id":"2927356417","tag":{"waste":"dog_excrement"}},"type":"Feature"},
	{"geometry":{"coordinates":[-0.759519,51.593948],"type":"Point"},"properties":{"amenity":"waste_basket","osm_id":"3563398817"},"type":"Feature"},
	{"geometry":{"coordinates":[-0.703861,51.577886],"type":"Point"},"properties":{"amenity":"waste_basket","osm_id":"4631560506"},"type":"Feature"},
	{"geometry":{"coordinates":[-0.778511,51.572775],"type":"Point"},"properties":{"amenity":"waste_basket","osm_id":"5620565727","tag":{"waste":"trash"}},"type":"Feature"},
	{"geometry":{"coordinates":[-0.780165,51.572521],"type":"Point"},"properties":{"amenity":"recycling","osm_id":"5620565734","tag":{"recycling:cans":"yes","recycling:plastic":"yes","recycling:waste":"yes","recycling_type":"container"}},"type":"Feature"},
	{"geometry":{"coordinates":[-0.780192,51.572638],"type":"Point"},"properties":{"amenity":"waste_basket","osm_id":"5620565735","tag":{"waste":"dog_excrement"}},"type":"Feature"},
	{"geometry":{"coordinates":[-0.778387,51.572682],"type":"Point"},"properties":{"amenity":"waste_basket","osm_id":"5620565740","tag":{"waste":"dog_excrement"}},"type":"Feature"},
	{"geometry":{"coordinates":[-0.779449,51.573671],"type":"Point"},"properties":{"amenity":"waste_basket","osm_id":"5620565746","tag":{"waste":"dog_excrement"}},"type":"Feature"},
	{"geometry":{"coordinates":[-0.779846,51.573521],"type":"Point"},"properties":{"amenity":"waste_basket","osm_id":"5620565747","tag":{"waste":"trash"}},"type":"Feature"},
	{"geometry":{"coordinates":[-0.779886,51.573579],"type":"Point"},"properties":{"amenity":"waste_basket","osm_id":"5620565748","tag":{"waste":"trash"}},"type":"Feature"},
	{"geometry":{"coordinates":[-0.778416,51.574752],"type":"Point"},"properties":{"amenity":"waste_basket","osm_id":"5620565795","tag":{"waste":"trash"}},"type":"Feature"},
	{"geometry":{"coordinates":[-0.773958,51.574379],"type":"Point"},"properties":{"amenity":"waste_basket","osm_id":"5620565953","tag":{"waste":"dog_excrement"}},"type":"Feature"},
	{"geometry":{"coordinates":[-0.774879,51.574132],"type":"Point"},"properties":{"amenity":"waste_basket","osm_id":"5620565956","tag":{"waste":"trash"}},"type":"Feature"},
	{"geometry":{"coordinates":[-0.774725,51.574307],"type":"Point"},"properties":{"amenity":"waste_basket","osm_id":"5620565958","tag":{"waste":"trash"}},"type":"Feature"},
	{"geometry":{"coordinates":[-0.775505,51.574169],"type":"Point"},"properties":{"amenity":"waste_basket","osm_id":"5620565960","tag":{"waste":"trash"}},"type":"Feature"},
	{"geometry":{"coordinates":[-0.776243,51.57397],"type":"Point"},"properties":{"amenity":"waste_basket","osm_id":"5620565965","tag":{"waste":"dog_excrement"}},"type":"Feature"},
	{"geometry":{"coordinates":[-0.77629,51.573891],"type":"Point"},"properties":{"amenity":"waste_basket","osm_id":"5620565966","tag":{"waste":"trash"}},"type":"Feature"},
	{"geometry":{"coordinates":[-0.776324,51.573402],"type":"Point"},"properties":{"amenity":"waste_basket","osm_id":"5620565991","tag":{"waste":"trash"}},"type":"Feature"},
	{"geometry":{"coordinates":[-0.776883,51.573786],"type":"Point"},"properties":{"amenity":"waste_basket","osm_id":"5620566000","tag":{"waste":"trash"}},"type":"Feature"},
	{"geometry":{"coordinates":[-0.776607,51.573605],"type":"Point"},"properties":{"amenity":"waste_basket","osm_id":"5620566001","tag":{"waste":"trash"}},"type":"Feature"},
	{"geometry":{"coordinates":[-0.77642,51.573481],"type":"Point"},"properties":{"amenity":"waste_basket","osm_id":"5620566004","tag":{"waste":"trash"}},"type":"Feature"},
	{"geometry":{"coordinates":[-0.776633,51.571768],"type":"Point"},"properties":{"amenity":"waste_basket","osm_id":"5620566129","tag":{"waste":"trash"}},"type":"Feature"},
	{"geometry":{"coordinates":[-0.77471,51.569586],"type":"Point"},"properties":{"amenity":"waste_basket","osm_id":"5620566138","tag":{"waste":"trash"}},"type":"Feature"},
	{"geometry":{"coordinates":[-0.774304,51.569445],"type":"Point"},"properties":{"amenity":"waste_basket","osm_id":"5620566141","tag":{"waste":"trash"}},"type":"Feature"},
	{"geometry":{"coordinates":[-0.774556,51.568991],"type":"Point"},"properties":{"amenity":"waste_basket","osm_id":"5620566166","tag":{"waste":"trash"}},"type":"Feature"},
	{"geometry":{"coordinates":[-0.774115,51.568666],"type":"Point"},"properties":{"amenity":"waste_basket","osm_id":"5620566173","tag":{"waste":"trash"}},"type":"Feature"},
	{"geometry":{"coordinates":[-0.774054,51.570593],"type":"Point"},"properties":{"amenity":"waste_basket","osm_id":"5620566182","tag":{"waste":"trash"}},"type":"Feature"},
	{"geometry":{"coordinates":[-0.774113,51.57057],"type":"Point"},"properties":{"amenity":"waste_basket","osm_id":"5620566183","tag":{"waste":"trash"}},"type":"Feature"},
	{"geometry":{"coordinates":[-0.774133,51.570524],"type":"Point"},"properties":{"amenity":"waste_basket","osm_id":"5620566219","tag":{"waste":"dog_excrement"}},"type":"Feature"},
	{"geometry":{"coordinates":[-0.773829,51.568646],"type":"Point"},"properties":{"amenity":"waste_basket","osm_id":"5620566225","tag":{"waste":"trash"}},"type":"Feature"},
	{"geometry":{"coordinates":[-0.771465,51.570548],"type":"Point"},"properties":{"amenity":"waste_basket","osm_id":"5620566257","tag":{"waste":"trash"}},"type":"Feature"},
	{"geometry":{"coordinates":[-0.768664,51.571591],"type":"Point"},"properties":{"amenity":"waste_basket","osm_id":"5620566279","tag":{"waste":"trash"}},"type":"Feature"},
	{"geometry":{"coordinates":[-0.763939,51.568588],"type":"Point"},"properties":{"amenity":"waste_basket","osm_id":"5620566282","tag":{"waste":"dog_excrement"}},"type":"Feature"},
	{"geometry":{"coordinates":[-0.763951,51.568585],"type":"Point"},"properties":{"amenity":"waste_basket","osm_id":"5620566283","tag":{"waste":"trash"}},"type":"Feature"},
	{"geometry":{"coordinates":[-0.766491,51.567836],"type":"Point"},"properties":{"amenity":"waste_basket","osm_id":"5620566284","tag":{"waste":"trash"}},"type":"Feature"},
	{"geometry":{"coordinates":[-0.776732,51.566225],"type":"Point"},"properties":{"amenity":"waste_basket","osm_id":"5620566326","tag":{"waste":"trash"}},"type":"Feature"},
	{"geometry":{"coordinates":[-0.776594,51.566347],"type":"Point"},"properties":{"amenity":"waste_basket","osm_id":"5620566329","tag":{"waste":"dog_excrement"}},"type":"Feature"},
	{"geometry":{"coordinates":[-0.776543,51.566366],"type":"Point"},"properties":{"amenity":"waste_basket","osm_id":"5620566330","tag":{"waste":"trash"}},"type":"Feature"},
	{"geometry":{"coordinates":[-0.775532,51.567302],"type":"Point"},"properties":{"amenity":"waste_basket","osm_id":"5620566336","tag":{"waste":"trash"}},"type":"Feature"},
	{"geometry":{"coordinates":[-0.775647,51.567157],"type":"Point"},"properties":{"amenity":"waste_basket","osm_id":"5620566338","tag":{"waste":"dog_excrement"}},"type":"Feature"},
	{"geometry":{"coordinates":[-0.776757,51.567654],"type":"Point"},"properties":{"amenity":"waste_basket","osm_id":"5620566341","tag":{"waste":"trash"}},"type":"Feature"},
	{"geometry":{"coordinates":[-0.77752,51.567681],"type":"Point"},"properties":{"amenity":"waste_basket","osm_id":"5620566342","tag":{"waste":"trash"}},"type":"Feature"},
	{"geometry":{"coordinates":[-0.778885,51.566985],"type":"Point"},"properties":{"amenity":"waste_basket","osm_id":"5620566346","tag":{"waste":"trash"}},"type":"Feature"},
	{"geometry":{"coordinates":[-0.779382,51.567171],"type":"Point"},"properties":{"amenity":"recycling","osm_id":"5620566352","tag":{"recycling:cans":"yes","recycling:paper":"yes","recycling:plastic":"no","recycling:plastic_bottles":"yes","recycling:plastic_packaging":"no","recycling_type":"container"}},"type":"Feature"},
	{"geometry":{"coordinates":[-0.778771,51.567992],"type":"Point"},"properties":{"amenity":"waste_basket","osm_id":"5620566364","tag":{"waste":"trash"}},"type":"Feature"},
	{"geometry":{"coordinates":[-0.778746,51.568012],"type":"Point"},"properties":{"amenity":"waste_basket","osm_id":"5620566365","tag":{"waste":"dog_excrement"}},"type":"Feature"},
	{"geometry":{"coordinates":[-0.77395,51.568254],"type":"Point"},"properties":{"amenity":"waste_basket","osm_id":"5620566375","tag":{"waste":"dog_excrement"}},"type":"Feature"},
	{"geometry":{"coordinates":[-0.776022,51.566699],"type":"Point"},"properties":{"amenity":"waste_basket","osm_id":"5620566380","tag":{"waste":"trash"}},"type":"Feature"},
	{"geometry":{"coordinates":[-0.776235,51.566583],"type":"Point"},"properties":{"amenity":"waste_basket","osm_id":"5620566381","tag":{"waste":"trash"}},"type":"Feature"},
	{"geometry":{"coordinates":[-0.776455,51.567649],"type":"Point"},"properties":{"amenity":"waste_basket","osm_id":"5620566382","tag":{"waste":"trash"}},"type":"Feature"},
	{"geometry":{"coordinates":[-0.776357,51.56775],"type":"Point"},"properties":{"amenity":"waste_basket","osm_id":"5620566384","tag":{"waste":"dog_excrement"}},"type":"Feature"},
	{"geometry":{"coordinates":[-0.777263,51.567444],"type":"Point"},"properties":{"amenity":"waste_basket","osm_id":"5620566391","tag":{"waste":"trash"}},"type":"Feature"},
	{"geometry":{"coordinates":[-0.777684,51.566792],"type":"Point"},"properties":{"amenity":"waste_basket","osm_id":"5620566393","tag":{"waste":"trash"}},"type":"Feature"},
	{"geometry":{"coordinates":[-0.777661,51.567126],"type":"Point"},"properties":{"amenity":"waste_basket","osm_id":"5620566394","tag":{"waste":"trash"}},"type":"Feature"},
	{"geometry":{"coordinates":[-0.777532,51.567289],"type":"Point"},"properties":{"amenity":"waste_basket","osm_id":"5620566397","tag":{"waste":"trash"}},"type":"Feature"},
	{"geometry":{"coordinates":[-0.776938,51.568008],"type":"Point"},"properties":{"amenity":"waste_basket","osm_id":"5620566728","tag":{"waste":"trash"}},"type":"Feature"},
	{"geometry":{"coordinates":[-0.776822,51.568431],"type":"Point"},"properties":{"amenity":"waste_basket","osm_id":"5620566766","tag":{"waste":"trash"}},"type":"Feature"},
	{"geometry":{"coordinates":[-0.779112,51.570992],"type":"Point"},"properties":{"amenity":"waste_basket","osm_id":"5620566785","tag":{"waste":"trash"}},"type":"Feature"},
	{"geometry":{"coordinates":[-0.763466,51.579157],"type":"Point"},"properties":{"amenity":"waste_basket","osm_id":"5700726692","tag":{"waste":"trash"}},"type":"Feature"},
	{"geometry":{"coordinates":[-0.783188,51.617278],"type":"Point"},"properties":{"amenity":"waste_basket","osm_id":"5700726776","tag":{"waste":"trash"}},"type":"Feature"},
	{"geometry":{"coordinates":[-0.783152,51.6166],"type":"Point"},"properties":{"amenity":"waste_basket","osm_id":"5700726847","tag":{"waste":"trash"}},"type":"Feature"},
	{"geometry":{"coordinates":[-0.78291,51.617307],"type":"Point"},"properties":{"amenity":"waste_basket","osm_id":"5700726848","tag":{"waste":"trash"}},"type":"Feature"},
	{"geometry":{"coordinates":[-0.782834,51.617354],"type":"Point"},"properties":{"amenity":"waste_basket","osm_id":"5700726849","tag":{"waste":"trash"}},"type":"Feature"},
	{"geometry":{"coordinates":[-0.775008,51.567881],"type":"Point"},"properties":{"amenity":"waste_basket","osm_id":"5754820858","tag":{"waste":"trash"}},"type":"Feature"},
	{"geometry":{"coordinates":[-0.77608,51.566978],"type":"Point"},"properties":{"amenity":"waste_basket","osm_id":"5754820862","tag":{"waste":"trash"}},"type":"Feature"},
	{"geometry":{"coordinates":[-0.776598,51.566623],"type":"Point"},"properties":{"amenity":"waste_basket","osm_id":"5754820863","tag":{"waste":"trash"}},"type":"Feature"},
	{"geometry":{"coordinates":[-0.776782,51.566596],"type":"Point"},"properties":{"amenity":"waste_basket","osm_id":"5754820867","tag":{"waste":"trash"}},"type":"Feature"},
	{"geometry":{"coordinates":[-0.776315,51.566727],"type":"Point"},"properties":{"amenity":"waste_basket","osm_id":"5754820870","tag":{"waste":"trash"}},"type":"Feature"},
	{"geometry":{"coordinates":[-0.778091,51.572786],"type":"Point"},"properties":{"amenity":"waste_basket","osm_id":"5754821243","tag":{"waste":"trash"}},"type":"Feature"},
	{"geometry":{"coordinates":[-0.777812,51.572555],"type":"Point"},"properties":{"amenity":"waste_basket","osm_id":"5754821244","tag":{"waste":"trash"}},"type":"Feature"},
	{"geometry":{"coordinates":[-0.705484,51.612811],"type":"Point"},"properties":{"amenity":"waste_basket","osm_id":"5844693502","tag":{"waste":"dog_excrement"}},"type":"Feature"},
	{"geometry":{"coordinates":[-0.707689,51.612153],"type":"Point"},"properties":{"amenity":"waste_basket","osm_id":"5844693504","tag":{"waste":"dog_excrement"}},"type":"Feature"},
	{"geometry":{"coordinates":[-0.707799,51.612219],"type":"Point"},"properties":{"amenity":"waste_basket","osm_id":"5844693505","tag":{"waste":"trash"}},"type":"Feature"},
	{"geometry":{"coordinates":[-0.716896,51.6091],"type":"Point"},"properties":{"amenity":"waste_basket","osm_id":"5844693520","tag":{"waste":"trash"}},"type":"Feature"},
	{"geometry":{"coordinates":[-0.717411,51.608339],"type":"Point"},"properties":{"amenity":"waste_basket","osm_id":"5844693527","tag":{"waste":"dog_excrement"}},"type":"Feature"},
	{"geometry":{"coordinates":[-0.789346,51.616427],"type":"Point"},"properties":{"amenity":"waste_basket","osm_id":"5976126481","tag":{"waste":"dog_excrement"}},"type":"Feature"},
	{"geometry":{"coordinates":[-0.789997,51.616146],"type":"Point"},"properties":{"amenity":"waste_basket","osm_id":"5976126482","tag":{"waste":"trash"}},"type":"Feature"},
	{"geometry":{"coordinates":[-0.790123,51.617953],"type":"Point"},"properties":{"amenity":"waste_basket","osm_id":"5976126494","tag":{"waste":"trash"}},"type":"Feature"},
	{"geometry":{"coordinates":[-0.789713,51.617979],"type":"Point"},"properties":{"amenity":"waste_basket","osm_id":"5976126496","tag":{"waste":"dog_excrement"}},"type":"Feature"},
	{"geometry":{"coordinates":[-0.78942,51.61791],"type":"Point"},"properties":{"amenity":"waste_basket","osm_id":"5976126497","tag":{"waste":"trash"}},"type":"Feature"},
	{"geometry":{"coordinates":[-0.787904,51.617473],"type":"Point"},"properties":{"amenity":"waste_basket","osm_id":"5976126510","tag":{"waste":"trash"}},"type":"Feature"},
	{"geometry":{"coordinates":[-0.787707,51.617373],"type":"Point"},"properties":{"amenity":"waste_basket","osm_id":"5976126511","tag":{"waste":"dog_excrement"}},"type":"Feature"},
	{"geometry":{"coordinates":[-0.787502,51.614794],"type":"Point"},"properties":{"amenity":"waste_basket","osm_id":"5976126733","tag":{"waste":"trash"}},"type":"Feature"},
	{"geometry":{"coordinates":[-0.787892,51.610641],"type":"Point"},"properties":{"amenity":"waste_basket","osm_id":"5976126745","tag":{"waste":"dog_excrement"}},"type":"Feature"},
	{"geometry":{"coordinates":[-0.788115,51.611736],"type":"Point"},"properties":{"amenity":"waste_basket","osm_id":"5976126746","tag":{"waste":"dog_excrement"}},"type":"Feature"},
	{"geometry":{"coordinates":[-0.786179,51.611834],"type":"Point"},"properties":{"amenity":"waste_basket","osm_id":"5976126749","tag":{"waste":"trash"}},"type":"Feature"},
	{"geometry":{"coordinates":[-0.780636,51.612694],"type":"Point"},"properties":{"amenity":"waste_basket","osm_id":"5976126834","tag":{"waste":"trash"}},"type":"Feature"},
	{"geometry":{"coordinates":[-0.766152,51.617232],"type":"Point"},"properties":{"amenity":"waste_basket","osm_id":"5976126846","tag":{"waste":"trash"}},"type":"Feature"},
	{"geometry":{"coordinates":[-0.762573,51.61644],"type":"Point"},"properties":{"amenity":"waste_basket","osm_id":"5976126963","tag":{"waste":"dog_excrement"}},"type":"Feature"},
	{"geometry":{"coordinates":[-0.763338,51.614387],"type":"Point"},"properties":{"amenity":"waste_basket","osm_id":"5976127100","tag":{"waste":"trash"}},"type":"Feature"},
	{"geometry":{"coordinates":[-0.763112,51.614273],"type":"Point"},"properties":{"amenity":"waste_basket","osm_id":"5976127133","tag":{"waste":"trash"}},"type":"Feature"},
	{"geometry":{"coordinates":[-0.763014,51.614289],"type":"Point"},"properties":{"amenity":"waste_basket","osm_id":"5976127307","tag":{"waste":"trash"}},"type":"Feature"},
	{"geometry":{"coordinates":[-0.765842,51.617416],"type":"Point"},"properties":{"amenity":"waste_basket","osm_id":"5976127320","tag":{"waste":"trash"}},"type":"Feature"},
	{"geometry":{"coordinates":[-0.765773,51.617606],"type":"Point"},"properties":{"amenity":"waste_basket","osm_id":"5976127344","tag":{"waste":"trash"}},"type":"Feature"},
	{"geometry":{"coordinates":[-0.763873,51.61405],"type":"Point"},"properties":{"amenity":"waste_basket","osm_id":"5976127541","tag":{"waste":"trash"}},"type":"Feature"},
	{"geometry":{"coordinates":[-0.786201,51.611354],"type":"Point"},"properties":{"amenity":"waste_basket","osm_id":"5976127567","tag":{"waste":"trash"}},"type":"Feature"},
	{"geometry":{"coordinates":[-0.764214,51.613955],"type":"Point"},"properties":{"amenity":"waste_basket","osm_id":"5976127583","tag":{"waste":"trash"}},"type":"Feature"},
	{"geometry":{"coordinates":[-0.763682,51.614181],"type":"Point"},"properties":{"amenity":"waste_basket","osm_id":"5976127719","tag":{"waste":"trash"}},"type":"Feature"},
	{"geometry":{"coordinates":[-0.763089,51.614278],"type":"Point"},"properties":{"amenity":"waste_basket","osm_id":"5976127790","tag":{"waste":"trash"}},"type":"Feature"},
	{"geometry":{"coordinates":[-0.762576,51.614379],"type":"Point"},"properties":{"amenity":"waste_basket","osm_id":"5976127861","tag":{"waste":"trash"}},"type":"Feature"},
	{"geometry":{"coordinates":[-0.786093,51.611342],"type":"Point"},"properties":{"amenity":"waste_basket","osm_id":"5976127877","tag":{"waste":"dog_excrement"}},"type":"Feature"},
	{"geometry":{"coordinates":[-0.766077,51.616984],"type":"Point"},"properties":{"amenity":"waste_basket","osm_id":"5976127894","tag":{"waste":"trash"}},"type":"Feature"},
	{"geometry":{"coordinates":[-0.76621,51.617332],"type":"Point"},"properties":{"amenity":"waste_basket","osm_id":"5976127901","tag":{"waste":"trash"}},"type":"Feature"},
	{"geometry":{"coordinates":[-0.765628,51.617519],"type":"Point"},"properties":{"amenity":"waste_basket","osm_id":"5976127951","tag":{"waste":"trash"}},"type":"Feature"},
	{"geometry":{"coordinates":[-0.761693,51.614597],"type":"Point"},"properties":{"amenity":"waste_basket","osm_id":"5976128009","tag":{"waste":"trash"}},"type":"Feature"},
	{"geometry":{"coordinates":[-0.763535,51.614265],"type":"Point"},"properties":{"amenity":"waste_basket","osm_id":"5976128052","tag":{"waste":"trash"}},"type":"Feature"},
	{"geometry":{"coordinates":[-0.764028,51.614002],"type":"Point"},"properties":{"amenity":"waste_basket","osm_id":"5976128096","tag":{"waste":"trash"}},"type":"Feature"},
	{"geometry":{"coordinates":[-0.704523,51.60407],"type":"Point"},"properties":{"amenity":"waste_basket","osm_id":"6052614036"},"type":"Feature"}
]
}
