{
"type": "FeatureCollection",
"lastupdate": "2020-07-30T00:29:16Z",
"features": [
	{"geometry":{"coordinates":[-0.760692,51.290563],"type":"Point"},"properties":{"amenity":"recycling","name":"Asda recycling","osm_id":"448282681"},"type":"Feature"},
	{"geometry":{"coordinates":[-0.779945,51.298537],"type":"Point"},"properties":{"amenity":"recycling","name":"Bottle bank","osm_id":"459173283"},"type":"Feature"},
	{"geometry":{"coordinates":[-0.770588,51.298552],"type":"Point"},"properties":{"amenity":"recycling","name":"Bottle bank","osm_id":"459173284"},"type":"Feature"},
	{"geometry":{"coordinates":[-0.741671,51.298512],"type":"Point"},"properties":{"amenity":"recycling","osm_id":"763208722","tag":{"location":"overground","recycling_type":"container"}},"type":"Feature"},
	{"geometry":{"coordinates":[-0.74351,51.301492],"type":"Point"},"properties":{"amenity":"recycling","osm_id":"763208729"},"type":"Feature"},
	{"geometry":{"coordinates":[-0.772422,51.334048],"type":"Point"},"properties":{"amenity":"recycling","osm_id":"775270656"},"type":"Feature"},
	{"geometry":{"coordinates":[-0.776755,51.337434],"type":"Point"},"properties":{"amenity":"recycling","osm_id":"775270664"},"type":"Feature"},
	{"geometry":{"coordinates":[-0.777679,51.3399],"type":"Point"},"properties":{"amenity":"recycling","name":"Aldi","osm_id":"775270671","tag":{"recycling_type":"container"}},"type":"Feature"},
	{"geometry":{"coordinates":[-0.752233,51.308708],"type":"Point"},"properties":{"amenity":"recycling","osm_id":"1279656688","tag":{"recycling:glass":"yes"}},"type":"Feature"},
	{"geometry":{"coordinates":[-0.7795,51.305911],"type":"Point"},"properties":{"amenity":"recycling","osm_id":"1596210632"},"type":"Feature"},
	{"geometry":{"coordinates":[-0.763209,51.322806],"type":"Point"},"properties":{"amenity":"recycling","osm_id":"2122771925","tag":{"location":"overground","recycling_type":"container"}},"type":"Feature"},
	{"geometry":{"coordinates":[-0.774051,51.313367],"type":"Point"},"properties":{"amenity":"recycling","osm_id":"2433744479"},"type":"Feature"},
	{"geometry":{"coordinates":[-0.758023,51.290128],"type":"Point"},"properties":{"amenity":"waste_basket","osm_id":"5780394983"},"type":"Feature"},
	{"geometry":{"coordinates":[-0.757685,51.289673],"type":"Point"},"properties":{"amenity":"waste_basket","osm_id":"5780394984"},"type":"Feature"},
	{"geometry":{"coordinates":[-0.757658,51.289633],"type":"Point"},"properties":{"amenity":"waste_basket","osm_id":"5780394985"},"type":"Feature"},
	{"geometry":{"coordinates":[-0.747673,51.333663],"type":"Point"},"properties":{"amenity":"waste_basket","osm_id":"6133634962"},"type":"Feature"},
	{"geometry":{"coordinates":[-0.746793,51.333798],"type":"Point"},"properties":{"amenity":"waste_basket","osm_id":"6133634988"},"type":"Feature"},
	{"geometry":{"coordinates":[-0.756443,51.324602],"type":"Point"},"properties":{"amenity":"recycling","osm_id":"6482379783"},"type":"Feature"}
]
}
