{
"type": "FeatureCollection",
"lastupdate": "2020-07-31T01:06:47Z",
"features": [
	{"geometry":{"coordinates":[-0.780669,51.21912],"type":"Point"},"properties":{"amenity":"recycling","name":"Farnham Community Recycling Centre","osm_id":"297054291","tag":{"Su 09:00-16:00; Jan 01 off; Dec 25 off; Dec 26 off":null,"Tu":null,"We 08:00-16:00; Sa":null,"addr:city":"Farnham","addr:postcode":"GU9 9PS","addr:street":"Bourne Mill","opening_hours":"Mo","phone":"+44 1252 726 316","recycling:cans":"yes","recycling:clothes":"yes","recycling:glass":"yes","recycling:paper":"yes","recycling_type":"centre","website":"http://new.surreycc.gov.uk/environment-housing-and-planning/waste-and-recycling/where-to-take-your-waste-and-recycling/community-recycling-centres-household-waste-and-recycling-centres/farnham-community-recycling-centre"}},"type":"Feature"},
	{"geometry":{"coordinates":[-0.790175,51.196668],"type":"Point"},"properties":{"amenity":"waste_basket","osm_id":"1643979346"},"type":"Feature"},
	{"geometry":{"coordinates":[-0.774702,51.223199],"type":"Point"},"properties":{"amenity":"recycling","name":"Recycling containers","osm_id":"1651865336","tag":{"addr:city":"Farnham","addr:housename":"Water Lane Sainsbury's","addr:postcode":"GU9 9NJ","addr:street":"Water Lane","recycling:cans":"yes","recycling:cardboard":"yes","recycling:cartons":"yes","recycling:clothes":"yes","recycling:foil":"yes","recycling:glass":"no","recycling:paper":"yes","recycling:plastic_bottles":"yes","recycling_type":"container"}},"type":"Feature"},
	{"geometry":{"coordinates":[-0.739808,51.233267],"type":"Point"},"properties":{"amenity":"waste_basket","osm_id":"4170414323"},"type":"Feature"},
	{"geometry":{"coordinates":[-0.784229,51.22669],"type":"Point"},"properties":{"amenity":"waste_basket","osm_id":"7535497094","tag":{"colour":"black","material":"metal","waste":"mixed"}},"type":"Feature"},
	{"geometry":{"coordinates":[-0.783727,51.223122],"type":"Point"},"properties":{"amenity":"waste_basket","osm_id":"7535497095","tag":{"colour":"black","material":"metal","waste":"litter;cigarettes"}},"type":"Feature"}
]
}
