{
"type": "FeatureCollection",
"lastupdate": "2020-07-25T00:42:33Z",
"features": [
	{"geometry":{"coordinates":[-0.750025,50.982387],"type":"Point"},"properties":{"amenity":"recycling","name":"Midhurst Household Waste Recycling Site","osm_id":"1057514818","tag":{"recycling_type":"centre"}},"type":"Feature"},
	{"geometry":{"coordinates":[-0.738632,50.987562],"type":"Point"},"properties":{"amenity":"waste_basket","osm_id":"2383555907"},"type":"Feature"},
	{"geometry":{"coordinates":[-0.741614,50.98414],"type":"Point"},"properties":{"amenity":"waste_basket","osm_id":"2383555909"},"type":"Feature"},
	{"geometry":{"coordinates":[-0.761272,50.977327],"type":"Point"},"properties":{"amenity":"waste_basket","osm_id":"4528538006"},"type":"Feature"},
	{"geometry":{"coordinates":[-0.750093,50.985166],"type":"Point"},"properties":{"amenity":"waste_basket","osm_id":"5256137112"},"type":"Feature"},
	{"geometry":{"coordinates":[-0.739135,50.983739],"type":"Point"},"properties":{"amenity":"waste_basket","osm_id":"6241176577"},"type":"Feature"},
	{"geometry":{"coordinates":[-0.738081,50.988464],"type":"Point"},"properties":{"amenity":"waste_basket","osm_id":"6284555285"},"type":"Feature"},
	{"geometry":{"coordinates":[-0.738203,50.988098],"type":"Point"},"properties":{"amenity":"waste_basket","osm_id":"6284555286"},"type":"Feature"},
	{"geometry":{"coordinates":[-0.725798,50.995926],"type":"Point"},"properties":{"amenity":"waste_basket","osm_id":"6330448197"},"type":"Feature"},
	{"geometry":{"coordinates":[-0.732225,50.992204],"type":"Point"},"properties":{"amenity":"waste_basket","osm_id":"6374352351"},"type":"Feature"}
]
}
