{
"type": "FeatureCollection",
"lastupdate": "2020-07-25T00:42:33Z",
"features": [
	{"geometry":{"coordinates":[-2.122872,57.13144],"type":"Point"},"properties":{"amenity":"waste_basket","osm_id":"914803036"},"type":"Feature"},
	{"geometry":{"coordinates":[-2.122067,57.13094],"type":"Point"},"properties":{"amenity":"waste_basket","osm_id":"914803042"},"type":"Feature"},
	{"geometry":{"coordinates":[-2.129026,57.13043],"type":"Point"},"properties":{"amenity":"waste_basket","osm_id":"919034143","tag":{"waste":"dog_excrement"}},"type":"Feature"},
	{"geometry":{"coordinates":[-2.130208,57.131038],"type":"Point"},"properties":{"amenity":"waste_basket","osm_id":"919034208"},"type":"Feature"},
	{"geometry":{"coordinates":[-2.123386,57.131915],"type":"Point"},"properties":{"amenity":"waste_basket","osm_id":"924684966"},"type":"Feature"},
	{"geometry":{"coordinates":[-2.122089,57.133958],"type":"Point"},"properties":{"amenity":"waste_basket","osm_id":"927278278","tag":{"waste":"dog_excrement"}},"type":"Feature"},
	{"geometry":{"coordinates":[-2.149567,57.132317],"type":"Point"},"properties":{"amenity":"recycling","osm_id":"1045651780"},"type":"Feature"},
	{"geometry":{"coordinates":[-2.162817,57.135759],"type":"Point"},"properties":{"amenity":"waste_basket","osm_id":"1079889607"},"type":"Feature"},
	{"geometry":{"coordinates":[-2.14703,57.133366],"type":"Point"},"properties":{"amenity":"waste_basket","osm_id":"1116567594"},"type":"Feature"},
	{"geometry":{"coordinates":[-2.164041,57.13369],"type":"Point"},"properties":{"amenity":"waste_basket","osm_id":"4626575948"},"type":"Feature"},
	{"geometry":{"coordinates":[-2.152338,57.135886],"type":"Point"},"properties":{"amenity":"waste_basket","osm_id":"4900238742"},"type":"Feature"},
	{"geometry":{"coordinates":[-2.139924,57.132153],"type":"Point"},"properties":{"amenity":"waste_basket","osm_id":"4900238751"},"type":"Feature"},
	{"geometry":{"coordinates":[-2.115256,57.115944],"type":"Point"},"properties":{"amenity":"recycling","osm_id":"6125274753","tag":{"recycling_type":"container"}},"type":"Feature"},
	{"geometry":{"coordinates":[-2.164163,57.123529],"type":"Point"},"properties":{"amenity":"waste_basket","osm_id":"6647336185","tag":{"waste":"dog_excrement"}},"type":"Feature"},
	{"geometry":{"coordinates":[-2.155485,57.125067],"type":"Point"},"properties":{"amenity":"waste_basket","osm_id":"6689744463"},"type":"Feature"},
	{"geometry":{"coordinates":[-2.163993,57.133819],"type":"Point"},"properties":{"amenity":"waste_basket","osm_id":"6717320824","tag":{"waste":"dog_excrement"}},"type":"Feature"},
	{"geometry":{"coordinates":[-2.148955,57.136005],"type":"Point"},"properties":{"amenity":"waste_basket","osm_id":"6761413151"},"type":"Feature"},
	{"geometry":{"coordinates":[-2.153811,57.131738],"type":"Point"},"properties":{"amenity":"waste_basket","osm_id":"6833082834","tag":{"waste":"dog_excrement"}},"type":"Feature"},
	{"geometry":{"coordinates":[-2.152322,57.136039],"type":"Point"},"properties":{"amenity":"waste_basket","osm_id":"6835605285"},"type":"Feature"},
	{"geometry":{"coordinates":[-2.15026,57.134108],"type":"Point"},"properties":{"amenity":"waste_basket","osm_id":"6835605286"},"type":"Feature"},
	{"geometry":{"coordinates":[-2.140283,57.132449],"type":"Point"},"properties":{"amenity":"waste_basket","osm_id":"6895753513","tag":{"waste":"dog_excrement"}},"type":"Feature"},
	{"geometry":{"coordinates":[-2.135475,57.132188],"type":"Point"},"properties":{"amenity":"waste_basket","osm_id":"6926976118"},"type":"Feature"},
	{"geometry":{"coordinates":[-2.135225,57.132259],"type":"Point"},"properties":{"amenity":"waste_basket","osm_id":"6926976119"},"type":"Feature"},
	{"geometry":{"coordinates":[-2.135008,57.132333],"type":"Point"},"properties":{"amenity":"waste_basket","osm_id":"6926976120"},"type":"Feature"},
	{"geometry":{"coordinates":[-2.158528,57.120089],"type":"Point"},"properties":{"amenity":"waste_basket","osm_id":"7098881832"},"type":"Feature"},
	{"geometry":{"coordinates":[-2.155441,57.120669],"type":"Point"},"properties":{"amenity":"waste_basket","osm_id":"7098926356"},"type":"Feature"},
	{"geometry":{"coordinates":[-2.150281,57.1326],"type":"Point"},"properties":{"amenity":"waste_basket","osm_id":"7124999577","tag":{"waste":"dog_excrement"}},"type":"Feature"},
	{"geometry":{"coordinates":[-2.178079,57.130273],"type":"Point"},"properties":{"amenity":"waste_basket","osm_id":"7253672889"},"type":"Feature"},
	{"geometry":{"coordinates":[-2.151879,57.123372],"type":"Point"},"properties":{"amenity":"waste_basket","osm_id":"7553414437"},"type":"Feature"},
	{"geometry":{"coordinates":[-2.126537,57.12096],"type":"Point"},"properties":{"amenity":"recycling","osm_id":"7608335996","tag":{"recycling:cardboard":"yes","recycling:glass":"yes","recycling:paper":"yes","recycling:plastic":"yes","recycling_type":"container"}},"type":"Feature"},
	{"geometry":{"coordinates":[-2.140397,57.118909],"type":"Point"},"properties":{"amenity":"recycling","osm_id":"7608348607","tag":{"recycling:clothes":"yes","recycling_type":"container"}},"type":"Feature"}
]
}
