{
"type": "FeatureCollection",
"lastupdate": "2020-07-31T01:06:47Z",
"features": [
	{"geometry":{"coordinates":[-2.17397,53.052137],"type":"Point"},"properties":{"amenity":"waste_basket","osm_id":"616129173"},"type":"Feature"},
	{"geometry":{"coordinates":[-2.171709,53.054313],"type":"Point"},"properties":{"amenity":"waste_basket","highway":"bus_stop","osm_id":"676079228","tag":{"bench":"no","shelter":"no"}},"type":"Feature"},
	{"geometry":{"coordinates":[-2.165098,53.06026],"type":"Point"},"properties":{"amenity":"waste_basket","osm_id":"676079326"},"type":"Feature"},
	{"geometry":{"coordinates":[-2.174552,53.051129],"type":"Point"},"properties":{"amenity":"waste_basket","osm_id":"707416177"},"type":"Feature"},
	{"geometry":{"coordinates":[-2.175452,53.050614],"type":"Point"},"properties":{"amenity":"waste_basket","osm_id":"707416179"},"type":"Feature"},
	{"geometry":{"coordinates":[-2.175398,53.052458],"type":"Point"},"properties":{"amenity":"waste_basket","osm_id":"707416186","tag":{"waste":"dog_excrement"}},"type":"Feature"},
	{"geometry":{"coordinates":[-2.175881,53.050282],"type":"Point"},"properties":{"amenity":"waste_basket","osm_id":"707416187"},"type":"Feature"},
	{"geometry":{"coordinates":[-2.184118,53.026044],"type":"Point"},"properties":{"amenity":"recycling","osm_id":"2610724337"},"type":"Feature"},
	{"geometry":{"coordinates":[-2.187982,53.049899],"type":"Point"},"properties":{"amenity":"waste_basket","osm_id":"3034846692","tag":{"waste":"trash"}},"type":"Feature"},
	{"geometry":{"coordinates":[-2.186094,53.042237],"type":"Point"},"properties":{"amenity":"waste_basket","osm_id":"3409353709"},"type":"Feature"},
	{"geometry":{"coordinates":[-2.194975,53.044781],"type":"Point"},"properties":{"amenity":"waste_basket","osm_id":"3409427775"},"type":"Feature"},
	{"geometry":{"coordinates":[-2.194534,53.031157],"type":"Point"},"properties":{"amenity":"waste_basket","osm_id":"4120423551"},"type":"Feature"},
	{"geometry":{"coordinates":[-2.194711,53.031188],"type":"Point"},"properties":{"amenity":"waste_basket","osm_id":"4120423552"},"type":"Feature"},
	{"geometry":{"coordinates":[-2.195976,53.031764],"type":"Point"},"properties":{"amenity":"waste_basket","osm_id":"4120423553"},"type":"Feature"},
	{"geometry":{"coordinates":[-2.194157,53.032131],"type":"Point"},"properties":{"amenity":"waste_basket","osm_id":"4120423554"},"type":"Feature"},
	{"geometry":{"coordinates":[-2.194388,53.033009],"type":"Point"},"properties":{"amenity":"waste_basket","osm_id":"4120423555"},"type":"Feature"},
	{"geometry":{"coordinates":[-2.173987,53.048454],"type":"Point"},"properties":{"amenity":"waste_basket","osm_id":"6121391948"},"type":"Feature"},
	{"geometry":{"coordinates":[-2.171693,53.048273],"type":"Point"},"properties":{"amenity":"waste_basket","osm_id":"6121391949"},"type":"Feature"},
	{"geometry":{"coordinates":[-2.174989,53.048481],"type":"Point"},"properties":{"amenity":"waste_basket","osm_id":"6121392962"},"type":"Feature"},
	{"geometry":{"coordinates":[-2.180824,53.049199],"type":"Point"},"properties":{"amenity":"waste_basket","osm_id":"6133335276","tag":{"waste":"trash"}},"type":"Feature"},
	{"geometry":{"coordinates":[-2.177587,53.049006],"type":"Point"},"properties":{"amenity":"waste_basket","osm_id":"6133337188"},"type":"Feature"},
	{"geometry":{"coordinates":[-2.179885,53.048668],"type":"Point"},"properties":{"amenity":"waste_basket","osm_id":"6141012361","tag":{"waste":"trash"}},"type":"Feature"},
	{"geometry":{"coordinates":[-2.169141,53.048377],"type":"Point"},"properties":{"amenity":"waste_basket","osm_id":"6151845631"},"type":"Feature"},
	{"geometry":{"coordinates":[-2.186859,53.047958],"type":"Point"},"properties":{"amenity":"waste_basket","osm_id":"6236858789","tag":{"waste":"trash"}},"type":"Feature"},
	{"geometry":{"coordinates":[-2.173648,53.051642],"type":"Point"},"properties":{"amenity":"waste_basket","osm_id":"6378231234"},"type":"Feature"},
	{"geometry":{"coordinates":[-2.173841,53.051526],"type":"Point"},"properties":{"amenity":"waste_basket","osm_id":"6378232048"},"type":"Feature"},
	{"geometry":{"coordinates":[-2.177806,53.049044],"type":"Point"},"properties":{"amenity":"waste_basket","osm_id":"6378232049"},"type":"Feature"},
	{"geometry":{"coordinates":[-2.184758,53.050994],"type":"Point"},"properties":{"amenity":"waste_basket","osm_id":"6381630565"},"type":"Feature"},
	{"geometry":{"coordinates":[-2.181237,53.048501],"type":"Point"},"properties":{"amenity":"waste_basket","osm_id":"6381630566","tag":{"waste":"trash"}},"type":"Feature"},
	{"geometry":{"coordinates":[-2.184364,53.049985],"type":"Point"},"properties":{"amenity":"waste_basket","osm_id":"6381630820","tag":{"waste":"trash"}},"type":"Feature"},
	{"geometry":{"coordinates":[-2.177024,53.048776],"type":"Point"},"properties":{"amenity":"waste_basket","osm_id":"6486215453"},"type":"Feature"},
	{"geometry":{"coordinates":[-2.188869,53.037147],"type":"Point"},"properties":{"amenity":"waste_basket","osm_id":"6560928690"},"type":"Feature"},
	{"geometry":{"coordinates":[-2.162995,53.048188],"type":"Point"},"properties":{"amenity":"waste_basket","osm_id":"6572081878"},"type":"Feature"},
	{"geometry":{"coordinates":[-2.192072,53.051199],"type":"Point"},"properties":{"amenity":"waste_basket","osm_id":"6574447516"},"type":"Feature"},
	{"geometry":{"coordinates":[-2.195702,53.05759],"type":"Point"},"properties":{"amenity":"waste_basket","osm_id":"6576760258","tag":{"waste":"trash"}},"type":"Feature"},
	{"geometry":{"coordinates":[-2.195452,53.057454],"type":"Point"},"properties":{"amenity":"waste_basket","osm_id":"6576760259","tag":{"waste":"trash"}},"type":"Feature"},
	{"geometry":{"coordinates":[-2.194442,53.05649],"type":"Point"},"properties":{"amenity":"waste_basket","osm_id":"6576760260","tag":{"waste":"trash"}},"type":"Feature"},
	{"geometry":{"coordinates":[-2.177778,53.022452],"type":"Point"},"properties":{"amenity":"waste_basket","osm_id":"6610389581"},"type":"Feature"},
	{"geometry":{"coordinates":[-2.177855,53.022426],"type":"Point"},"properties":{"amenity":"waste_basket","osm_id":"6610417416"},"type":"Feature"},
	{"geometry":{"coordinates":[-2.178155,53.022281],"type":"Point"},"properties":{"amenity":"waste_basket","osm_id":"6610428011"},"type":"Feature"},
	{"geometry":{"coordinates":[-2.189231,53.049353],"type":"Point"},"properties":{"amenity":"waste_basket","osm_id":"6611634549","tag":{"recycling:cans":"yes","recycling:glass":"yes","recycling:plastic":"yes","waste":"trash"}},"type":"Feature"},
	{"geometry":{"coordinates":[-2.184178,53.049182],"type":"Point"},"properties":{"amenity":"waste_basket","osm_id":"6631926332","tag":{"waste":"trash"}},"type":"Feature"},
	{"geometry":{"coordinates":[-2.188026,53.050758],"type":"Point"},"properties":{"amenity":"waste_basket","osm_id":"6635072883","tag":{"waste":"trash"}},"type":"Feature"},
	{"geometry":{"coordinates":[-2.193643,53.064209],"type":"Point"},"properties":{"amenity":"waste_basket","osm_id":"6712069288"},"type":"Feature"},
	{"geometry":{"coordinates":[-2.193573,53.064305],"type":"Point"},"properties":{"amenity":"waste_basket","osm_id":"6712089413"},"type":"Feature"},
	{"geometry":{"coordinates":[-2.187792,53.050621],"type":"Point"},"properties":{"amenity":"waste_basket","osm_id":"6799346175","tag":{"waste":"trash"}},"type":"Feature"},
	{"geometry":{"coordinates":[-2.184066,53.049133],"type":"Point"},"properties":{"amenity":"waste_basket","osm_id":"6799346176","tag":{"waste":"trash"}},"type":"Feature"},
	{"geometry":{"coordinates":[-2.171116,53.048326],"type":"Point"},"properties":{"amenity":"waste_basket","osm_id":"6824926142","tag":{"waste":"dog_excrement"}},"type":"Feature"},
	{"geometry":{"coordinates":[-2.186176,53.051393],"type":"Point"},"properties":{"amenity":"waste_basket","osm_id":"6913607077","tag":{"waste":"trash"}},"type":"Feature"},
	{"geometry":{"coordinates":[-2.18599,53.050363],"type":"Point"},"properties":{"amenity":"waste_basket","osm_id":"6913607078","tag":{"waste":"trash"}},"type":"Feature"},
	{"geometry":{"coordinates":[-2.182852,53.049789],"type":"Point"},"properties":{"amenity":"waste_basket","osm_id":"6913607079","tag":{"waste":"trash"}},"type":"Feature"},
	{"geometry":{"coordinates":[-2.187661,53.049176],"type":"Point"},"properties":{"amenity":"waste_basket","osm_id":"6926539548","tag":{"waste":"trash"}},"type":"Feature"},
	{"geometry":{"coordinates":[-2.185667,53.05152],"type":"Point"},"properties":{"amenity":"waste_basket","osm_id":"6926539553","tag":{"waste":"trash"}},"type":"Feature"},
	{"geometry":{"coordinates":[-2.18401,53.050536],"type":"Point"},"properties":{"amenity":"waste_basket","osm_id":"6926539559","tag":{"waste":"trash"}},"type":"Feature"},
	{"geometry":{"coordinates":[-2.191509,53.046724],"type":"Point"},"properties":{"amenity":"waste_basket","osm_id":"6958825151"},"type":"Feature"},
	{"geometry":{"coordinates":[-2.190837,53.046832],"type":"Point"},"properties":{"amenity":"waste_basket","osm_id":"6958839723"},"type":"Feature"},
	{"geometry":{"coordinates":[-2.193021,53.048017],"type":"Point"},"properties":{"amenity":"waste_basket","osm_id":"6958849787"},"type":"Feature"},
	{"geometry":{"coordinates":[-2.189611,53.047841],"type":"Point"},"properties":{"amenity":"waste_basket","osm_id":"6975077903"},"type":"Feature"},
	{"geometry":{"coordinates":[-2.189731,53.049997],"type":"Point"},"properties":{"amenity":"waste_basket","osm_id":"6989275491","tag":{"waste":"trash"}},"type":"Feature"},
	{"geometry":{"coordinates":[-2.190849,53.059651],"type":"Point"},"properties":{"amenity":"waste_basket","osm_id":"7026969328"},"type":"Feature"},
	{"geometry":{"coordinates":[-2.185988,53.053252],"type":"Point"},"properties":{"amenity":"waste_basket","osm_id":"7037803221"},"type":"Feature"},
	{"geometry":{"coordinates":[-2.176748,53.048294],"type":"Point"},"properties":{"amenity":"waste_basket","osm_id":"7116233964"},"type":"Feature"},
	{"geometry":{"coordinates":[-2.176568,53.048142],"type":"Point"},"properties":{"amenity":"waste_basket","osm_id":"7116250224"},"type":"Feature"},
	{"geometry":{"coordinates":[-2.178226,53.048406],"type":"Point"},"properties":{"amenity":"waste_basket","osm_id":"7116252488"},"type":"Feature"},
	{"geometry":{"coordinates":[-2.17204,53.016246],"type":"Point"},"properties":{"amenity":"waste_basket","osm_id":"7262080146"},"type":"Feature"},
	{"geometry":{"coordinates":[-2.188112,53.048511],"type":"Point"},"properties":{"amenity":"waste_basket","osm_id":"7359770098","tag":{"waste":"trash"}},"type":"Feature"},
	{"geometry":{"coordinates":[-2.188093,53.047748],"type":"Point"},"properties":{"amenity":"waste_basket","osm_id":"7359770101","tag":{"waste":"trash"}},"type":"Feature"},
	{"geometry":{"coordinates":[-2.170257,53.055904],"type":"Point"},"properties":{"amenity":"waste_basket","osm_id":"7492041678","tag":{"waste":"trash"}},"type":"Feature"},
	{"geometry":{"coordinates":[-2.189838,53.020439],"type":"Point"},"properties":{"amenity":"waste_basket","osm_id":"7643084052"},"type":"Feature"},
	{"geometry":{"coordinates":[-2.180192,53.051046],"type":"Point"},"properties":{"amenity":"waste_basket","osm_id":"7770804683","tag":{"waste":"dog_excrement"}},"type":"Feature"},
	{"geometry":{"coordinates":[-2.181403,53.054607],"type":"Point"},"properties":{"amenity":"waste_basket","osm_id":"7770808648"},"type":"Feature"},
	{"geometry":{"coordinates":[-2.180676,53.054044],"type":"Point"},"properties":{"amenity":"waste_basket","osm_id":"7770823885","tag":{"waste":"dog_excrement"}},"type":"Feature"}
]
}
