{
"type": "FeatureCollection",
"lastupdate": "2020-07-29T00:24:51Z",
"features": [
	{"geometry":{"coordinates":[-2.156539,51.64298],"type":"Point"},"properties":{"amenity":"recycling","osm_id":"603024401","tag":{"recycling:cans":"yes","recycling:clothes":"yes","recycling:glass":"yes","recycling:paper":"yes"}},"type":"Feature"},
	{"geometry":{"coordinates":[-2.156255,51.637878],"type":"Point"},"properties":{"amenity":"waste_basket","osm_id":"3554589187"},"type":"Feature"},
	{"geometry":{"coordinates":[-2.155764,51.637962],"type":"Point"},"properties":{"amenity":"waste_basket","osm_id":"3554589397"},"type":"Feature"},
	{"geometry":{"coordinates":[-2.160412,51.63601],"type":"Point"},"properties":{"amenity":"waste_basket","osm_id":"4939128400"},"type":"Feature"},
	{"geometry":{"coordinates":[-2.160919,51.637887],"type":"Point"},"properties":{"amenity":"waste_basket","osm_id":"4944869636"},"type":"Feature"},
	{"geometry":{"coordinates":[-2.160887,51.637695],"type":"Point"},"properties":{"amenity":"waste_basket","osm_id":"4944869660"},"type":"Feature"},
	{"geometry":{"coordinates":[-2.162124,51.639179],"type":"Point"},"properties":{"amenity":"waste_basket","osm_id":"4946134344"},"type":"Feature"},
	{"geometry":{"coordinates":[-2.161266,51.639653],"type":"Point"},"properties":{"amenity":"waste_basket","osm_id":"4946146100"},"type":"Feature"},
	{"geometry":{"coordinates":[-2.158819,51.636894],"type":"Point"},"properties":{"amenity":"waste_basket","osm_id":"4946312158"},"type":"Feature"},
	{"geometry":{"coordinates":[-2.15882,51.636763],"type":"Point"},"properties":{"amenity":"waste_basket","osm_id":"4946312159"},"type":"Feature"},
	{"geometry":{"coordinates":[-2.158881,51.637934],"type":"Point"},"properties":{"amenity":"waste_basket","osm_id":"4946313139"},"type":"Feature"},
	{"geometry":{"coordinates":[-2.159219,51.637201],"type":"Point"},"properties":{"amenity":"waste_basket","osm_id":"4946313161"},"type":"Feature"},
	{"geometry":{"coordinates":[-2.160188,51.636302],"type":"Point"},"properties":{"amenity":"waste_basket","osm_id":"4947770429"},"type":"Feature"},
	{"geometry":{"coordinates":[-2.158411,51.638543],"type":"Point"},"properties":{"amenity":"waste_basket","osm_id":"6750887785","tag":{"colour":"black","material":"plastic"}},"type":"Feature"}
]
}
