{
"type": "FeatureCollection",
"lastupdate": "2020-07-26T00:31:07Z",
"features": [
	{"geometry":{"coordinates":[0.482021,51.395627],"type":"Point"},"properties":{"amenity":"recycling","osm_id":"251615700"},"type":"Feature"},
	{"geometry":{"coordinates":[0.50418,51.384478],"type":"Point"},"properties":{"amenity":"recycling","osm_id":"346299059"},"type":"Feature"},
	{"geometry":{"coordinates":[0.495786,51.374714],"type":"Point"},"properties":{"amenity":"recycling","osm_id":"346299170"},"type":"Feature"},
	{"geometry":{"coordinates":[0.494026,51.395254],"type":"Point"},"properties":{"amenity":"recycling","osm_id":"495448599"},"type":"Feature"},
	{"geometry":{"coordinates":[0.494963,51.395896],"type":"Point"},"properties":{"amenity":"waste_basket","osm_id":"873594560"},"type":"Feature"},
	{"geometry":{"coordinates":[0.48092,51.386489],"type":"Point"},"properties":{"amenity":"recycling","osm_id":"1097872282"},"type":"Feature"},
	{"geometry":{"coordinates":[0.502243,51.391359],"type":"Point"},"properties":{"amenity":"waste_basket","osm_id":"4434247941"},"type":"Feature"},
	{"geometry":{"coordinates":[0.502223,51.391364],"type":"Point"},"properties":{"amenity":"waste_basket","osm_id":"4434247942"},"type":"Feature"},
	{"geometry":{"coordinates":[0.515484,51.383216],"type":"Point"},"properties":{"amenity":"waste_basket","osm_id":"6223406439"},"type":"Feature"},
	{"geometry":{"coordinates":[0.507007,51.386327],"type":"Point"},"properties":{"amenity":"waste_basket","osm_id":"6242968831"},"type":"Feature"},
	{"geometry":{"coordinates":[0.492043,51.396081],"type":"Point"},"properties":{"amenity":"waste_basket","osm_id":"6273308237","ref":"LB0101"},"type":"Feature"},
	{"geometry":{"coordinates":[0.514216,51.396917],"type":"Point"},"properties":{"amenity":"recycling","name":"EMR Metal Recycling","osm_id":"7047931843","tag":{"recycling_type":"centre"}},"type":"Feature"}
]
}
