{
"type": "FeatureCollection",
"lastupdate": "2020-07-31T01:06:47Z",
"features": [
	{"geometry":{"coordinates":[-1.98812,53.453894],"type":"Point"},"properties":{"amenity":"recycling","osm_id":"249329698"},"type":"Feature"},
	{"geometry":{"coordinates":[-1.966622,53.462594],"type":"Point"},"properties":{"amenity":"recycling","osm_id":"2101784686"},"type":"Feature"},
	{"geometry":{"coordinates":[-1.962632,53.462287],"type":"Point"},"properties":{"amenity":"waste_basket","osm_id":"4392781125"},"type":"Feature"},
	{"geometry":{"coordinates":[-1.963696,53.462179],"type":"Point"},"properties":{"amenity":"waste_basket","osm_id":"4395226568","tag":{"waste":"dog_excrement"}},"type":"Feature"},
	{"geometry":{"coordinates":[-1.955633,53.463469],"type":"Point"},"properties":{"amenity":"waste_basket","osm_id":"5072221630"},"type":"Feature"},
	{"geometry":{"coordinates":[-1.951938,53.445546],"type":"Point"},"properties":{"amenity":"waste_basket","osm_id":"5172771975"},"type":"Feature"},
	{"geometry":{"coordinates":[-1.967885,53.462698],"type":"Point"},"properties":{"amenity":"waste_basket","osm_id":"5175132200"},"type":"Feature"},
	{"geometry":{"coordinates":[-1.966075,53.461311],"type":"Point"},"properties":{"amenity":"waste_basket","osm_id":"5175132201"},"type":"Feature"},
	{"geometry":{"coordinates":[-1.959907,53.462297],"type":"Point"},"properties":{"amenity":"waste_basket","osm_id":"5175132205"},"type":"Feature"},
	{"geometry":{"coordinates":[-1.967276,53.462155],"type":"Point"},"properties":{"amenity":"waste_basket","osm_id":"5175214266"},"type":"Feature"},
	{"geometry":{"coordinates":[-1.94896,53.44347],"type":"Point"},"properties":{"amenity":"waste_basket","osm_id":"5187018054"},"type":"Feature"},
	{"geometry":{"coordinates":[-1.949148,53.443398],"type":"Point"},"properties":{"amenity":"waste_basket","osm_id":"5187018055"},"type":"Feature"},
	{"geometry":{"coordinates":[-1.949277,53.443399],"type":"Point"},"properties":{"amenity":"waste_basket","osm_id":"5187018057"},"type":"Feature"},
	{"geometry":{"coordinates":[-1.948668,53.443517],"type":"Point"},"properties":{"amenity":"waste_basket","osm_id":"5187059734"},"type":"Feature"},
	{"geometry":{"coordinates":[-1.948879,53.444047],"type":"Point"},"properties":{"amenity":"waste_basket","osm_id":"5187059738"},"type":"Feature"},
	{"geometry":{"coordinates":[-1.94937,53.443934],"type":"Point"},"properties":{"amenity":"waste_basket","osm_id":"5187095266"},"type":"Feature"},
	{"geometry":{"coordinates":[-1.951501,53.443965],"type":"Point"},"properties":{"amenity":"waste_basket","osm_id":"5213085930"},"type":"Feature"},
	{"geometry":{"coordinates":[-1.959859,53.444102],"type":"Point"},"properties":{"amenity":"recycling","osm_id":"6533684221","tag":{"recycling:clothes":"yes","recycling:glass":"yes","recycling:paper":"yes","recycling_type":"centre"}},"type":"Feature"}
]
}
