{
"type": "FeatureCollection",
"lastupdate": "2020-07-31T01:06:47Z",
"features": [
	{"geometry":{"coordinates":[-1.975977,52.587588],"type":"Point"},"properties":{"amenity":"recycling","osm_id":"918445370"},"type":"Feature"},
	{"geometry":{"coordinates":[-1.992038,52.575455],"type":"Point"},"properties":{"amenity":"recycling","osm_id":"2267560943"},"type":"Feature"},
	{"geometry":{"coordinates":[-1.996862,52.570499],"type":"Point"},"properties":{"amenity":"recycling","osm_id":"6932571361","tag":{"operator":"Salvation Army","recycling:clothes":"yes","recycling:shoes":"yes","recycling_type":"container"}},"type":"Feature"},
	{"geometry":{"coordinates":[-1.996834,52.570499],"type":"Point"},"properties":{"amenity":"recycling","osm_id":"6932571362","tag":{"operator":"Salvation Army","recycling:clothes":"yes","recycling:shoes":"yes","recycling_type":"container"}},"type":"Feature"},
	{"geometry":{"coordinates":[-1.996804,52.570499],"type":"Point"},"properties":{"amenity":"recycling","osm_id":"6932571363","tag":{"operator":"Walsall Council","recycling:paper":"yes","recycling_type":"container"}},"type":"Feature"},
	{"geometry":{"coordinates":[-1.996776,52.570499],"type":"Point"},"properties":{"amenity":"recycling","osm_id":"6932571364","tag":{"operator":"Walsall Council","recycling:glass_bottles":"yes","recycling_type":"container"}},"type":"Feature"},
	{"geometry":{"coordinates":[-1.996888,52.570499],"type":"Point"},"properties":{"amenity":"recycling","osm_id":"6932571365","tag":{"recycling:shoes":"yes","recycling_type":"container"}},"type":"Feature"},
	{"geometry":{"coordinates":[-1.99154,52.58458],"type":"Point"},"properties":{"amenity":"waste_basket","osm_id":"7612945377"},"type":"Feature"},
	{"geometry":{"coordinates":[-1.982542,52.578258],"type":"Point"},"properties":{"amenity":"waste_basket","osm_id":"7670925563"},"type":"Feature"},
	{"geometry":{"coordinates":[-1.981838,52.577418],"type":"Point"},"properties":{"amenity":"waste_basket","osm_id":"7671899085"},"type":"Feature"},
	{"geometry":{"coordinates":[-1.982642,52.576577],"type":"Point"},"properties":{"amenity":"waste_basket","osm_id":"7671937872"},"type":"Feature"},
	{"geometry":{"coordinates":[-1.98474,52.58134],"type":"Point"},"properties":{"amenity":"waste_basket","osm_id":"7699524378"},"type":"Feature"},
	{"geometry":{"coordinates":[-1.982033,52.576876],"type":"Point"},"properties":{"amenity":"waste_basket","osm_id":"7716554806"},"type":"Feature"},
	{"geometry":{"coordinates":[-1.979839,52.584856],"type":"Point"},"properties":{"amenity":"waste_basket","osm_id":"7737339510"},"type":"Feature"},
	{"geometry":{"coordinates":[-1.978336,52.58283],"type":"Point"},"properties":{"amenity":"waste_basket","osm_id":"7738003124"},"type":"Feature"},
	{"geometry":{"coordinates":[-1.978412,52.582745],"type":"Point"},"properties":{"amenity":"waste_basket","osm_id":"7738003125"},"type":"Feature"},
	{"geometry":{"coordinates":[-1.979442,52.583138],"type":"Point"},"properties":{"amenity":"waste_basket","osm_id":"7738003136"},"type":"Feature"},
	{"geometry":{"coordinates":[-1.999054,52.583523],"type":"Point"},"properties":{"amenity":"waste_basket","osm_id":"7741879378"},"type":"Feature"},
	{"geometry":{"coordinates":[-1.998296,52.583316],"type":"Point"},"properties":{"amenity":"waste_basket","osm_id":"7747514210"},"type":"Feature"},
	{"geometry":{"coordinates":[-1.996394,52.583015],"type":"Point"},"properties":{"amenity":"waste_basket","osm_id":"7747649006"},"type":"Feature"},
	{"geometry":{"coordinates":[-1.991027,52.587788],"type":"Point"},"properties":{"amenity":"waste_basket","osm_id":"7747860667"},"type":"Feature"},
	{"geometry":{"coordinates":[-1.988196,52.585826],"type":"Point"},"properties":{"amenity":"waste_basket","osm_id":"7747860697"},"type":"Feature"},
	{"geometry":{"coordinates":[-1.988863,52.588307],"type":"Point"},"properties":{"amenity":"recycling","osm_id":"7757240600","tag":{"recycling:clothes":"yes","recycling:shoes":"yes","recycling_type":"container"}},"type":"Feature"},
	{"geometry":{"coordinates":[-2.010137,52.566732],"type":"Point"},"properties":{"amenity":"waste_basket","osm_id":"7763077852"},"type":"Feature"},
	{"geometry":{"coordinates":[-2.010224,52.566781],"type":"Point"},"properties":{"amenity":"waste_basket","osm_id":"7763077853"},"type":"Feature"}
]
}
