<?xml version="1.0" encoding="UTF-8"?>
<osm version="0.6" generator="Overpass API 0.7.56.1004 6cd3eaec">
<note>The data included in this document is from www.openstreetmap.org. The data is made available under ODbL.</note>
<meta osm_base="2020-07-16T11:59:03Z"/>

  <node id="308513447" lat="53.7818265" lon="-1.5437519">
    <tag k="amenity" v="recycling"/>
    <tag k="recycling:glass_bottles" v="yes"/>
  </node>
  <node id="389996299" lat="53.7793008" lon="-1.5415643">
    <tag k="amenity" v="recycling"/>
    <tag k="recycling:glass_bottles" v="brown"/>
    <tag k="recycling_type" v="container"/>
  </node>
  <node id="392047370" lat="53.7764563" lon="-1.5518601">
    <tag k="amenity" v="recycling"/>
    <tag k="operator" v="SavetheMothersTrust"/>
    <tag k="recycling:clothes" v="yes"/>
  </node>
  <node id="393838658" lat="53.7790135" lon="-1.5419527">
    <tag k="amenity" v="recycling"/>
    <tag k="recycling:glass_bottles" v="yes"/>
  </node>
  <node id="405435128" lat="53.7784441" lon="-1.5550363">
    <tag k="amenity" v="recycling"/>
    <tag k="recycling:glass_bottles" v="yes"/>
    <tag k="source" v="guess"/>
  </node>
  <node id="522977031" lat="53.7794092" lon="-1.5547859">
    <tag k="amenity" v="recycling"/>
    <tag k="recycling:glass_bottles" v="yes"/>
    <tag k="recycling_type" v="container"/>
  </node>
  <node id="2101532104" lat="53.7953035" lon="-1.5441943">
    <tag k="addr:city" v="Leeds"/>
    <tag k="addr:street" v="Trevelyan Square"/>
    <tag k="amenity" v="waste_basket"/>
  </node>
  <node id="3714849998" lat="53.7859855" lon="-1.5601706">
    <tag k="amenity" v="recycling"/>
    <tag k="location" v="overground"/>
    <tag k="note" v="Clear glass only."/>
    <tag k="operator" v="Leeds City Council"/>
    <tag k="recycling:cans" v="no"/>
    <tag k="recycling:clothes" v="no"/>
    <tag k="recycling:glass" v="yes"/>
    <tag k="recycling:paper" v="no"/>
    <tag k="recycling_type" v="container"/>
  </node>
  <node id="4362557276" lat="53.7964889" lon="-1.5393189">
    <tag k="amenity" v="waste_basket"/>
  </node>
  <node id="4434225670" lat="53.7992510" lon="-1.5546670">
    <tag k="amenity" v="waste_basket"/>
  </node>
  <node id="4434225671" lat="53.7979986" lon="-1.5539943">
    <tag k="amenity" v="waste_basket"/>
  </node>
  <node id="4621501498" lat="53.8001182" lon="-1.5553851">
    <tag k="amenity" v="waste_basket"/>
  </node>
  <node id="4740732703" lat="53.7990433" lon="-1.5577073">
    <tag k="amenity" v="waste_basket"/>
  </node>
  <node id="6183459986" lat="53.7978446" lon="-1.5431916">
    <tag k="amenity" v="waste_basket"/>
  </node>
  <node id="6653424132" lat="53.7970988" lon="-1.5579657">
    <tag k="amenity" v="waste_basket"/>
  </node>
  <node id="6659202104" lat="53.7880705" lon="-1.5602456">
    <tag k="amenity" v="waste_basket"/>
    <tag k="material" v="metal"/>
  </node>
  <node id="6693574670" lat="53.7964377" lon="-1.5478991">
    <tag k="amenity" v="waste_basket"/>
    <tag k="material" v="metal"/>
  </node>
  <node id="6693574671" lat="53.7964358" lon="-1.5477827">
    <tag k="amenity" v="waste_basket"/>
    <tag k="material" v="metal"/>
  </node>
  <node id="6693574672" lat="53.7964865" lon="-1.5476801">
    <tag k="amenity" v="waste_basket"/>
    <tag k="material" v="metal"/>
  </node>
  <node id="6693574673" lat="53.7965716" lon="-1.5476761">
    <tag k="amenity" v="waste_basket"/>
    <tag k="material" v="metal"/>
  </node>
  <node id="7029962656" lat="53.7953839" lon="-1.5436780">
    <tag k="amenity" v="waste_basket"/>
  </node>
  <node id="7429085321" lat="53.7978940" lon="-1.5434230">
    <tag k="amenity" v="waste_basket"/>
    <tag k="operator" v="CITY CENTRE MANAGEMENT"/>
    <tag k="ref:UK:leedscc:bin" v="49"/>
  </node>
  <node id="7429085323" lat="53.7965060" lon="-1.5390710">
    <tag k="amenity" v="waste_basket"/>
    <tag k="operator" v="CITY CENTRE MANAGEMENT"/>
    <tag k="ref:UK:leedscc:bin" v="2282"/>
  </node>
  <node id="7429085324" lat="53.7977370" lon="-1.5430120">
    <tag k="amenity" v="waste_basket"/>
    <tag k="operator" v="CITY CENTRE MANAGEMENT"/>
    <tag k="ref:UK:leedscc:bin" v="47"/>
  </node>
  <node id="7429085344" lat="53.7968860" lon="-1.5580740">
    <tag k="amenity" v="waste_basket"/>
    <tag k="operator" v="CITY CENTRE MANAGEMENT"/>
    <tag k="ref:UK:leedscc:bin" v="3533"/>
  </node>
  <node id="7429085345" lat="53.7966070" lon="-1.5389930">
    <tag k="amenity" v="waste_basket"/>
    <tag k="operator" v="CITY CENTRE MANAGEMENT"/>
    <tag k="ref:UK:leedscc:bin" v="2281"/>
  </node>
  <node id="7429085346" lat="53.7966540" lon="-1.5395970">
    <tag k="amenity" v="waste_basket"/>
    <tag k="operator" v="CITY CENTRE MANAGEMENT"/>
    <tag k="ref:UK:leedscc:bin" v="1640"/>
  </node>
  <node id="7429085357" lat="53.7980650" lon="-1.5434980">
    <tag k="amenity" v="waste_basket"/>
    <tag k="operator" v="CITY CENTRE MANAGEMENT"/>
    <tag k="ref:UK:leedscc:bin" v="1697"/>
  </node>
  <node id="7429085358" lat="53.7961520" lon="-1.5476810">
    <tag k="amenity" v="waste_basket"/>
    <tag k="operator" v="CITY CENTRE MANAGEMENT"/>
    <tag k="ref:UK:leedscc:bin" v="2271"/>
  </node>
  <node id="7429085359" lat="53.7961540" lon="-1.5480190">
    <tag k="amenity" v="waste_basket"/>
    <tag k="operator" v="CITY CENTRE MANAGEMENT"/>
    <tag k="ref:UK:leedscc:bin" v="2272"/>
  </node>
  <node id="7429085366" lat="53.7965880" lon="-1.5398270">
    <tag k="amenity" v="waste_basket"/>
    <tag k="operator" v="CITY CENTRE MANAGEMENT"/>
    <tag k="ref:UK:leedscc:bin" v="1641"/>
  </node>
  <node id="7429085377" lat="53.7969050" lon="-1.5474540">
    <tag k="amenity" v="waste_basket"/>
    <tag k="operator" v="CITY CENTRE MANAGEMENT"/>
    <tag k="ref:UK:leedscc:bin" v="1525"/>
  </node>
  <node id="7429085380" lat="53.7968500" lon="-1.5574940">
    <tag k="amenity" v="waste_basket"/>
    <tag k="operator" v="CITY CENTRE MANAGEMENT"/>
    <tag k="ref:UK:leedscc:bin" v="3520"/>
  </node>
  <node id="7429087887" lat="53.7961160" lon="-1.5473030">
    <tag k="amenity" v="waste_basket"/>
    <tag k="operator" v="CITY CENTRE MANAGEMENT"/>
    <tag k="ref:UK:leedscc:bin" v="2270"/>
  </node>
  <node id="7429087888" lat="53.7974190" lon="-1.5430510">
    <tag k="amenity" v="waste_basket"/>
    <tag k="operator" v="CITY CENTRE MANAGEMENT"/>
    <tag k="ref:UK:leedscc:bin" v="751"/>
  </node>
  <node id="7429087891" lat="53.7974740" lon="-1.5436050">
    <tag k="amenity" v="waste_basket"/>
    <tag k="operator" v="CITY CENTRE MANAGEMENT"/>
    <tag k="ref:UK:leedscc:bin" v="753"/>
  </node>
  <node id="7429087894" lat="53.7969900" lon="-1.5479500">
    <tag k="amenity" v="waste_basket"/>
    <tag k="operator" v="CITY CENTRE MANAGEMENT"/>
    <tag k="ref:UK:leedscc:bin" v="1526"/>
  </node>
  <node id="7429087898" lat="53.7961960" lon="-1.5470300">
    <tag k="amenity" v="waste_basket"/>
    <tag k="operator" v="CITY CENTRE MANAGEMENT"/>
    <tag k="ref:UK:leedscc:bin" v="699"/>
  </node>
  <node id="7429087903" lat="53.7978790" lon="-1.5423510">
    <tag k="amenity" v="waste_basket"/>
    <tag k="operator" v="CITY CENTRE MANAGEMENT"/>
    <tag k="ref:UK:leedscc:bin" v="411"/>
  </node>
  <node id="7429087904" lat="53.7973460" lon="-1.5432490">
    <tag k="amenity" v="waste_basket"/>
    <tag k="operator" v="CITY CENTRE MANAGEMENT"/>
    <tag k="ref:UK:leedscc:bin" v="752"/>
  </node>
  <node id="7429087905" lat="53.7965760" lon="-1.5384840">
    <tag k="amenity" v="waste_basket"/>
    <tag k="operator" v="CITY CENTRE MANAGEMENT"/>
    <tag k="ref:UK:leedscc:bin" v="2278"/>
  </node>
  <node id="7429087906" lat="53.7977610" lon="-1.5440280">
    <tag k="amenity" v="waste_basket"/>
    <tag k="operator" v="CITY CENTRE MANAGEMENT"/>
    <tag k="ref:UK:leedscc:bin" v="50"/>
  </node>
  <node id="7429087907" lat="53.7983250" lon="-1.5434330">
    <tag k="amenity" v="waste_basket"/>
    <tag k="operator" v="CITY CENTRE MANAGEMENT"/>
    <tag k="ref:UK:leedscc:bin" v="1696"/>
  </node>
  <node id="7429087915" lat="53.7957480" lon="-1.5446450">
    <tag k="amenity" v="waste_basket"/>
    <tag k="operator" v="CITY CENTRE MANAGEMENT"/>
    <tag k="ref:UK:leedscc:bin" v="261"/>
  </node>
  <node id="7429087921" lat="53.7973260" lon="-1.5429500">
    <tag k="amenity" v="waste_basket"/>
    <tag k="operator" v="CITY CENTRE MANAGEMENT"/>
    <tag k="ref:UK:leedscc:bin" v="759"/>
  </node>
  <node id="7429087929" lat="53.7973690" lon="-1.5437140">
    <tag k="amenity" v="waste_basket"/>
    <tag k="operator" v="CITY CENTRE MANAGEMENT"/>
    <tag k="ref:UK:leedscc:bin" v="754"/>
  </node>
  <node id="7429087933" lat="53.7974650" lon="-1.5439450">
    <tag k="amenity" v="waste_basket"/>
    <tag k="operator" v="CITY CENTRE MANAGEMENT"/>
    <tag k="ref:UK:leedscc:bin" v="755"/>
  </node>
  <node id="7429087934" lat="53.7968700" lon="-1.5401040">
    <tag k="amenity" v="waste_basket"/>
    <tag k="operator" v="CITY CENTRE MANAGEMENT"/>
    <tag k="ref:UK:leedscc:bin" v="1643"/>
  </node>
  <node id="7429087935" lat="53.7961700" lon="-1.5401850">
    <tag k="amenity" v="waste_basket"/>
    <tag k="operator" v="CITY CENTRE MANAGEMENT"/>
    <tag k="ref:UK:leedscc:bin" v="859"/>
  </node>
  <node id="7429087938" lat="53.7967150" lon="-1.5402770">
    <tag k="amenity" v="waste_basket"/>
    <tag k="operator" v="CITY CENTRE MANAGEMENT"/>
    <tag k="ref:UK:leedscc:bin" v="1642"/>
  </node>
  <node id="7429087941" lat="53.7960930" lon="-1.5468720">
    <tag k="amenity" v="waste_basket"/>
    <tag k="operator" v="CITY CENTRE MANAGEMENT"/>
    <tag k="ref:UK:leedscc:bin" v="269"/>
  </node>
  <node id="7429087943" lat="53.7973580" lon="-1.5425100">
    <tag k="amenity" v="waste_basket"/>
    <tag k="operator" v="CITY CENTRE MANAGEMENT"/>
    <tag k="ref:UK:leedscc:bin" v="758"/>
  </node>
  <node id="7429087944" lat="53.7962060" lon="-1.5467170">
    <tag k="amenity" v="waste_basket"/>
    <tag k="operator" v="CITY CENTRE MANAGEMENT"/>
    <tag k="ref:UK:leedscc:bin" v="263"/>
  </node>
  <node id="7429087949" lat="53.7958910" lon="-1.5446950">
    <tag k="amenity" v="waste_basket"/>
    <tag k="operator" v="CITY CENTRE MANAGEMENT"/>
    <tag k="ref:UK:leedscc:bin" v="260"/>
  </node>
  <node id="7429087950" lat="53.7961810" lon="-1.5403120">
    <tag k="amenity" v="waste_basket"/>
    <tag k="operator" v="CITY CENTRE MANAGEMENT"/>
    <tag k="ref:UK:leedscc:bin" v="512"/>
  </node>
  <node id="7429087951" lat="53.7979570" lon="-1.5420820">
    <tag k="amenity" v="waste_basket"/>
    <tag k="operator" v="CITY CENTRE MANAGEMENT"/>
    <tag k="ref:UK:leedscc:bin" v="408"/>
  </node>
  <node id="7429087953" lat="53.7957120" lon="-1.5451140">
    <tag k="amenity" v="waste_basket"/>
    <tag k="operator" v="CITY CENTRE MANAGEMENT"/>
    <tag k="ref:UK:leedscc:bin" v="264"/>
  </node>
  <node id="7429087955" lat="53.7960520" lon="-1.5433850">
    <tag k="amenity" v="waste_basket"/>
    <tag k="operator" v="CITY CENTRE MANAGEMENT"/>
    <tag k="ref:UK:leedscc:bin" v="259"/>
  </node>
  <node id="7429087957" lat="53.7969520" lon="-1.5401960">
    <tag k="amenity" v="waste_basket"/>
    <tag k="operator" v="CITY CENTRE MANAGEMENT"/>
    <tag k="ref:UK:leedscc:bin" v="3431"/>
  </node>
  <node id="7429087959" lat="53.7962400" lon="-1.5490320">
    <tag k="amenity" v="waste_basket"/>
    <tag k="operator" v="CITY CENTRE MANAGEMENT"/>
    <tag k="ref:UK:leedscc:bin" v="3522"/>
  </node>
  <node id="7429087961" lat="53.7958510" lon="-1.5398630">
    <tag k="amenity" v="waste_basket"/>
    <tag k="operator" v="CITY CENTRE MANAGEMENT"/>
    <tag k="ref:UK:leedscc:bin" v="860"/>
  </node>
  <node id="7429087963" lat="53.7960130" lon="-1.5384080">
    <tag k="amenity" v="waste_basket"/>
    <tag k="operator" v="CITY CENTRE MANAGEMENT"/>
    <tag k="ref:UK:leedscc:bin" v="1638"/>
  </node>
  <node id="7429087967" lat="53.7961390" lon="-1.5404200">
    <tag k="amenity" v="waste_basket"/>
    <tag k="operator" v="CITY CENTRE MANAGEMENT"/>
    <tag k="ref:UK:leedscc:bin" v="511"/>
  </node>
  <node id="7429087968" lat="53.7959590" lon="-1.5428870">
    <tag k="amenity" v="waste_basket"/>
    <tag k="operator" v="CITY CENTRE MANAGEMENT"/>
    <tag k="ref:UK:leedscc:bin" v="258"/>
  </node>
  <node id="7429087972" lat="53.7974330" lon="-1.5442520">
    <tag k="amenity" v="waste_basket"/>
    <tag k="operator" v="CITY CENTRE MANAGEMENT"/>
    <tag k="ref:UK:leedscc:bin" v="760"/>
  </node>
  <node id="7429087973" lat="53.7977850" lon="-1.5444600">
    <tag k="amenity" v="waste_basket"/>
    <tag k="operator" v="CITY CENTRE MANAGEMENT"/>
    <tag k="ref:UK:leedscc:bin" v="48"/>
  </node>
  <node id="7429087979" lat="53.7960750" lon="-1.5490340">
    <tag k="amenity" v="waste_basket"/>
    <tag k="operator" v="CITY CENTRE MANAGEMENT"/>
    <tag k="ref:UK:leedscc:bin" v="3521"/>
  </node>
  <node id="7429087982" lat="53.7972270" lon="-1.5483850">
    <tag k="amenity" v="waste_basket"/>
    <tag k="operator" v="CITY CENTRE MANAGEMENT"/>
    <tag k="ref:UK:leedscc:bin" v="1527"/>
  </node>
  <node id="7429087984" lat="53.7984000" lon="-1.5422490">
    <tag k="amenity" v="waste_basket"/>
    <tag k="operator" v="CITY CENTRE MANAGEMENT"/>
    <tag k="ref:UK:leedscc:bin" v="407"/>
  </node>
  <node id="7429087985" lat="53.7971880" lon="-1.5424540">
    <tag k="amenity" v="waste_basket"/>
    <tag k="operator" v="CITY CENTRE MANAGEMENT"/>
    <tag k="ref:UK:leedscc:bin" v="415"/>
  </node>
  <node id="7429087988" lat="53.7961140" lon="-1.5464880">
    <tag k="amenity" v="waste_basket"/>
    <tag k="operator" v="CITY CENTRE MANAGEMENT"/>
    <tag k="ref:UK:leedscc:bin" v="262"/>
  </node>
  <node id="7429087991" lat="53.7986270" lon="-1.5435120">
    <tag k="amenity" v="waste_basket"/>
    <tag k="operator" v="CITY CENTRE MANAGEMENT"/>
    <tag k="ref:UK:leedscc:bin" v="1693"/>
  </node>
  <node id="7429088001" lat="53.7973550" lon="-1.5481450">
    <tag k="amenity" v="waste_basket"/>
    <tag k="operator" v="CITY CENTRE MANAGEMENT"/>
    <tag k="ref:UK:leedscc:bin" v="1522"/>
  </node>
  <node id="7429088002" lat="53.7957190" lon="-1.5470670">
    <tag k="amenity" v="waste_basket"/>
    <tag k="operator" v="CITY CENTRE MANAGEMENT"/>
    <tag k="ref:UK:leedscc:bin" v="2267"/>
  </node>
  <node id="7429088004" lat="53.7959900" lon="-1.5465470">
    <tag k="amenity" v="waste_basket"/>
    <tag k="operator" v="CITY CENTRE MANAGEMENT"/>
    <tag k="ref:UK:leedscc:bin" v="268"/>
  </node>
  <node id="7429088007" lat="53.7968630" lon="-1.5405990">
    <tag k="amenity" v="waste_basket"/>
    <tag k="operator" v="CITY CENTRE MANAGEMENT"/>
    <tag k="ref:UK:leedscc:bin" v="756"/>
  </node>
  <node id="7429088011" lat="53.7973410" lon="-1.5420160">
    <tag k="amenity" v="waste_basket"/>
    <tag k="operator" v="CITY CENTRE MANAGEMENT"/>
    <tag k="ref:UK:leedscc:bin" v="1648"/>
  </node>
  <node id="7429088012" lat="53.7971900" lon="-1.5401550">
    <tag k="amenity" v="waste_basket"/>
    <tag k="operator" v="CITY CENTRE MANAGEMENT"/>
    <tag k="ref:UK:leedscc:bin" v="3430"/>
  </node>
  <node id="7429088016" lat="53.7969990" lon="-1.5405020">
    <tag k="amenity" v="waste_basket"/>
    <tag k="operator" v="CITY CENTRE MANAGEMENT"/>
    <tag k="ref:UK:leedscc:bin" v="3432"/>
  </node>
  <node id="7429088019" lat="53.7960520" lon="-1.5449570">
    <tag k="amenity" v="waste_basket"/>
    <tag k="operator" v="CITY CENTRE MANAGEMENT"/>
    <tag k="ref:UK:leedscc:bin" v="698"/>
  </node>
  <node id="7429088022" lat="53.7957360" lon="-1.5400850">
    <tag k="amenity" v="waste_basket"/>
    <tag k="operator" v="CITY CENTRE MANAGEMENT"/>
    <tag k="ref:UK:leedscc:bin" v="729"/>
  </node>
  <node id="7429088029" lat="53.7984110" lon="-1.5420000">
    <tag k="amenity" v="waste_basket"/>
    <tag k="operator" v="CITY CENTRE MANAGEMENT"/>
    <tag k="ref:UK:leedscc:bin" v="409"/>
  </node>
  <node id="7429088030" lat="53.7957590" lon="-1.5455150">
    <tag k="amenity" v="waste_basket"/>
    <tag k="operator" v="CITY CENTRE MANAGEMENT"/>
    <tag k="ref:UK:leedscc:bin" v="265"/>
  </node>
  <node id="7429088033" lat="53.7971300" lon="-1.5422250">
    <tag k="amenity" v="waste_basket"/>
    <tag k="operator" v="CITY CENTRE MANAGEMENT"/>
    <tag k="ref:UK:leedscc:bin" v="412"/>
  </node>
  <node id="7429088036" lat="53.7958110" lon="-1.5403700">
    <tag k="amenity" v="waste_basket"/>
    <tag k="operator" v="CITY CENTRE MANAGEMENT"/>
    <tag k="ref:UK:leedscc:bin" v="728"/>
  </node>
  <node id="7429088047" lat="53.7943540" lon="-1.5442810">
    <tag k="amenity" v="waste_basket"/>
    <tag k="operator" v="CITY CENTRE MANAGEMENT"/>
    <tag k="ref:UK:leedscc:bin" v="3152"/>
  </node>
  <node id="7429088049" lat="53.7961430" lon="-1.5449940">
    <tag k="amenity" v="waste_basket"/>
    <tag k="operator" v="CITY CENTRE MANAGEMENT"/>
    <tag k="ref:UK:leedscc:bin" v="61"/>
  </node>
  <node id="7429088050" lat="53.7961450" lon="-1.5426760">
    <tag k="amenity" v="waste_basket"/>
    <tag k="operator" v="CITY CENTRE MANAGEMENT"/>
    <tag k="ref:UK:leedscc:bin" v="419"/>
  </node>
  <node id="7429088054" lat="53.7972220" lon="-1.5419260">
    <tag k="amenity" v="waste_basket"/>
    <tag k="operator" v="CITY CENTRE MANAGEMENT"/>
    <tag k="ref:UK:leedscc:bin" v="1647"/>
  </node>
  <node id="7429088057" lat="53.7959390" lon="-1.5407080">
    <tag k="amenity" v="waste_basket"/>
    <tag k="operator" v="CITY CENTRE MANAGEMENT"/>
    <tag k="ref:UK:leedscc:bin" v="727"/>
  </node>
  <node id="7429088059" lat="53.7970110" lon="-1.5407430">
    <tag k="amenity" v="waste_basket"/>
    <tag k="operator" v="CITY CENTRE MANAGEMENT"/>
    <tag k="ref:UK:leedscc:bin" v="1644"/>
  </node>
  <node id="7429088064" lat="53.7972370" lon="-1.5404420">
    <tag k="amenity" v="waste_basket"/>
    <tag k="operator" v="CITY CENTRE MANAGEMENT"/>
    <tag k="ref:UK:leedscc:bin" v="3433"/>
  </node>
  <node id="7429088065" lat="53.8006330" lon="-1.5492630">
    <tag k="amenity" v="waste_basket"/>
    <tag k="operator" v="CITY CENTRE MANAGEMENT"/>
    <tag k="ref:UK:leedscc:bin" v="521"/>
  </node>
  <node id="7429088067" lat="53.7978090" lon="-1.5449180">
    <tag k="amenity" v="waste_basket"/>
    <tag k="operator" v="CITY CENTRE MANAGEMENT"/>
    <tag k="ref:UK:leedscc:bin" v="51"/>
  </node>
  <node id="7429088068" lat="53.7950910" lon="-1.5458860">
    <tag k="amenity" v="waste_basket"/>
    <tag k="operator" v="CITY CENTRE MANAGEMENT"/>
    <tag k="ref:UK:leedscc:bin" v="2269"/>
  </node>
  <node id="7429088074" lat="53.7988770" lon="-1.5432920">
    <tag k="amenity" v="waste_basket"/>
    <tag k="operator" v="CITY CENTRE MANAGEMENT"/>
    <tag k="ref:UK:leedscc:bin" v="1694"/>
  </node>
  <node id="7429088075" lat="53.7973100" lon="-1.5446940">
    <tag k="amenity" v="waste_basket"/>
    <tag k="operator" v="CITY CENTRE MANAGEMENT"/>
    <tag k="ref:UK:leedscc:bin" v="761"/>
  </node>
  <node id="7429088079" lat="53.7963010" lon="-1.5496480">
    <tag k="amenity" v="waste_basket"/>
    <tag k="operator" v="CITY CENTRE MANAGEMENT"/>
    <tag k="ref:UK:leedscc:bin" v="3523"/>
  </node>
  <node id="7429088084" lat="53.7959250" lon="-1.5421420">
    <tag k="amenity" v="waste_basket"/>
    <tag k="operator" v="CITY CENTRE MANAGEMENT"/>
    <tag k="ref:UK:leedscc:bin" v="940"/>
  </node>
  <node id="7429088085" lat="53.7957830" lon="-1.5458210">
    <tag k="amenity" v="waste_basket"/>
    <tag k="operator" v="CITY CENTRE MANAGEMENT"/>
    <tag k="ref:UK:leedscc:bin" v="266"/>
  </node>
  <node id="7429088087" lat="53.7969780" lon="-1.5409470">
    <tag k="amenity" v="waste_basket"/>
    <tag k="operator" v="CITY CENTRE MANAGEMENT"/>
    <tag k="ref:UK:leedscc:bin" v="757"/>
  </node>
  <node id="7429088090" lat="53.7958630" lon="-1.5461660">
    <tag k="amenity" v="waste_basket"/>
    <tag k="operator" v="CITY CENTRE MANAGEMENT"/>
    <tag k="ref:UK:leedscc:bin" v="267"/>
  </node>
  <node id="7429088092" lat="53.7974740" lon="-1.5401330">
    <tag k="amenity" v="waste_basket"/>
    <tag k="operator" v="CITY CENTRE MANAGEMENT"/>
    <tag k="ref:UK:leedscc:bin" v="3429"/>
  </node>
  <node id="7429088093" lat="53.7968030" lon="-1.5426110">
    <tag k="amenity" v="waste_basket"/>
    <tag k="operator" v="CITY CENTRE MANAGEMENT"/>
    <tag k="ref:UK:leedscc:bin" v="416"/>
  </node>
  <node id="7429088095" lat="53.7974520" lon="-1.5488000">
    <tag k="amenity" v="waste_basket"/>
    <tag k="operator" v="CITY CENTRE MANAGEMENT"/>
    <tag k="ref:UK:leedscc:bin" v="1528"/>
  </node>
  <node id="7429088097" lat="53.7980930" lon="-1.5450330">
    <tag k="amenity" v="waste_basket"/>
    <tag k="operator" v="CITY CENTRE MANAGEMENT"/>
    <tag k="ref:UK:leedscc:bin" v="55"/>
  </node>
  <node id="7429088098" lat="53.7968420" lon="-1.5411170">
    <tag k="amenity" v="waste_basket"/>
    <tag k="operator" v="CITY CENTRE MANAGEMENT"/>
    <tag k="ref:UK:leedscc:bin" v="598"/>
  </node>
  <node id="7429088099" lat="53.7977530" lon="-1.5450920">
    <tag k="amenity" v="waste_basket"/>
    <tag k="operator" v="CITY CENTRE MANAGEMENT"/>
    <tag k="ref:UK:leedscc:bin" v="66"/>
  </node>
  <node id="7429088101" lat="53.7965140" lon="-1.5412390">
    <tag k="amenity" v="waste_basket"/>
    <tag k="operator" v="CITY CENTRE MANAGEMENT"/>
    <tag k="ref:UK:leedscc:bin" v="600"/>
  </node>
  <node id="7429088102" lat="53.7977070" lon="-1.5477230">
    <tag k="amenity" v="waste_basket"/>
    <tag k="operator" v="CITY CENTRE MANAGEMENT"/>
    <tag k="ref:UK:leedscc:bin" v="285"/>
  </node>
  <node id="7429088110" lat="53.7987280" lon="-1.5419390">
    <tag k="amenity" v="waste_basket"/>
    <tag k="operator" v="CITY CENTRE MANAGEMENT"/>
    <tag k="ref:UK:leedscc:bin" v="410"/>
  </node>
  <node id="7429088111" lat="53.7963720" lon="-1.5426730">
    <tag k="amenity" v="waste_basket"/>
    <tag k="operator" v="CITY CENTRE MANAGEMENT"/>
    <tag k="ref:UK:leedscc:bin" v="418"/>
  </node>
  <node id="7429088113" lat="53.7974300" lon="-1.5404590">
    <tag k="amenity" v="waste_basket"/>
    <tag k="operator" v="CITY CENTRE MANAGEMENT"/>
    <tag k="ref:UK:leedscc:bin" v="3434"/>
  </node>
  <node id="7429088114" lat="53.8003260" lon="-1.5573160">
    <tag k="amenity" v="waste_basket"/>
    <tag k="collection_times" v="Mo"/>
    <tag k="condition" v="FAIR"/>
    <tag k="ref:UK:leedscc:bin" v="7231"/>
    <tag k="waste_basket:model" v="METAL TWIN"/>
  </node>
  <node id="7429088115" lat="53.7998940" lon="-1.5530300">
    <tag k="amenity" v="waste_basket"/>
    <tag k="operator" v="CITY CENTRE MANAGEMENT"/>
    <tag k="ref:UK:leedscc:bin" v="2511"/>
  </node>
  <node id="7429088116" lat="53.7976970" lon="-1.5481610">
    <tag k="amenity" v="waste_basket"/>
    <tag k="operator" v="CITY CENTRE MANAGEMENT"/>
    <tag k="ref:UK:leedscc:bin" v="281"/>
  </node>
  <node id="7429088121" lat="53.7967900" lon="-1.5422670">
    <tag k="amenity" v="waste_basket"/>
    <tag k="operator" v="CITY CENTRE MANAGEMENT"/>
    <tag k="ref:UK:leedscc:bin" v="413"/>
  </node>
  <node id="7429088123" lat="53.7963810" lon="-1.5450490">
    <tag k="amenity" v="waste_basket"/>
    <tag k="operator" v="CITY CENTRE MANAGEMENT"/>
    <tag k="ref:UK:leedscc:bin" v="60"/>
  </node>
  <node id="7429088124" lat="53.7976280" lon="-1.5486390">
    <tag k="amenity" v="waste_basket"/>
    <tag k="operator" v="CITY CENTRE MANAGEMENT"/>
    <tag k="ref:UK:leedscc:bin" v="1523"/>
  </node>
  <node id="7429088125" lat="53.7967370" lon="-1.5560270">
    <tag k="amenity" v="waste_basket"/>
    <tag k="operator" v="CITY CENTRE MANAGEMENT"/>
    <tag k="ref:UK:leedscc:bin" v="3532"/>
  </node>
  <node id="7429088126" lat="53.7961290" lon="-1.5420820">
    <tag k="amenity" v="waste_basket"/>
    <tag k="operator" v="CITY CENTRE MANAGEMENT"/>
    <tag k="ref:UK:leedscc:bin" v="939"/>
  </node>
  <node id="7429088128" lat="53.7962530" lon="-1.5413150">
    <tag k="amenity" v="waste_basket"/>
    <tag k="operator" v="CITY CENTRE MANAGEMENT"/>
    <tag k="ref:UK:leedscc:bin" v="599"/>
  </node>
  <node id="7429088133" lat="53.7977520" lon="-1.5471860">
    <tag k="amenity" v="waste_basket"/>
    <tag k="operator" v="CITY CENTRE MANAGEMENT"/>
    <tag k="ref:UK:leedscc:bin" v="2522"/>
  </node>
  <node id="7429088134" lat="53.7990620" lon="-1.5432760">
    <tag k="amenity" v="waste_basket"/>
    <tag k="operator" v="CITY CENTRE MANAGEMENT"/>
    <tag k="ref:UK:leedscc:bin" v="1695"/>
  </node>
  <node id="7429088135" lat="53.7971180" lon="-1.5410910">
    <tag k="amenity" v="waste_basket"/>
    <tag k="operator" v="CITY CENTRE MANAGEMENT"/>
    <tag k="ref:UK:leedscc:bin" v="1645"/>
  </node>
  <node id="7429088139" lat="53.7981400" lon="-1.5452410">
    <tag k="amenity" v="waste_basket"/>
    <tag k="operator" v="CITY CENTRE MANAGEMENT"/>
    <tag k="ref:UK:leedscc:bin" v="67"/>
  </node>
  <node id="7429088145" lat="53.7975660" lon="-1.5404380">
    <tag k="amenity" v="waste_basket"/>
    <tag k="operator" v="CITY CENTRE MANAGEMENT"/>
    <tag k="ref:UK:leedscc:bin" v="3435"/>
  </node>
  <node id="7429088146" lat="53.7972660" lon="-1.5450970">
    <tag k="amenity" v="waste_basket"/>
    <tag k="operator" v="CITY CENTRE MANAGEMENT"/>
    <tag k="ref:UK:leedscc:bin" v="64"/>
  </node>
  <node id="7429088151" lat="53.7977140" lon="-1.5467010">
    <tag k="amenity" v="waste_basket"/>
    <tag k="operator" v="CITY CENTRE MANAGEMENT"/>
    <tag k="ref:UK:leedscc:bin" v="280"/>
  </node>
  <node id="7429088153" lat="53.7990940" lon="-1.5427010">
    <tag k="amenity" v="waste_basket"/>
    <tag k="operator" v="CITY CENTRE MANAGEMENT"/>
    <tag k="ref:UK:leedscc:bin" v="3208"/>
  </node>
  <node id="7429088155" lat="53.7978380" lon="-1.5481000">
    <tag k="amenity" v="waste_basket"/>
    <tag k="operator" v="CITY CENTRE MANAGEMENT"/>
    <tag k="ref:UK:leedscc:bin" v="284"/>
  </node>
  <node id="7429088157" lat="53.7975310" lon="-1.5461860">
    <tag k="amenity" v="waste_basket"/>
    <tag k="operator" v="CITY CENTRE MANAGEMENT"/>
    <tag k="ref:UK:leedscc:bin" v="288"/>
  </node>
  <node id="7429088158" lat="53.7951380" lon="-1.5463840">
    <tag k="amenity" v="waste_basket"/>
    <tag k="operator" v="CITY CENTRE MANAGEMENT"/>
    <tag k="ref:UK:leedscc:bin" v="2268"/>
  </node>
  <node id="7429088159" lat="53.7967070" lon="-1.5543170">
    <tag k="amenity" v="waste_basket"/>
    <tag k="operator" v="CITY CENTRE MANAGEMENT"/>
    <tag k="ref:UK:leedscc:bin" v="3529"/>
  </node>
  <node id="7429088161" lat="53.7965300" lon="-1.5426140">
    <tag k="amenity" v="waste_basket"/>
    <tag k="operator" v="CITY CENTRE MANAGEMENT"/>
    <tag k="ref:UK:leedscc:bin" v="417"/>
  </node>
  <node id="7429088162" lat="53.7971790" lon="-1.5412790">
    <tag k="amenity" v="waste_basket"/>
    <tag k="operator" v="CITY CENTRE MANAGEMENT"/>
    <tag k="ref:UK:leedscc:bin" v="1646"/>
  </node>
  <node id="7429088163" lat="53.7978270" lon="-1.5483190">
    <tag k="amenity" v="waste_basket"/>
    <tag k="operator" v="CITY CENTRE MANAGEMENT"/>
    <tag k="ref:UK:leedscc:bin" v="282"/>
  </node>
  <node id="7429088167" lat="53.7941720" lon="-1.5427980">
    <tag k="amenity" v="waste_basket"/>
    <tag k="operator" v="CITY CENTRE MANAGEMENT"/>
    <tag k="ref:UK:leedscc:bin" v="3153"/>
  </node>
  <node id="7429088168" lat="53.7991650" lon="-1.5431280">
    <tag k="amenity" v="waste_basket"/>
    <tag k="operator" v="CITY CENTRE MANAGEMENT"/>
    <tag k="ref:UK:leedscc:bin" v="3205"/>
  </node>
  <node id="7429088170" lat="53.7990580" lon="-1.5422800">
    <tag k="amenity" v="waste_basket"/>
    <tag k="operator" v="CITY CENTRE MANAGEMENT"/>
    <tag k="ref:UK:leedscc:bin" v="3214"/>
  </node>
  <node id="7429088172" lat="53.7984000" lon="-1.5452380">
    <tag k="amenity" v="waste_basket"/>
    <tag k="operator" v="CITY CENTRE MANAGEMENT"/>
    <tag k="ref:UK:leedscc:bin" v="68"/>
  </node>
  <node id="7429088173" lat="53.7871980" lon="-1.5619460">
    <tag k="amenity" v="waste_basket"/>
    <tag k="ref:UK:leedscc:bin" v="923"/>
  </node>
  <node id="7429088174" lat="53.7968420" lon="-1.5557480">
    <tag k="amenity" v="waste_basket"/>
    <tag k="operator" v="CITY CENTRE MANAGEMENT"/>
    <tag k="ref:UK:leedscc:bin" v="3531"/>
  </node>
  <node id="7429088176" lat="53.8002920" lon="-1.5492670">
    <tag k="amenity" v="waste_basket"/>
    <tag k="operator" v="CITY CENTRE MANAGEMENT"/>
    <tag k="ref:UK:leedscc:bin" v="522"/>
  </node>
  <node id="7429088179" lat="53.7960900" lon="-1.5414930">
    <tag k="amenity" v="waste_basket"/>
    <tag k="operator" v="CITY CENTRE MANAGEMENT"/>
    <tag k="ref:UK:leedscc:bin" v="938"/>
  </node>
  <node id="7429088180" lat="53.7990470" lon="-1.5421660">
    <tag k="amenity" v="waste_basket"/>
    <tag k="operator" v="CITY CENTRE MANAGEMENT"/>
    <tag k="ref:UK:leedscc:bin" v="3209"/>
  </node>
  <node id="7429088184" lat="53.7956780" lon="-1.5498030">
    <tag k="amenity" v="waste_basket"/>
    <tag k="operator" v="CITY CENTRE MANAGEMENT"/>
    <tag k="ref:UK:leedscc:bin" v="41"/>
  </node>
  <node id="7429088185" lat="53.7973350" lon="-1.5453260">
    <tag k="amenity" v="waste_basket"/>
    <tag k="operator" v="CITY CENTRE MANAGEMENT"/>
    <tag k="ref:UK:leedscc:bin" v="65"/>
  </node>
  <node id="7429088186" lat="53.7984790" lon="-1.5452410">
    <tag k="amenity" v="waste_basket"/>
    <tag k="operator" v="CITY CENTRE MANAGEMENT"/>
    <tag k="ref:UK:leedscc:bin" v="52"/>
  </node>
  <node id="7429088187" lat="53.7968050" lon="-1.5551320">
    <tag k="amenity" v="waste_basket"/>
    <tag k="operator" v="CITY CENTRE MANAGEMENT"/>
    <tag k="ref:UK:leedscc:bin" v="3530"/>
  </node>
  <node id="7429088189" lat="53.7958790" lon="-1.5415130">
    <tag k="amenity" v="waste_basket"/>
    <tag k="operator" v="CITY CENTRE MANAGEMENT"/>
    <tag k="ref:UK:leedscc:bin" v="937"/>
  </node>
  <node id="7429088192" lat="53.7992110" lon="-1.5435240">
    <tag k="amenity" v="waste_basket"/>
    <tag k="operator" v="CITY CENTRE MANAGEMENT"/>
    <tag k="ref:UK:leedscc:bin" v="3207"/>
  </node>
  <node id="7429088194" lat="53.8002320" lon="-1.5490090">
    <tag k="amenity" v="waste_basket"/>
    <tag k="operator" v="CITY CENTRE MANAGEMENT"/>
    <tag k="ref:UK:leedscc:bin" v="520"/>
  </node>
  <node id="7429088196" lat="53.7965290" lon="-1.5423270">
    <tag k="amenity" v="waste_basket"/>
    <tag k="operator" v="CITY CENTRE MANAGEMENT"/>
    <tag k="ref:UK:leedscc:bin" v="414"/>
  </node>
  <node id="7429088198" lat="53.7990180" lon="-1.5418720">
    <tag k="amenity" v="waste_basket"/>
    <tag k="operator" v="CITY CENTRE MANAGEMENT"/>
    <tag k="ref:UK:leedscc:bin" v="973"/>
  </node>
  <node id="7429088199" lat="53.7977470" lon="-1.5403980">
    <tag k="amenity" v="waste_basket"/>
    <tag k="operator" v="CITY CENTRE MANAGEMENT"/>
    <tag k="ref:UK:leedscc:bin" v="3437"/>
  </node>
  <node id="7429088200" lat="53.7985930" lon="-1.5452220">
    <tag k="amenity" v="waste_basket"/>
    <tag k="operator" v="CITY CENTRE MANAGEMENT"/>
    <tag k="ref:UK:leedscc:bin" v="56"/>
  </node>
  <node id="7429088201" lat="53.7990230" lon="-1.5418590">
    <tag k="amenity" v="waste_basket"/>
    <tag k="operator" v="CITY CENTRE MANAGEMENT"/>
    <tag k="ref:UK:leedscc:bin" v="980"/>
  </node>
  <node id="7429088203" lat="53.7976890" lon="-1.5491950">
    <tag k="amenity" v="waste_basket"/>
    <tag k="operator" v="CITY CENTRE MANAGEMENT"/>
    <tag k="ref:UK:leedscc:bin" v="1529"/>
  </node>
  <node id="7429088204" lat="53.7978990" lon="-1.5485970">
    <tag k="amenity" v="waste_basket"/>
    <tag k="operator" v="CITY CENTRE MANAGEMENT"/>
    <tag k="ref:UK:leedscc:bin" v="283"/>
  </node>
  <node id="7429088205" lat="53.7966300" lon="-1.5452490">
    <tag k="amenity" v="waste_basket"/>
    <tag k="operator" v="CITY CENTRE MANAGEMENT"/>
    <tag k="ref:UK:leedscc:bin" v="54"/>
  </node>
  <node id="7429088206" lat="53.7988260" lon="-1.5449670">
    <tag k="amenity" v="waste_basket"/>
    <tag k="operator" v="CITY CENTRE MANAGEMENT"/>
    <tag k="ref:UK:leedscc:bin" v="57"/>
  </node>
  <node id="7429088208" lat="53.8006190" lon="-1.5471700">
    <tag k="amenity" v="waste_basket"/>
    <tag k="operator" v="CITY CENTRE MANAGEMENT"/>
    <tag k="ref:UK:leedscc:bin" v="783"/>
  </node>
  <node id="7429088210" lat="53.8005300" lon="-1.5577350">
    <tag k="amenity" v="waste_basket"/>
    <tag k="collection_times" v="Mo"/>
    <tag k="condition" v="FAIR"/>
    <tag k="ref:UK:leedscc:bin" v="7232"/>
    <tag k="waste_basket:model" v="METAL TWIN"/>
  </node>
  <node id="7429088212" lat="53.7974160" lon="-1.5456700">
    <tag k="amenity" v="waste_basket"/>
    <tag k="operator" v="CITY CENTRE MANAGEMENT"/>
    <tag k="ref:UK:leedscc:bin" v="287"/>
  </node>
  <node id="7429088215" lat="53.7970850" lon="-1.5453480">
    <tag k="amenity" v="waste_basket"/>
    <tag k="operator" v="CITY CENTRE MANAGEMENT"/>
    <tag k="ref:UK:leedscc:bin" v="63"/>
  </node>
  <node id="7429088217" lat="53.7979990" lon="-1.5470040">
    <tag k="amenity" v="waste_basket"/>
    <tag k="operator" v="CITY CENTRE MANAGEMENT"/>
    <tag k="ref:UK:leedscc:bin" v="2521"/>
  </node>
  <node id="7429088219" lat="53.7967000" lon="-1.5450710">
    <tag k="amenity" v="waste_basket"/>
    <tag k="operator" v="CITY CENTRE MANAGEMENT"/>
    <tag k="ref:UK:leedscc:bin" v="53"/>
  </node>
  <node id="7429088220" lat="53.7995610" lon="-1.5521990">
    <tag k="amenity" v="waste_basket"/>
    <tag k="operator" v="CITY CENTRE MANAGEMENT"/>
    <tag k="ref:UK:leedscc:bin" v="3577"/>
  </node>
  <node id="7429088221" lat="53.7966690" lon="-1.5504000">
    <tag k="amenity" v="waste_basket"/>
    <tag k="operator" v="CITY CENTRE MANAGEMENT"/>
    <tag k="ref:UK:leedscc:bin" v="1618"/>
  </node>
  <node id="7429088223" lat="53.7979380" lon="-1.5399940">
    <tag k="amenity" v="waste_basket"/>
    <tag k="operator" v="CITY CENTRE MANAGEMENT"/>
    <tag k="ref:UK:leedscc:bin" v="3436"/>
  </node>
  <node id="7429088224" lat="53.7963630" lon="-1.5504430">
    <tag k="amenity" v="waste_basket"/>
    <tag k="operator" v="CITY CENTRE MANAGEMENT"/>
    <tag k="ref:UK:leedscc:bin" v="3524"/>
  </node>
  <node id="7429088226" lat="53.7991570" lon="-1.5444630">
    <tag k="amenity" v="waste_basket"/>
    <tag k="operator" v="CITY CENTRE MANAGEMENT"/>
    <tag k="ref:UK:leedscc:bin" v="1583"/>
  </node>
  <node id="7429088228" lat="53.7968230" lon="-1.5450820">
    <tag k="amenity" v="waste_basket"/>
    <tag k="operator" v="CITY CENTRE MANAGEMENT"/>
    <tag k="ref:UK:leedscc:bin" v="62"/>
  </node>
  <node id="7429088229" lat="53.7992810" lon="-1.5440040">
    <tag k="amenity" v="waste_basket"/>
    <tag k="operator" v="CITY CENTRE MANAGEMENT"/>
    <tag k="ref:UK:leedscc:bin" v="3204"/>
  </node>
  <node id="7429088232" lat="53.7993320" lon="-1.5426600">
    <tag k="amenity" v="waste_basket"/>
    <tag k="operator" v="CITY CENTRE MANAGEMENT"/>
    <tag k="ref:UK:leedscc:bin" v="3210"/>
  </node>
  <node id="7429088233" lat="53.7945830" lon="-1.5464640">
    <tag k="amenity" v="waste_basket"/>
    <tag k="operator" v="CITY CENTRE MANAGEMENT"/>
    <tag k="ref:UK:leedscc:bin" v="2222"/>
  </node>
  <node id="7429088236" lat="53.7978420" lon="-1.5491140">
    <tag k="amenity" v="waste_basket"/>
    <tag k="operator" v="CITY CENTRE MANAGEMENT"/>
    <tag k="ref:UK:leedscc:bin" v="1524"/>
  </node>
  <node id="7429088237" lat="53.7989530" lon="-1.5414000">
    <tag k="amenity" v="waste_basket"/>
    <tag k="operator" v="CITY CENTRE MANAGEMENT"/>
    <tag k="ref:UK:leedscc:bin" v="979"/>
  </node>
  <node id="7429088238" lat="53.7993790" lon="-1.5431200">
    <tag k="amenity" v="waste_basket"/>
    <tag k="operator" v="CITY CENTRE MANAGEMENT"/>
    <tag k="ref:UK:leedscc:bin" v="3211"/>
  </node>
  <node id="7429088239" lat="53.7992840" lon="-1.5422490">
    <tag k="amenity" v="waste_basket"/>
    <tag k="operator" v="CITY CENTRE MANAGEMENT"/>
    <tag k="ref:UK:leedscc:bin" v="3206"/>
  </node>
  <node id="7429088242" lat="53.8003690" lon="-1.5473700">
    <tag k="amenity" v="waste_basket"/>
    <tag k="operator" v="CITY CENTRE MANAGEMENT"/>
    <tag k="ref:UK:leedscc:bin" v="784"/>
  </node>
  <node id="7429088252" lat="53.7994260" lon="-1.5435790">
    <tag k="amenity" v="waste_basket"/>
    <tag k="operator" v="CITY CENTRE MANAGEMENT"/>
    <tag k="ref:UK:leedscc:bin" v="3212"/>
  </node>
  <node id="7429088255" lat="53.7992340" lon="-1.5418120">
    <tag k="amenity" v="waste_basket"/>
    <tag k="operator" v="CITY CENTRE MANAGEMENT"/>
    <tag k="ref:UK:leedscc:bin" v="974"/>
  </node>
  <node id="7429088256" lat="53.7964560" lon="-1.5531660">
    <tag k="amenity" v="waste_basket"/>
    <tag k="operator" v="CITY CENTRE MANAGEMENT"/>
    <tag k="ref:UK:leedscc:bin" v="3528"/>
  </node>
  <node id="7429088257" lat="53.7980620" lon="-1.5399710">
    <tag k="amenity" v="waste_basket"/>
    <tag k="operator" v="CITY CENTRE MANAGEMENT"/>
    <tag k="ref:UK:leedscc:bin" v="3415"/>
  </node>
  <node id="7429088258" lat="53.7971400" lon="-1.5503750">
    <tag k="amenity" v="waste_basket"/>
    <tag k="operator" v="CITY CENTRE MANAGEMENT"/>
    <tag k="ref:UK:leedscc:bin" v="1617"/>
  </node>
  <node id="7429088261" lat="53.7992380" lon="-1.5417230">
    <tag k="amenity" v="waste_basket"/>
    <tag k="operator" v="CITY CENTRE MANAGEMENT"/>
    <tag k="ref:UK:leedscc:bin" v="994"/>
  </node>
  <node id="7429088263" lat="53.7999610" lon="-1.5489720">
    <tag k="amenity" v="waste_basket"/>
    <tag k="operator" v="CITY CENTRE MANAGEMENT"/>
    <tag k="ref:UK:leedscc:bin" v="519"/>
  </node>
  <node id="7429088269" lat="53.7945880" lon="-1.5467450">
    <tag k="amenity" v="waste_basket"/>
    <tag k="operator" v="CITY CENTRE MANAGEMENT"/>
    <tag k="ref:UK:leedscc:bin" v="2221"/>
  </node>
  <node id="7429088270" lat="53.8003350" lon="-1.5471070">
    <tag k="amenity" v="waste_basket"/>
    <tag k="operator" v="CITY CENTRE MANAGEMENT"/>
    <tag k="ref:UK:leedscc:bin" v="785"/>
  </node>
  <node id="7429088272" lat="53.7981230" lon="-1.5399420">
    <tag k="amenity" v="waste_basket"/>
    <tag k="operator" v="CITY CENTRE MANAGEMENT"/>
    <tag k="ref:UK:leedscc:bin" v="3416"/>
  </node>
  <node id="7429088276" lat="53.7999380" lon="-1.5492710">
    <tag k="amenity" v="waste_basket"/>
    <tag k="operator" v="CITY CENTRE MANAGEMENT"/>
    <tag k="ref:UK:leedscc:bin" v="523"/>
  </node>
  <node id="7429088277" lat="53.7981360" lon="-1.5399470">
    <tag k="amenity" v="waste_basket"/>
    <tag k="operator" v="CITY CENTRE MANAGEMENT"/>
    <tag k="ref:UK:leedscc:bin" v="3419"/>
  </node>
  <node id="7429088283" lat="53.7999240" lon="-1.5485150">
    <tag k="amenity" v="waste_basket"/>
    <tag k="operator" v="CITY CENTRE MANAGEMENT"/>
    <tag k="ref:UK:leedscc:bin" v="518"/>
  </node>
  <node id="7429088288" lat="53.7994200" lon="-1.5420080">
    <tag k="amenity" v="waste_basket"/>
    <tag k="operator" v="CITY CENTRE MANAGEMENT"/>
    <tag k="ref:UK:leedscc:bin" v="2232"/>
  </node>
  <node id="7429088289" lat="53.7965470" lon="-1.5524100">
    <tag k="amenity" v="waste_basket"/>
    <tag k="operator" v="CITY CENTRE MANAGEMENT"/>
    <tag k="ref:UK:leedscc:bin" v="3527"/>
  </node>
  <node id="7429088292" lat="53.7981410" lon="-1.5401930">
    <tag k="amenity" v="waste_basket"/>
    <tag k="operator" v="CITY CENTRE MANAGEMENT"/>
    <tag k="ref:UK:leedscc:bin" v="3417"/>
  </node>
  <node id="7429088293" lat="53.7981430" lon="-1.5401830">
    <tag k="amenity" v="waste_basket"/>
    <tag k="operator" v="CITY CENTRE MANAGEMENT"/>
    <tag k="ref:UK:leedscc:bin" v="3438"/>
  </node>
  <node id="7429088294" lat="53.8001570" lon="-1.5473440">
    <tag k="amenity" v="waste_basket"/>
    <tag k="operator" v="CITY CENTRE MANAGEMENT"/>
    <tag k="ref:UK:leedscc:bin" v="786"/>
  </node>
  <node id="7429088296" lat="53.7981540" lon="-1.5401870">
    <tag k="amenity" v="waste_basket"/>
    <tag k="operator" v="CITY CENTRE MANAGEMENT"/>
    <tag k="ref:UK:leedscc:bin" v="3418"/>
  </node>
  <node id="7429088298" lat="53.7995190" lon="-1.5440570">
    <tag k="amenity" v="waste_basket"/>
    <tag k="operator" v="CITY CENTRE MANAGEMENT"/>
    <tag k="ref:UK:leedscc:bin" v="928"/>
  </node>
  <node id="7429088299" lat="53.7991490" lon="-1.5451720">
    <tag k="amenity" v="waste_basket"/>
    <tag k="operator" v="CITY CENTRE MANAGEMENT"/>
    <tag k="ref:UK:leedscc:bin" v="69"/>
  </node>
  <node id="7429088302" lat="53.7988940" lon="-1.5408070">
    <tag k="amenity" v="waste_basket"/>
    <tag k="operator" v="CITY CENTRE MANAGEMENT"/>
    <tag k="ref:UK:leedscc:bin" v="978"/>
  </node>
  <node id="7429088304" lat="53.7957410" lon="-1.5506410">
    <tag k="amenity" v="waste_basket"/>
    <tag k="operator" v="CITY CENTRE MANAGEMENT"/>
    <tag k="ref:UK:leedscc:bin" v="40"/>
  </node>
  <node id="7429088310" lat="53.7993070" lon="-1.5449410">
    <tag k="amenity" v="waste_basket"/>
    <tag k="operator" v="CITY CENTRE MANAGEMENT"/>
    <tag k="ref:UK:leedscc:bin" v="70"/>
  </node>
  <node id="7429088313" lat="53.7991560" lon="-1.5411110">
    <tag k="amenity" v="waste_basket"/>
    <tag k="operator" v="CITY CENTRE MANAGEMENT"/>
    <tag k="ref:UK:leedscc:bin" v="993"/>
  </node>
  <node id="7429088317" lat="53.7997702" lon="-1.5518545">
    <tag k="amenity" v="waste_basket"/>
    <tag k="operator" v="CITY CENTRE MANAGEMENT"/>
    <tag k="ref:UK:leedscc:bin" v="3575"/>
  </node>
  <node id="7429088318" lat="53.7996310" lon="-1.5437680">
    <tag k="amenity" v="waste_basket"/>
    <tag k="operator" v="CITY CENTRE MANAGEMENT"/>
    <tag k="ref:UK:leedscc:bin" v="929"/>
  </node>
  <node id="7429088319" lat="53.7995590" lon="-1.5516220">
    <tag k="amenity" v="waste_basket"/>
    <tag k="operator" v="CITY CENTRE MANAGEMENT"/>
    <tag k="ref:UK:leedscc:bin" v="3576"/>
  </node>
  <node id="7429088320" lat="53.7982850" lon="-1.5398660">
    <tag k="amenity" v="waste_basket"/>
    <tag k="operator" v="CITY CENTRE MANAGEMENT"/>
    <tag k="ref:UK:leedscc:bin" v="3420"/>
  </node>
  <node id="7429088321" lat="53.7995200" lon="-1.5444200">
    <tag k="amenity" v="waste_basket"/>
    <tag k="operator" v="CITY CENTRE MANAGEMENT"/>
    <tag k="ref:UK:leedscc:bin" v="3203"/>
  </node>
  <node id="7429088322" lat="53.7934740" lon="-1.5442340">
    <tag k="amenity" v="waste_basket"/>
    <tag k="operator" v="CITY CENTRE MANAGEMENT"/>
    <tag k="ref:UK:leedscc:bin" v="2929"/>
  </node>
  <node id="7429088324" lat="53.7994640" lon="-1.5417410">
    <tag k="amenity" v="waste_basket"/>
    <tag k="operator" v="CITY CENTRE MANAGEMENT"/>
    <tag k="ref:UK:leedscc:bin" v="2228"/>
  </node>
  <node id="7429088328" lat="53.7982900" lon="-1.5401240">
    <tag k="amenity" v="waste_basket"/>
    <tag k="operator" v="CITY CENTRE MANAGEMENT"/>
    <tag k="ref:UK:leedscc:bin" v="3439"/>
  </node>
  <node id="7429088329" lat="53.7962830" lon="-1.5510600">
    <tag k="amenity" v="waste_basket"/>
    <tag k="operator" v="CITY CENTRE MANAGEMENT"/>
    <tag k="ref:UK:leedscc:bin" v="3525"/>
  </node>
  <node id="7429088334" lat="53.7984110" lon="-1.5469200">
    <tag k="amenity" v="waste_basket"/>
    <tag k="operator" v="CITY CENTRE MANAGEMENT"/>
    <tag k="ref:UK:leedscc:bin" v="2520"/>
  </node>
  <node id="7429088335" lat="53.7997190" lon="-1.5490170">
    <tag k="amenity" v="waste_basket"/>
    <tag k="operator" v="CITY CENTRE MANAGEMENT"/>
    <tag k="ref:UK:leedscc:bin" v="3227"/>
  </node>
  <node id="7429088336" lat="53.7995900" lon="-1.5419300">
    <tag k="amenity" v="waste_basket"/>
    <tag k="operator" v="CITY CENTRE MANAGEMENT"/>
    <tag k="ref:UK:leedscc:bin" v="2233"/>
  </node>
  <node id="7429088339" lat="53.8000500" lon="-1.5470910">
    <tag k="amenity" v="waste_basket"/>
    <tag k="operator" v="CITY CENTRE MANAGEMENT"/>
    <tag k="ref:UK:leedscc:bin" v="787"/>
  </node>
  <node id="7429088341" lat="53.7999510" lon="-1.5473280">
    <tag k="amenity" v="waste_basket"/>
    <tag k="operator" v="CITY CENTRE MANAGEMENT"/>
    <tag k="ref:UK:leedscc:bin" v="790"/>
  </node>
  <node id="7429088342" lat="53.7997060" lon="-1.5486340">
    <tag k="amenity" v="waste_basket"/>
    <tag k="operator" v="CITY CENTRE MANAGEMENT"/>
    <tag k="ref:UK:leedscc:bin" v="3222"/>
  </node>
  <node id="7429088347" lat="53.7994090" lon="-1.5451500">
    <tag k="amenity" v="waste_basket"/>
    <tag k="operator" v="CITY CENTRE MANAGEMENT"/>
    <tag k="ref:UK:leedscc:bin" v="71"/>
  </node>
  <node id="7429088349" lat="53.7997543" lon="-1.5499936">
    <tag k="amenity" v="waste_basket"/>
    <tag k="operator" v="CITY CENTRE MANAGEMENT"/>
    <tag k="ref:UK:leedscc:bin" v="3574"/>
  </node>
  <node id="7429088351" lat="53.7939710" lon="-1.5466070">
    <tag k="amenity" v="waste_basket"/>
    <tag k="operator" v="CITY CENTRE MANAGEMENT"/>
    <tag k="ref:UK:leedscc:bin" v="2223"/>
  </node>
  <node id="7429088352" lat="53.7995560" lon="-1.5448230">
    <tag k="amenity" v="waste_basket"/>
    <tag k="operator" v="CITY CENTRE MANAGEMENT"/>
    <tag k="ref:UK:leedscc:bin" v="3213"/>
  </node>
  <node id="7429088354" lat="53.7996930" lon="-1.5482320">
    <tag k="amenity" v="waste_basket"/>
    <tag k="operator" v="CITY CENTRE MANAGEMENT"/>
    <tag k="ref:UK:leedscc:bin" v="3223"/>
  </node>
  <node id="7429088355" lat="53.7990860" lon="-1.5406130">
    <tag k="amenity" v="waste_basket"/>
    <tag k="operator" v="CITY CENTRE MANAGEMENT"/>
    <tag k="ref:UK:leedscc:bin" v="992"/>
  </node>
  <node id="7429088356" lat="53.7988590" lon="-1.5403400">
    <tag k="amenity" v="waste_basket"/>
    <tag k="operator" v="CITY CENTRE MANAGEMENT"/>
    <tag k="ref:UK:leedscc:bin" v="972"/>
  </node>
  <node id="7429088358" lat="53.7982200" lon="-1.5495080">
    <tag k="amenity" v="waste_basket"/>
    <tag k="operator" v="CITY CENTRE MANAGEMENT"/>
    <tag k="ref:UK:leedscc:bin" v="947"/>
  </node>
  <node id="7429088362" lat="53.7985050" lon="-1.5400070">
    <tag k="amenity" v="waste_basket"/>
    <tag k="operator" v="CITY CENTRE MANAGEMENT"/>
    <tag k="ref:UK:leedscc:bin" v="3440"/>
  </node>
  <node id="7429088363" lat="53.7984640" lon="-1.5397780">
    <tag k="amenity" v="waste_basket"/>
    <tag k="operator" v="CITY CENTRE MANAGEMENT"/>
    <tag k="ref:UK:leedscc:bin" v="3421"/>
  </node>
  <node id="7429088364" lat="53.7997800" lon="-1.5440540">
    <tag k="amenity" v="waste_basket"/>
    <tag k="operator" v="CITY CENTRE MANAGEMENT"/>
    <tag k="ref:UK:leedscc:bin" v="930"/>
  </node>
  <node id="7429088365" lat="53.7985850" lon="-1.5463460">
    <tag k="amenity" v="waste_basket"/>
    <tag k="operator" v="CITY CENTRE MANAGEMENT"/>
    <tag k="ref:UK:leedscc:bin" v="286"/>
  </node>
  <node id="7429088366" lat="53.7996920" lon="-1.5479440">
    <tag k="amenity" v="waste_basket"/>
    <tag k="operator" v="CITY CENTRE MANAGEMENT"/>
    <tag k="ref:UK:leedscc:bin" v="3224"/>
  </node>
  <node id="7429088369" lat="53.7985680" lon="-1.5471640">
    <tag k="amenity" v="waste_basket"/>
    <tag k="operator" v="CITY CENTRE MANAGEMENT"/>
    <tag k="ref:UK:leedscc:bin" v="2517"/>
  </node>
  <node id="7429088373" lat="53.7997140" lon="-1.5476760">
    <tag k="amenity" v="waste_basket"/>
    <tag k="operator" v="CITY CENTRE MANAGEMENT"/>
    <tag k="ref:UK:leedscc:bin" v="3225"/>
  </node>
  <node id="7429088384" lat="53.7962860" lon="-1.5513980">
    <tag k="amenity" v="waste_basket"/>
    <tag k="operator" v="CITY CENTRE MANAGEMENT"/>
    <tag k="ref:UK:leedscc:bin" v="3519"/>
  </node>
  <node id="7429088385" lat="53.7964120" lon="-1.5515622">
    <tag k="amenity" v="waste_basket"/>
    <tag k="operator" v="CITY CENTRE MANAGEMENT"/>
    <tag k="ref:UK:leedscc:bin" v="3526"/>
  </node>
  <node id="7429088387" lat="53.7988230" lon="-1.5400800">
    <tag k="amenity" v="waste_basket"/>
    <tag k="operator" v="CITY CENTRE MANAGEMENT"/>
    <tag k="ref:UK:leedscc:bin" v="981"/>
  </node>
  <node id="7429088390" lat="53.7997130" lon="-1.5474080">
    <tag k="amenity" v="waste_basket"/>
    <tag k="operator" v="CITY CENTRE MANAGEMENT"/>
    <tag k="ref:UK:leedscc:bin" v="3226"/>
  </node>
  <node id="7429088394" lat="53.7990720" lon="-1.5402800">
    <tag k="amenity" v="waste_basket"/>
    <tag k="operator" v="CITY CENTRE MANAGEMENT"/>
    <tag k="ref:UK:leedscc:bin" v="971"/>
  </node>
  <node id="7429088396" lat="53.7994990" lon="-1.5488440">
    <tag k="amenity" v="waste_basket"/>
    <tag k="operator" v="CITY CENTRE MANAGEMENT"/>
    <tag k="ref:UK:leedscc:bin" v="3199"/>
  </node>
  <node id="7429088397" lat="53.7995030" lon="-1.5493950">
    <tag k="amenity" v="waste_basket"/>
    <tag k="operator" v="CITY CENTRE MANAGEMENT"/>
    <tag k="ref:UK:leedscc:bin" v="3573"/>
  </node>
  <node id="7429088399" lat="53.7859720" lon="-1.5609140">
    <tag k="amenity" v="waste_basket"/>
    <tag k="ref:UK:leedscc:bin" v="927"/>
  </node>
  <node id="7429088400" lat="53.7998030" lon="-1.5417490">
    <tag k="amenity" v="waste_basket"/>
    <tag k="operator" v="CITY CENTRE MANAGEMENT"/>
    <tag k="ref:UK:leedscc:bin" v="2227"/>
  </node>
  <node id="7429088401" lat="53.7998400" lon="-1.5511870">
    <tag k="amenity" v="waste_basket"/>
    <tag k="operator" v="CITY CENTRE MANAGEMENT"/>
    <tag k="ref:UK:leedscc:bin" v="2524"/>
  </node>
  <node id="7429088404" lat="53.7997770" lon="-1.5470470">
    <tag k="amenity" v="waste_basket"/>
    <tag k="operator" v="CITY CENTRE MANAGEMENT"/>
    <tag k="ref:UK:leedscc:bin" v="788"/>
  </node>
  <node id="7429088406" lat="53.7981280" lon="-1.5503610">
    <tag k="amenity" v="waste_basket"/>
    <tag k="operator" v="CITY CENTRE MANAGEMENT"/>
    <tag k="ref:UK:leedscc:bin" v="2974"/>
  </node>
  <node id="7429088408" lat="53.7995040" lon="-1.5481260">
    <tag k="amenity" v="waste_basket"/>
    <tag k="operator" v="CITY CENTRE MANAGEMENT"/>
    <tag k="ref:UK:leedscc:bin" v="3200"/>
  </node>
  <node id="7429088409" lat="53.7986400" lon="-1.5397070">
    <tag k="amenity" v="waste_basket"/>
    <tag k="operator" v="CITY CENTRE MANAGEMENT"/>
    <tag k="ref:UK:leedscc:bin" v="3422"/>
  </node>
  <node id="7429088413" lat="53.7994320" lon="-1.5492360">
    <tag k="amenity" v="waste_basket"/>
    <tag k="operator" v="CITY CENTRE MANAGEMENT"/>
    <tag k="ref:UK:leedscc:bin" v="944"/>
  </node>
  <node id="7429088414" lat="53.7996260" lon="-1.5453590">
    <tag k="amenity" v="waste_basket"/>
    <tag k="operator" v="CITY CENTRE MANAGEMENT"/>
    <tag k="ref:UK:leedscc:bin" v="3215"/>
  </node>
  <node id="7429088418" lat="53.7937760" lon="-1.5468860">
    <tag k="amenity" v="waste_basket"/>
    <tag k="operator" v="CITY CENTRE MANAGEMENT"/>
    <tag k="ref:UK:leedscc:bin" v="2220"/>
  </node>
  <node id="7429088420" lat="53.7998730" lon="-1.5416970">
    <tag k="amenity" v="waste_basket"/>
    <tag k="operator" v="CITY CENTRE MANAGEMENT"/>
    <tag k="ref:UK:leedscc:bin" v="2237"/>
  </node>
  <node id="7429088428" lat="53.7987000" lon="-1.5385560">
    <tag k="amenity" v="waste_basket"/>
    <tag k="operator" v="CITY CENTRE MANAGEMENT"/>
    <tag k="ref:UK:leedscc:bin" v="970"/>
  </node>
  <node id="7429088432" lat="53.7987520" lon="-1.5394100">
    <tag k="amenity" v="waste_basket"/>
    <tag k="operator" v="CITY CENTRE MANAGEMENT"/>
    <tag k="ref:UK:leedscc:bin" v="982"/>
  </node>
  <node id="7429088435" lat="53.7996990" lon="-1.5468710">
    <tag k="amenity" v="waste_basket"/>
    <tag k="operator" v="CITY CENTRE MANAGEMENT"/>
    <tag k="ref:UK:leedscc:bin" v="3219"/>
  </node>
  <node id="7429088438" lat="53.7990490" lon="-1.5399240">
    <tag k="amenity" v="waste_basket"/>
    <tag k="operator" v="CITY CENTRE MANAGEMENT"/>
    <tag k="ref:UK:leedscc:bin" v="991"/>
  </node>
  <node id="7429088439" lat="53.7987620" lon="-1.5396600">
    <tag k="amenity" v="waste_basket"/>
    <tag k="operator" v="CITY CENTRE MANAGEMENT"/>
    <tag k="ref:UK:leedscc:bin" v="3423"/>
  </node>
  <node id="7429088444" lat="53.7986800" lon="-1.5381650">
    <tag k="amenity" v="waste_basket"/>
    <tag k="operator" v="CITY CENTRE MANAGEMENT"/>
    <tag k="ref:UK:leedscc:bin" v="983"/>
  </node>
  <node id="7429088446" lat="53.7931050" lon="-1.5453330">
    <tag k="amenity" v="waste_basket"/>
    <tag k="operator" v="CITY CENTRE MANAGEMENT"/>
    <tag k="ref:UK:leedscc:bin" v="2930"/>
  </node>
  <node id="7429088454" lat="53.7999770" lon="-1.5447760">
    <tag k="amenity" v="waste_basket"/>
    <tag k="operator" v="CITY CENTRE MANAGEMENT"/>
    <tag k="ref:UK:leedscc:bin" v="3704"/>
  </node>
  <node id="7429088455" lat="53.7994550" lon="-1.5460620">
    <tag k="amenity" v="waste_basket"/>
    <tag k="operator" v="CITY CENTRE MANAGEMENT"/>
    <tag k="ref:UK:leedscc:bin" v="3202"/>
  </node>
  <node id="7429088458" lat="53.7992660" lon="-1.5489800">
    <tag k="amenity" v="waste_basket"/>
    <tag k="operator" v="CITY CENTRE MANAGEMENT"/>
    <tag k="ref:UK:leedscc:bin" v="945"/>
  </node>
  <node id="7429088462" lat="53.7999390" lon="-1.5413510">
    <tag k="amenity" v="waste_basket"/>
    <tag k="operator" v="CITY CENTRE MANAGEMENT"/>
    <tag k="ref:UK:leedscc:bin" v="2238"/>
  </node>
  <node id="7429088463" lat="53.7999310" lon="-1.5450870">
    <tag k="amenity" v="waste_basket"/>
    <tag k="operator" v="CITY CENTRE MANAGEMENT"/>
    <tag k="ref:UK:leedscc:bin" v="72"/>
  </node>
  <node id="7429088468" lat="53.7994660" lon="-1.5472030">
    <tag k="amenity" v="waste_basket"/>
    <tag k="operator" v="CITY CENTRE MANAGEMENT"/>
    <tag k="ref:UK:leedscc:bin" v="3201"/>
  </node>
  <node id="7429088470" lat="53.7996610" lon="-1.5457990">
    <tag k="amenity" v="waste_basket"/>
    <tag k="operator" v="CITY CENTRE MANAGEMENT"/>
    <tag k="ref:UK:leedscc:bin" v="3216"/>
  </node>
  <node id="7429088474" lat="53.7996640" lon="-1.5465650">
    <tag k="amenity" v="waste_basket"/>
    <tag k="operator" v="CITY CENTRE MANAGEMENT"/>
    <tag k="ref:UK:leedscc:bin" v="3218"/>
  </node>
  <node id="7429088477" lat="53.7932050" lon="-1.5419420">
    <tag k="amenity" v="waste_basket"/>
    <tag k="operator" v="CITY CENTRE MANAGEMENT"/>
    <tag k="ref:UK:leedscc:bin" v="3499"/>
  </node>
  <node id="7429088478" lat="53.7989400" lon="-1.5469150">
    <tag k="amenity" v="waste_basket"/>
    <tag k="operator" v="CITY CENTRE MANAGEMENT"/>
    <tag k="ref:UK:leedscc:bin" v="2519"/>
  </node>
  <node id="7429088481" lat="53.7989930" lon="-1.5476580">
    <tag k="amenity" v="waste_basket"/>
    <tag k="operator" v="CITY CENTRE MANAGEMENT"/>
    <tag k="ref:UK:leedscc:bin" v="2914"/>
  </node>
  <node id="7429088482" lat="53.7994240" lon="-1.5471680">
    <tag k="amenity" v="waste_basket"/>
    <tag k="operator" v="CITY CENTRE MANAGEMENT"/>
    <tag k="ref:UK:leedscc:bin" v="2518"/>
  </node>
  <node id="7429088485" lat="53.8000650" lon="-1.5415030">
    <tag k="amenity" v="waste_basket"/>
    <tag k="operator" v="CITY CENTRE MANAGEMENT"/>
    <tag k="ref:UK:leedscc:bin" v="2236"/>
  </node>
  <node id="7429088487" lat="53.7988660" lon="-1.5490630">
    <tag k="amenity" v="waste_basket"/>
    <tag k="operator" v="CITY CENTRE MANAGEMENT"/>
    <tag k="ref:UK:leedscc:bin" v="946"/>
  </node>
  <node id="7429088488" lat="53.7931410" lon="-1.5460990">
    <tag k="amenity" v="waste_basket"/>
    <tag k="operator" v="CITY CENTRE MANAGEMENT"/>
    <tag k="ref:UK:leedscc:bin" v="2931"/>
  </node>
  <node id="7429088490" lat="53.7989910" lon="-1.5395410">
    <tag k="amenity" v="waste_basket"/>
    <tag k="operator" v="CITY CENTRE MANAGEMENT"/>
    <tag k="ref:UK:leedscc:bin" v="990"/>
  </node>
  <node id="7429088496" lat="53.7989200" lon="-1.5386230">
    <tag k="amenity" v="waste_basket"/>
    <tag k="operator" v="CITY CENTRE MANAGEMENT"/>
    <tag k="ref:UK:leedscc:bin" v="988"/>
  </node>
  <node id="7429088498" lat="53.7994840" lon="-1.5468160">
    <tag k="amenity" v="waste_basket"/>
    <tag k="operator" v="CITY CENTRE MANAGEMENT"/>
    <tag k="ref:UK:leedscc:bin" v="3221"/>
  </node>
  <node id="7429088501" lat="53.7989670" lon="-1.5390440">
    <tag k="amenity" v="waste_basket"/>
    <tag k="operator" v="CITY CENTRE MANAGEMENT"/>
    <tag k="ref:UK:leedscc:bin" v="989"/>
  </node>
  <node id="7429088502" lat="53.7996750" lon="-1.5462810">
    <tag k="amenity" v="waste_basket"/>
    <tag k="operator" v="CITY CENTRE MANAGEMENT"/>
    <tag k="ref:UK:leedscc:bin" v="3217"/>
  </node>
  <node id="7429088505" lat="53.7991670" lon="-1.5480330">
    <tag k="amenity" v="waste_basket"/>
    <tag k="operator" v="CITY CENTRE MANAGEMENT"/>
    <tag k="ref:UK:leedscc:bin" v="2915"/>
  </node>
  <node id="7429088508" lat="53.7930240" lon="-1.5422310">
    <tag k="amenity" v="waste_basket"/>
    <tag k="operator" v="CITY CENTRE MANAGEMENT"/>
    <tag k="ref:UK:leedscc:bin" v="3498"/>
  </node>
  <node id="7429088515" lat="53.8001780" lon="-1.5414630">
    <tag k="amenity" v="waste_basket"/>
    <tag k="operator" v="CITY CENTRE MANAGEMENT"/>
    <tag k="ref:UK:leedscc:bin" v="2235"/>
  </node>
  <node id="7429088519" lat="53.7994830" lon="-1.5465290">
    <tag k="amenity" v="waste_basket"/>
    <tag k="operator" v="CITY CENTRE MANAGEMENT"/>
    <tag k="ref:UK:leedscc:bin" v="3220"/>
  </node>
  <node id="7429088520" lat="53.8004980" lon="-1.5450230">
    <tag k="amenity" v="waste_basket"/>
    <tag k="operator" v="CITY CENTRE MANAGEMENT"/>
    <tag k="ref:UK:leedscc:bin" v="74"/>
  </node>
  <node id="7429088521" lat="53.7993530" lon="-1.5468630">
    <tag k="amenity" v="waste_basket"/>
    <tag k="operator" v="CITY CENTRE MANAGEMENT"/>
    <tag k="ref:UK:leedscc:bin" v="2516"/>
  </node>
  <node id="7429088523" lat="53.7932350" lon="-1.5467880">
    <tag k="amenity" v="waste_basket"/>
    <tag k="operator" v="CITY CENTRE MANAGEMENT"/>
    <tag k="ref:UK:leedscc:bin" v="2224"/>
  </node>
  <node id="7429088525" lat="53.8002620" lon="-1.5447010">
    <tag k="amenity" v="waste_basket"/>
    <tag k="operator" v="CITY CENTRE MANAGEMENT"/>
    <tag k="ref:UK:leedscc:bin" v="3705"/>
  </node>
  <node id="7429088536" lat="53.8003280" lon="-1.5450440">
    <tag k="amenity" v="waste_basket"/>
    <tag k="operator" v="CITY CENTRE MANAGEMENT"/>
    <tag k="ref:UK:leedscc:bin" v="73"/>
  </node>
  <node id="7429088538" lat="53.7993580" lon="-1.5395410">
    <tag k="amenity" v="waste_basket"/>
    <tag k="operator" v="CITY CENTRE MANAGEMENT"/>
    <tag k="ref:UK:leedscc:bin" v="3424"/>
  </node>
  <node id="7429088540" lat="53.8001880" lon="-1.5410990">
    <tag k="amenity" v="waste_basket"/>
    <tag k="operator" v="CITY CENTRE MANAGEMENT"/>
    <tag k="ref:UK:leedscc:bin" v="2239"/>
  </node>
  <node id="7429088550" lat="53.7994830" lon="-1.5395380">
    <tag k="amenity" v="waste_basket"/>
    <tag k="operator" v="CITY CENTRE MANAGEMENT"/>
    <tag k="ref:UK:leedscc:bin" v="3425"/>
  </node>
  <node id="7429088557" lat="53.7996700" lon="-1.5397470">
    <tag k="amenity" v="waste_basket"/>
    <tag k="operator" v="CITY CENTRE MANAGEMENT"/>
    <tag k="ref:UK:leedscc:bin" v="3426"/>
  </node>
  <node id="7429088569" lat="53.8005080" lon="-1.5446210">
    <tag k="amenity" v="waste_basket"/>
    <tag k="operator" v="CITY CENTRE MANAGEMENT"/>
    <tag k="ref:UK:leedscc:bin" v="75"/>
  </node>
  <node id="7429088579" lat="53.8003930" lon="-1.5412120">
    <tag k="amenity" v="waste_basket"/>
    <tag k="operator" v="CITY CENTRE MANAGEMENT"/>
    <tag k="ref:UK:leedscc:bin" v="2234"/>
  </node>
  <node id="7429088600" lat="53.8004140" lon="-1.5408860">
    <tag k="amenity" v="waste_basket"/>
    <tag k="operator" v="CITY CENTRE MANAGEMENT"/>
    <tag k="ref:UK:leedscc:bin" v="2240"/>
  </node>
  <node id="7429088602" lat="53.7927490" lon="-1.5415570">
    <tag k="amenity" v="waste_basket"/>
    <tag k="operator" v="CITY CENTRE MANAGEMENT"/>
    <tag k="ref:UK:leedscc:bin" v="393"/>
  </node>
  <node id="7429088618" lat="53.7998420" lon="-1.5395050">
    <tag k="amenity" v="waste_basket"/>
    <tag k="operator" v="CITY CENTRE MANAGEMENT"/>
    <tag k="ref:UK:leedscc:bin" v="3427"/>
  </node>
  <node id="7429088633" lat="53.8000660" lon="-1.5396910">
    <tag k="amenity" v="waste_basket"/>
    <tag k="operator" v="CITY CENTRE MANAGEMENT"/>
    <tag k="ref:UK:leedscc:bin" v="3428"/>
  </node>
  <node id="7429088652" lat="53.7924520" lon="-1.5418570">
    <tag k="amenity" v="waste_basket"/>
    <tag k="operator" v="CITY CENTRE MANAGEMENT"/>
    <tag k="ref:UK:leedscc:bin" v="394"/>
  </node>
  <node id="7429088675" lat="53.7848950" lon="-1.5593200">
    <tag k="amenity" v="waste_basket"/>
    <tag k="ref:UK:leedscc:bin" v="926"/>
  </node>
  <node id="7429088712" lat="53.8005480" lon="-1.5629810">
    <tag k="amenity" v="waste_basket"/>
    <tag k="collection_times" v="Mo"/>
    <tag k="condition" v="GOOD"/>
    <tag k="ref:UK:leedscc:bin" v="4527"/>
    <tag k="waste_basket:model" v="METAL SQUARE"/>
  </node>
  <node id="7429088714" lat="53.7846390" lon="-1.5594760">
    <tag k="amenity" v="waste_basket"/>
    <tag k="ref:UK:leedscc:bin" v="925"/>
  </node>
  <node id="7429088746" lat="53.7844660" lon="-1.5592320">
    <tag k="amenity" v="waste_basket"/>
    <tag k="ref:UK:leedscc:bin" v="3275"/>
  </node>
  <node id="7429088749" lat="53.7847990" lon="-1.5574010">
    <tag k="amenity" v="waste_basket"/>
    <tag k="ref:UK:leedscc:bin" v="1480"/>
  </node>
  <node id="7429088757" lat="53.7843570" lon="-1.5607780">
    <tag k="amenity" v="waste_basket"/>
    <tag k="ref:UK:leedscc:bin" v="836"/>
  </node>
  <node id="7429088778" lat="53.7914580" lon="-1.5449680">
    <tag k="amenity" v="waste_basket"/>
    <tag k="operator" v="CITY CENTRE MANAGEMENT"/>
    <tag k="ref:UK:leedscc:bin" v="1154"/>
  </node>
  <node id="7429088785" lat="53.7915880" lon="-1.5462120">
    <tag k="amenity" v="waste_basket"/>
    <tag k="operator" v="CITY CENTRE MANAGEMENT"/>
    <tag k="ref:UK:leedscc:bin" v="1153"/>
  </node>
  <node id="7429088804" lat="53.7841100" lon="-1.5592010">
    <tag k="amenity" v="waste_basket"/>
    <tag k="ref:UK:leedscc:bin" v="924"/>
  </node>
  <node id="7429088878" lat="53.7842900" lon="-1.5642630">
    <tag k="amenity" v="waste_basket"/>
    <tag k="ref:UK:leedscc:bin" v="1535"/>
  </node>
  <node id="7429088925" lat="53.7837010" lon="-1.5630520">
    <tag k="amenity" v="waste_basket"/>
    <tag k="ref:UK:leedscc:bin" v="458"/>
  </node>
  <node id="7429088929" lat="53.7834450" lon="-1.5589530">
    <tag k="amenity" v="waste_basket"/>
    <tag k="ref:UK:leedscc:bin" v="3276"/>
  </node>
  <node id="7429088951" lat="53.7842930" lon="-1.5552720">
    <tag k="amenity" v="waste_basket"/>
    <tag k="ref:UK:leedscc:bin" v="1479"/>
  </node>
  <node id="7429089059" lat="53.7836850" lon="-1.5652750">
    <tag k="amenity" v="waste_basket"/>
    <tag k="ref:UK:leedscc:bin" v="454"/>
  </node>
  <node id="7429089114" lat="53.7838340" lon="-1.5662870">
    <tag k="amenity" v="waste_basket"/>
    <tag k="ref:UK:leedscc:bin" v="457"/>
  </node>
  <node id="7429089198" lat="53.7837170" lon="-1.5672040">
    <tag k="amenity" v="waste_basket"/>
    <tag k="ref:UK:leedscc:bin" v="455"/>
  </node>
  <node id="7429089199" lat="53.7840350" lon="-1.5677630">
    <tag k="amenity" v="waste_basket"/>
    <tag k="ref:UK:leedscc:bin" v="456"/>
  </node>
  <node id="7429089204" lat="53.7832790" lon="-1.5540100">
    <tag k="amenity" v="waste_basket"/>
    <tag k="ref:UK:leedscc:bin" v="2202"/>
  </node>
  <node id="7429089229" lat="53.7824550" lon="-1.5646310">
    <tag k="amenity" v="waste_basket"/>
    <tag k="ref:UK:leedscc:bin" v="1536"/>
  </node>
  <node id="7429089325" lat="53.7920910" lon="-1.5693860">
    <tag k="amenity" v="waste_basket"/>
    <tag k="collection_times" v="Mo; Th"/>
    <tag k="condition" v="POOR"/>
    <tag k="ref:UK:leedscc:bin" v="4673"/>
    <tag k="waste_basket:model" v="METAL TWIN"/>
  </node>
  <node id="7429089342" lat="53.7840540" lon="-1.5508600">
    <tag k="amenity" v="waste_basket"/>
    <tag k="collection_times" v="Tu"/>
    <tag k="condition" v="GOOD"/>
    <tag k="ref:UK:leedscc:bin" v="8915"/>
    <tag k="waste_basket:model" v="METAL SQUARE"/>
  </node>
  <node id="7429089373" lat="53.7954940" lon="-1.5697060">
    <tag k="amenity" v="waste_basket"/>
    <tag k="collection_times" v="Mo; Th"/>
    <tag k="condition" v="GOOD"/>
    <tag k="ref:UK:leedscc:bin" v="535"/>
    <tag k="waste_basket:model" v="METAL TWIN"/>
  </node>
  <node id="7429089374" lat="53.7920230" lon="-1.5702780">
    <tag k="amenity" v="waste_basket"/>
    <tag k="collection_times" v="Mo; Th"/>
    <tag k="condition" v="GOOD"/>
    <tag k="ref:UK:leedscc:bin" v="4674"/>
    <tag k="waste_basket:model" v="METAL SQUARE"/>
  </node>
  <node id="7429089379" lat="53.7809560" lon="-1.5592590">
    <tag k="amenity" v="waste_basket"/>
    <tag k="ref:UK:leedscc:bin" v="597"/>
  </node>
  <node id="7429089395" lat="53.7820850" lon="-1.5532830">
    <tag k="amenity" v="waste_basket"/>
    <tag k="ref:UK:leedscc:bin" v="2203"/>
  </node>
  <node id="7429089486" lat="53.7820540" lon="-1.5519730">
    <tag k="amenity" v="waste_basket"/>
    <tag k="collection_times" v="Tu"/>
    <tag k="condition" v="GOOD"/>
    <tag k="ref:UK:leedscc:bin" v="8919"/>
    <tag k="waste_basket:model" v="METAL SQUARE"/>
  </node>
  <node id="7429089521" lat="53.7802040" lon="-1.5577340">
    <tag k="amenity" v="waste_basket"/>
    <tag k="ref:UK:leedscc:bin" v="2032"/>
  </node>
  <node id="7429089539" lat="53.7911770" lon="-1.5729130">
    <tag k="amenity" v="waste_basket"/>
    <tag k="collection_times" v="Mo; Th"/>
    <tag k="condition" v="GOOD"/>
    <tag k="ref:UK:leedscc:bin" v="4675"/>
    <tag k="waste_basket:model" v="METAL SQUARE"/>
  </node>
  <node id="7429089542" lat="53.7799890" lon="-1.5588620">
    <tag k="amenity" v="waste_basket"/>
    <tag k="ref:UK:leedscc:bin" v="596"/>
  </node>
  <node id="7429089543" lat="53.7830590" lon="-1.5494140">
    <tag k="amenity" v="waste_basket"/>
    <tag k="collection_times" v="Tu"/>
    <tag k="condition" v="POOR"/>
    <tag k="ref:UK:leedscc:bin" v="8916"/>
    <tag k="waste_basket:model" v="METAL TWIN"/>
  </node>
  <node id="7429089563" lat="53.7823520" lon="-1.5501280">
    <tag k="amenity" v="waste_basket"/>
    <tag k="collection_times" v="Tu"/>
    <tag k="condition" v="GOOD"/>
    <tag k="ref:UK:leedscc:bin" v="8920"/>
    <tag k="waste_basket:model" v="METAL SQUARE"/>
  </node>
  <node id="7429089602" lat="53.7821570" lon="-1.5498130">
    <tag k="amenity" v="waste_basket"/>
    <tag k="collection_times" v="Tu"/>
    <tag k="condition" v="POOR"/>
    <tag k="ref:UK:leedscc:bin" v="1519"/>
    <tag k="waste_basket:model" v="METAL TWIN"/>
  </node>
  <node id="7429089605" lat="53.7914930" lon="-1.5735120">
    <tag k="amenity" v="waste_basket"/>
    <tag k="collection_times" v="Mo; Th"/>
    <tag k="condition" v="GOOD"/>
    <tag k="ref:UK:leedscc:bin" v="4676"/>
    <tag k="waste_basket:model" v="METAL SQUARE"/>
  </node>
  <node id="7429089648" lat="53.7809870" lon="-1.5513770">
    <tag k="amenity" v="waste_basket"/>
    <tag k="collection_times" v="Tu"/>
    <tag k="condition" v="GOOD"/>
    <tag k="ref:UK:leedscc:bin" v="10515"/>
    <tag k="waste_basket:model" v="METAL SQUARE"/>
  </node>
  <node id="7429089651" lat="53.7828900" lon="-1.5481530">
    <tag k="amenity" v="waste_basket"/>
    <tag k="collection_times" v="Tu"/>
    <tag k="condition" v="POOR"/>
    <tag k="ref:UK:leedscc:bin" v="8917"/>
    <tag k="waste_basket:model" v="METAL TWIN"/>
  </node>
  <node id="7429089668" lat="53.7990320" lon="-1.5812700">
    <tag k="amenity" v="waste_basket"/>
    <tag k="collection_times" v="Mo-Fr"/>
    <tag k="condition" v="FAIR"/>
    <tag k="ref:UK:leedscc:bin" v="92"/>
    <tag k="waste_basket:model" v="METAL TWIN"/>
  </node>
  <node id="7429089676" lat="53.7979850" lon="-1.5817850">
    <tag k="amenity" v="waste_basket"/>
    <tag k="collection_times" v="Mo; Th"/>
    <tag k="condition" v="FAIR"/>
    <tag k="ref:UK:leedscc:bin" v="4672"/>
    <tag k="waste_basket:model" v="METAL TWIN"/>
  </node>
  <node id="7429089689" lat="53.7818660" lon="-1.5490200">
    <tag k="amenity" v="waste_basket"/>
    <tag k="collection_times" v="Tu"/>
    <tag k="condition" v="GOOD"/>
    <tag k="ref:UK:leedscc:bin" v="8921"/>
    <tag k="waste_basket:model" v="METAL SQUARE"/>
  </node>
  <node id="7429089715" lat="53.7789740" lon="-1.5577510">
    <tag k="amenity" v="waste_basket"/>
    <tag k="ref:UK:leedscc:bin" v="595"/>
  </node>
  <node id="7429089725" lat="53.7820660" lon="-1.5482540">
    <tag k="amenity" v="waste_basket"/>
    <tag k="collection_times" v="Tu"/>
    <tag k="condition" v="FAIR"/>
    <tag k="ref:UK:leedscc:bin" v="1518"/>
    <tag k="waste_basket:model" v="METAL TWIN"/>
  </node>
  <node id="7429089735" lat="53.7804120" lon="-1.5511410">
    <tag k="amenity" v="waste_basket"/>
    <tag k="collection_times" v="Tu"/>
    <tag k="condition" v="GOOD"/>
    <tag k="ref:UK:leedscc:bin" v="10516"/>
    <tag k="waste_basket:model" v="METAL SQUARE"/>
  </node>
  <node id="7429089742" lat="53.7798280" lon="-1.5526820">
    <tag k="amenity" v="waste_basket"/>
    <tag k="collection_times" v="Tu"/>
    <tag k="condition" v="FAIR"/>
    <tag k="ref:UK:leedscc:bin" v="10527"/>
    <tag k="waste_basket:model" v="PLASTIC ROUND"/>
  </node>
  <node id="7429089769" lat="53.7796680" lon="-1.5525760">
    <tag k="amenity" v="waste_basket"/>
    <tag k="collection_times" v="Tu"/>
    <tag k="condition" v="GOOD"/>
    <tag k="ref:UK:leedscc:bin" v="10528"/>
    <tag k="waste_basket:model" v="METAL SQUARE"/>
  </node>
  <node id="7429089791" lat="53.7801870" lon="-1.5506590">
    <tag k="amenity" v="waste_basket"/>
    <tag k="collection_times" v="Tu"/>
    <tag k="condition" v="GOOD"/>
    <tag k="ref:UK:leedscc:bin" v="10517"/>
    <tag k="waste_basket:model" v="METAL SQUARE"/>
  </node>
  <node id="7429089795" lat="53.7916140" lon="-1.5756560">
    <tag k="amenity" v="waste_basket"/>
    <tag k="collection_times" v="Mo; Th"/>
    <tag k="condition" v="GOOD"/>
    <tag k="ref:UK:leedscc:bin" v="4677"/>
    <tag k="waste_basket:model" v="METAL SQUARE"/>
  </node>
  <node id="7429089821" lat="53.7793790" lon="-1.5519870">
    <tag k="amenity" v="waste_basket"/>
    <tag k="collection_times" v="Tu"/>
    <tag k="condition" v="POOR"/>
    <tag k="ref:UK:leedscc:bin" v="10529"/>
    <tag k="waste_basket:model" v="PLASTIC ROUND"/>
  </node>
  <node id="7429089840" lat="53.7782440" lon="-1.5561800">
    <tag k="amenity" v="waste_basket"/>
    <tag k="ref:UK:leedscc:bin" v="594"/>
  </node>
  <node id="7429089861" lat="53.7816470" lon="-1.5467400">
    <tag k="amenity" v="waste_basket"/>
    <tag k="collection_times" v="Tu"/>
    <tag k="condition" v="GOOD"/>
    <tag k="ref:UK:leedscc:bin" v="1517"/>
    <tag k="waste_basket:model" v="METAL SQUARE"/>
  </node>
  <node id="7429089870" lat="53.7955210" lon="-1.5788650">
    <tag k="amenity" v="waste_basket"/>
    <tag k="collection_times" v="Mo; Th"/>
    <tag k="condition" v="GOOD"/>
    <tag k="ref:UK:leedscc:bin" v="1217"/>
    <tag k="waste_basket:model" v="METAL SQUARE"/>
  </node>
  <node id="7429089875" lat="53.7824230" lon="-1.5455880">
    <tag k="amenity" v="waste_basket"/>
    <tag k="collection_times" v="Tu"/>
    <tag k="condition" v="GOOD"/>
    <tag k="ref:UK:leedscc:bin" v="8918"/>
    <tag k="waste_basket:model" v="METAL SQUARE"/>
  </node>
  <node id="7429089877" lat="53.7785650" lon="-1.5533480">
    <tag k="amenity" v="waste_basket"/>
    <tag k="ref:UK:leedscc:bin" v="206"/>
  </node>
  <node id="7429089887" lat="53.7959680" lon="-1.5801070">
    <tag k="amenity" v="waste_basket"/>
    <tag k="collection_times" v="Mo; Th"/>
    <tag k="condition" v="FAIR"/>
    <tag k="ref:UK:leedscc:bin" v="1216"/>
    <tag k="waste_basket:model" v="METAL TWIN"/>
  </node>
  <node id="7429089890" lat="53.7941830" lon="-1.5755660">
    <tag k="amenity" v="waste_basket"/>
    <tag k="collection_times" v="Mo; Th"/>
    <tag k="condition" v="GOOD"/>
    <tag k="ref:UK:leedscc:bin" v="1166"/>
    <tag k="waste_basket:model" v="METAL SQUARE"/>
  </node>
  <node id="7429089900" lat="53.7917760" lon="-1.5769790">
    <tag k="amenity" v="waste_basket"/>
    <tag k="collection_times" v="Mo; Th"/>
    <tag k="condition" v="GOOD"/>
    <tag k="ref:UK:leedscc:bin" v="4678"/>
    <tag k="waste_basket:model" v="METAL SQUARE"/>
  </node>
  <node id="7429089909" lat="53.7918050" lon="-1.5771240">
    <tag k="amenity" v="waste_basket"/>
    <tag k="collection_times" v="Mo; Th"/>
    <tag k="condition" v="GOOD"/>
    <tag k="ref:UK:leedscc:bin" v="4679"/>
    <tag k="waste_basket:model" v="METAL SQUARE"/>
  </node>
  <node id="7429089915" lat="53.7816360" lon="-1.5457710">
    <tag k="amenity" v="waste_basket"/>
    <tag k="collection_times" v="Tu"/>
    <tag k="condition" v="GOOD"/>
    <tag k="ref:UK:leedscc:bin" v="10514"/>
    <tag k="waste_basket:model" v="METAL SQUARE"/>
  </node>
  <node id="7429089918" lat="53.7918050" lon="-1.5772440">
    <tag k="amenity" v="waste_basket"/>
    <tag k="collection_times" v="Mo; Th"/>
    <tag k="condition" v="GOOD"/>
    <tag k="ref:UK:leedscc:bin" v="4680"/>
    <tag k="waste_basket:model" v="METAL SQUARE"/>
  </node>
  <node id="7429089920" lat="53.7778320" lon="-1.5548590">
    <tag k="amenity" v="waste_basket"/>
    <tag k="ref:UK:leedscc:bin" v="207"/>
  </node>
  <node id="7429089935" lat="53.7776070" lon="-1.5556130">
    <tag k="amenity" v="waste_basket"/>
    <tag k="collection_times" v="Mo-Fr"/>
    <tag k="condition" v="FAIR"/>
    <tag k="ref:UK:leedscc:bin" v="10521"/>
    <tag k="waste_basket:model" v="PLASTIC ROUND"/>
  </node>
  <node id="7429089937" lat="53.7779480" lon="-1.5537630">
    <tag k="amenity" v="waste_basket"/>
    <tag k="collection_times" v="Mo-Fr"/>
    <tag k="condition" v="GOOD"/>
    <tag k="ref:UK:leedscc:bin" v="205"/>
    <tag k="waste_basket:model" v="METAL SQUARE"/>
  </node>
  <node id="7429089938" lat="53.7776690" lon="-1.5551810">
    <tag k="amenity" v="waste_basket"/>
    <tag k="collection_times" v="Mo-Fr"/>
    <tag k="condition" v="FAIR"/>
    <tag k="ref:UK:leedscc:bin" v="10523"/>
    <tag k="waste_basket:model" v="IRON SQUARE"/>
  </node>
  <node id="7429089951" lat="53.7789570" lon="-1.5499990">
    <tag k="amenity" v="waste_basket"/>
    <tag k="collection_times" v="Mo"/>
    <tag k="condition" v="FAIR"/>
    <tag k="ref:UK:leedscc:bin" v="10518"/>
    <tag k="waste_basket:model" v="METAL TWIN"/>
  </node>
  <node id="7429089963" lat="53.7775250" lon="-1.5549940">
    <tag k="amenity" v="waste_basket"/>
    <tag k="collection_times" v="Mo-Fr"/>
    <tag k="condition" v="FAIR"/>
    <tag k="ref:UK:leedscc:bin" v="10524"/>
    <tag k="waste_basket:model" v="IRON SQUARE"/>
  </node>
  <node id="7429089967" lat="53.7774310" lon="-1.5554800">
    <tag k="amenity" v="waste_basket"/>
    <tag k="collection_times" v="Mo-Fr"/>
    <tag k="condition" v="FAIR"/>
    <tag k="ref:UK:leedscc:bin" v="10522"/>
    <tag k="waste_basket:model" v="PLASTIC ROUND"/>
  </node>
  <node id="7429089974" lat="53.7776010" lon="-1.5540510">
    <tag k="amenity" v="waste_basket"/>
    <tag k="collection_times" v="Mo"/>
    <tag k="condition" v="GOOD"/>
    <tag k="ref:UK:leedscc:bin" v="10525"/>
    <tag k="waste_basket:model" v="METAL SQUARE"/>
  </node>
  <node id="7429089989" lat="53.7818100" lon="-1.5445830">
    <tag k="amenity" v="waste_basket"/>
    <tag k="collection_times" v="Mo-Fr"/>
    <tag k="condition" v="POOR"/>
    <tag k="ref:UK:leedscc:bin" v="891"/>
    <tag k="waste_basket:model" v="METAL TWIN"/>
  </node>
  <node id="7429089994" lat="53.7916800" lon="-1.5782090">
    <tag k="amenity" v="waste_basket"/>
    <tag k="collection_times" v="Mo; Th"/>
    <tag k="condition" v="GOOD"/>
    <tag k="ref:UK:leedscc:bin" v="4681"/>
    <tag k="waste_basket:model" v="METAL SQUARE"/>
  </node>
  <node id="7429089997" lat="53.7789780" lon="-1.5713790">
    <tag k="amenity" v="waste_basket"/>
    <tag k="ref:UK:leedscc:bin" v="1913"/>
  </node>
  <node id="7429089998" lat="53.7778600" lon="-1.5681680">
    <tag k="amenity" v="waste_basket"/>
    <tag k="ref:UK:leedscc:bin" v="1515"/>
  </node>
  <node id="7429090012" lat="53.7817480" lon="-1.5443570">
    <tag k="amenity" v="waste_basket"/>
    <tag k="collection_times" v="Mo-Fr"/>
    <tag k="condition" v="POOR"/>
    <tag k="ref:UK:leedscc:bin" v="892"/>
    <tag k="waste_basket:model" v="METAL TWIN"/>
  </node>
  <node id="7429090021" lat="53.7789040" lon="-1.5486530">
    <tag k="amenity" v="waste_basket"/>
    <tag k="collection_times" v="Mo"/>
    <tag k="condition" v="GOOD"/>
    <tag k="ref:UK:leedscc:bin" v="10519"/>
    <tag k="waste_basket:model" v="METAL SQUARE"/>
  </node>
  <node id="7429090035" lat="53.7781960" lon="-1.5703600">
    <tag k="amenity" v="waste_basket"/>
    <tag k="ref:UK:leedscc:bin" v="1912"/>
  </node>
  <node id="7429090046" lat="53.7891880" lon="-1.5798200">
    <tag k="amenity" v="waste_basket"/>
    <tag k="ref:UK:leedscc:bin" v="2394"/>
  </node>
  <node id="7429090058" lat="53.7808490" lon="-1.5446750">
    <tag k="amenity" v="waste_basket"/>
    <tag k="collection_times" v="Mo-Fr"/>
    <tag k="condition" v="GOOD"/>
    <tag k="ref:UK:leedscc:bin" v="889"/>
    <tag k="waste_basket:model" v="METAL SQUARE"/>
  </node>
  <node id="7429090089" lat="53.7775220" lon="-1.5696140">
    <tag k="amenity" v="waste_basket"/>
    <tag k="ref:UK:leedscc:bin" v="3546"/>
  </node>
  <node id="7429090097" lat="53.7768800" lon="-1.5531440">
    <tag k="amenity" v="waste_basket"/>
    <tag k="collection_times" v="Mo"/>
    <tag k="condition" v="GOOD"/>
    <tag k="ref:UK:leedscc:bin" v="10526"/>
    <tag k="waste_basket:model" v="METAL SQUARE"/>
  </node>
  <node id="7429090102" lat="53.7766600" lon="-1.5540880">
    <tag k="amenity" v="waste_basket"/>
    <tag k="collection_times" v="Mo-Fr"/>
    <tag k="condition" v="POOR"/>
    <tag k="ref:UK:leedscc:bin" v="10556"/>
    <tag k="waste_basket:model" v="IRON SQUARE"/>
  </node>
  <node id="7429090106" lat="53.7771820" lon="-1.5688930">
    <tag k="amenity" v="waste_basket"/>
    <tag k="ref:UK:leedscc:bin" v="3540"/>
  </node>
  <node id="7429090112" lat="53.7783440" lon="-1.5480670">
    <tag k="amenity" v="waste_basket"/>
    <tag k="collection_times" v="Mo"/>
    <tag k="condition" v="FAIR"/>
    <tag k="ref:UK:leedscc:bin" v="10520"/>
    <tag k="waste_basket:model" v="METAL SQUARE"/>
  </node>
  <node id="7429090131" lat="53.7924500" lon="-1.5820090">
    <tag k="amenity" v="waste_basket"/>
    <tag k="collection_times" v="Mo; Th"/>
    <tag k="condition" v="FAIR"/>
    <tag k="ref:UK:leedscc:bin" v="4682"/>
    <tag k="waste_basket:model" v="METAL TWIN"/>
  </node>
  <node id="7429090154" lat="53.7762020" lon="-1.5542520">
    <tag k="amenity" v="waste_basket"/>
    <tag k="collection_times" v="Mo-Fr"/>
    <tag k="condition" v="POOR"/>
    <tag k="ref:UK:leedscc:bin" v="3179"/>
    <tag k="waste_basket:model" v="METAL TWIN"/>
  </node>
  <node id="7429090158" lat="53.7766440" lon="-1.5683990">
    <tag k="amenity" v="waste_basket"/>
    <tag k="ref:UK:leedscc:bin" v="3545"/>
  </node>
  <node id="7429090159" lat="53.7807150" lon="-1.5433360">
    <tag k="amenity" v="waste_basket"/>
    <tag k="collection_times" v="Tu"/>
    <tag k="condition" v="GOOD"/>
    <tag k="ref:UK:leedscc:bin" v="888"/>
    <tag k="waste_basket:model" v="METAL SQUARE"/>
  </node>
  <node id="7429090160" lat="53.7773470" lon="-1.5708200">
    <tag k="amenity" v="waste_basket"/>
    <tag k="ref:UK:leedscc:bin" v="1005"/>
  </node>
  <node id="7429090209" lat="53.7889130" lon="-1.5817630">
    <tag k="amenity" v="waste_basket"/>
    <tag k="ref:UK:leedscc:bin" v="2396"/>
  </node>
  <node id="7429090219" lat="53.7789700" lon="-1.5449380">
    <tag k="amenity" v="waste_basket"/>
    <tag k="collection_times" v="Mo-Fr"/>
    <tag k="condition" v="GOOD"/>
    <tag k="ref:UK:leedscc:bin" v="10513"/>
    <tag k="waste_basket:model" v="METAL SQUARE"/>
  </node>
  <node id="7429090251" lat="53.7783970" lon="-1.5453210">
    <tag k="amenity" v="waste_basket"/>
    <tag k="collection_times" v="Mo-Fr"/>
    <tag k="condition" v="GOOD"/>
    <tag k="ref:UK:leedscc:bin" v="10208"/>
    <tag k="waste_basket:model" v="METAL SQUARE"/>
  </node>
  <node id="7429090269" lat="53.7785150" lon="-1.5446390">
    <tag k="amenity" v="waste_basket"/>
    <tag k="collection_times" v="Mo-Fr"/>
    <tag k="condition" v="FAIR"/>
    <tag k="ref:UK:leedscc:bin" v="885"/>
    <tag k="waste_basket:model" v="METAL SQUARE"/>
  </node>
  <node id="7429090288" lat="53.7767690" lon="-1.5724070">
    <tag k="amenity" v="waste_basket"/>
    <tag k="ref:UK:leedscc:bin" v="1004"/>
  </node>
  <node id="7429090290" lat="53.7747660" lon="-1.5629040">
    <tag k="amenity" v="waste_basket"/>
    <tag k="ref:UK:leedscc:bin" v="3309"/>
  </node>
  <node id="7429090313" lat="53.7781230" lon="-1.5445970">
    <tag k="amenity" v="waste_basket"/>
    <tag k="collection_times" v="Mo-Fr"/>
    <tag k="condition" v="GOOD"/>
    <tag k="ref:UK:leedscc:bin" v="10207"/>
    <tag k="waste_basket:model" v="METAL SQUARE"/>
  </node>
  <node id="7429090317" lat="53.7795760" lon="-1.5422260">
    <tag k="amenity" v="waste_basket"/>
    <tag k="collection_times" v="Tu"/>
    <tag k="condition" v="FAIR"/>
    <tag k="ref:UK:leedscc:bin" v="500"/>
    <tag k="waste_basket:model" v="METAL TWIN"/>
  </node>
  <node id="7429090341" lat="53.7749890" lon="-1.5675200">
    <tag k="amenity" v="waste_basket"/>
    <tag k="ref:UK:leedscc:bin" v="3541"/>
  </node>
  <node id="7429090345" lat="53.7778050" lon="-1.5446270">
    <tag k="amenity" v="waste_basket"/>
    <tag k="collection_times" v="Mo-Fr"/>
    <tag k="condition" v="FAIR"/>
    <tag k="ref:UK:leedscc:bin" v="10206"/>
    <tag k="waste_basket:model" v="METAL SQUARE"/>
  </node>
  <node id="7429090349" lat="53.7749350" lon="-1.5675250">
    <tag k="amenity" v="waste_basket"/>
    <tag k="ref:UK:leedscc:bin" v="3544"/>
  </node>
  <node id="7429090355" lat="53.7796440" lon="-1.5415500">
    <tag k="amenity" v="waste_basket"/>
    <tag k="collection_times" v="Tu"/>
    <tag k="condition" v="GOOD"/>
    <tag k="ref:UK:leedscc:bin" v="8923"/>
    <tag k="waste_basket:model" v="METAL SQUARE"/>
  </node>
  <node id="7429090362" lat="53.7763960" lon="-1.5473880">
    <tag k="amenity" v="waste_basket"/>
    <tag k="collection_times" v="Mo"/>
    <tag k="condition" v="FAIR"/>
    <tag k="ref:UK:leedscc:bin" v="10551"/>
    <tag k="waste_basket:model" v="METAL SQUARE"/>
  </node>
  <node id="7429090365" lat="53.7747750" lon="-1.5530030">
    <tag k="amenity" v="waste_basket"/>
    <tag k="collection_times" v="Mo-Fr"/>
    <tag k="condition" v="FAIR"/>
    <tag k="ref:UK:leedscc:bin" v="3180"/>
    <tag k="waste_basket:model" v="IRON SQUARE"/>
  </node>
  <node id="7429090390" lat="53.7748020" lon="-1.5517930">
    <tag k="amenity" v="waste_basket"/>
    <tag k="collection_times" v="Mo"/>
    <tag k="condition" v="FAIR"/>
    <tag k="ref:UK:leedscc:bin" v="10554"/>
    <tag k="waste_basket:model" v="METAL SQUARE"/>
  </node>
  <node id="7429090406" lat="53.7768500" lon="-1.5452030">
    <tag k="amenity" v="waste_basket"/>
    <tag k="collection_times" v="Mo"/>
    <tag k="condition" v="GOOD"/>
    <tag k="ref:UK:leedscc:bin" v="10543"/>
    <tag k="waste_basket:model" v="METAL SQUARE"/>
  </node>
  <node id="7429090412" lat="53.7762650" lon="-1.5741360">
    <tag k="amenity" v="waste_basket"/>
    <tag k="ref:UK:leedscc:bin" v="1003"/>
  </node>
  <node id="7429090413" lat="53.7780460" lon="-1.5427970">
    <tag k="amenity" v="waste_basket"/>
    <tag k="collection_times" v="Tu"/>
    <tag k="condition" v="FAIR"/>
    <tag k="ref:UK:leedscc:bin" v="1021"/>
    <tag k="waste_basket:model" v="METAL TWIN"/>
  </node>
  <node id="7429090433" lat="53.7773440" lon="-1.5436050">
    <tag k="amenity" v="waste_basket"/>
    <tag k="collection_times" v="Tu"/>
    <tag k="condition" v="POOR"/>
    <tag k="ref:UK:leedscc:bin" v="1024"/>
    <tag k="waste_basket:model" v="PLASTIC ROUND"/>
  </node>
  <node id="7429090436" lat="53.7767530" lon="-1.5446660">
    <tag k="amenity" v="waste_basket"/>
    <tag k="collection_times" v="Mo-Fr"/>
    <tag k="condition" v="FAIR"/>
    <tag k="ref:UK:leedscc:bin" v="10542"/>
    <tag k="waste_basket:model" v="METAL SQUARE"/>
  </node>
  <node id="7429090446" lat="53.7764040" lon="-1.5452080">
    <tag k="amenity" v="waste_basket"/>
    <tag k="collection_times" v="Mo-Fr"/>
    <tag k="condition" v="GOOD"/>
    <tag k="ref:UK:leedscc:bin" v="10541"/>
    <tag k="waste_basket:model" v="METAL SQUARE"/>
  </node>
  <node id="7429090448" lat="53.7772580" lon="-1.5434410">
    <tag k="amenity" v="waste_basket"/>
    <tag k="collection_times" v="Tu"/>
    <tag k="condition" v="POOR"/>
    <tag k="ref:UK:leedscc:bin" v="1023"/>
    <tag k="waste_basket:model" v="PLASTIC ROUND"/>
  </node>
  <node id="7429090465" lat="53.7791570" lon="-1.5402280">
    <tag k="amenity" v="waste_basket"/>
    <tag k="collection_times" v="Tu"/>
    <tag k="condition" v="GOOD"/>
    <tag k="ref:UK:leedscc:bin" v="8922"/>
    <tag k="waste_basket:model" v="METAL SQUARE"/>
  </node>
  <node id="7429090493" lat="53.7759030" lon="-1.5450570">
    <tag k="amenity" v="waste_basket"/>
    <tag k="collection_times" v="Mo-Fr"/>
    <tag k="condition" v="FAIR"/>
    <tag k="ref:UK:leedscc:bin" v="882"/>
    <tag k="waste_basket:model" v="METAL CAST IRON"/>
  </node>
  <node id="7429090494" lat="53.7751350" lon="-1.5469710">
    <tag k="amenity" v="waste_basket"/>
    <tag k="collection_times" v="Mo"/>
    <tag k="condition" v="FAIR"/>
    <tag k="ref:UK:leedscc:bin" v="10550"/>
    <tag k="waste_basket:model" v="METAL SQUARE"/>
  </node>
  <node id="7429090506" lat="53.7756490" lon="-1.5454290">
    <tag k="amenity" v="waste_basket"/>
    <tag k="collection_times" v="Mo-Fr"/>
    <tag k="condition" v="GOOD"/>
    <tag k="ref:UK:leedscc:bin" v="881"/>
    <tag k="waste_basket:model" v="METAL SQUARE"/>
  </node>
  <node id="7429090507" lat="53.7763190" lon="-1.5439160">
    <tag k="amenity" v="waste_basket"/>
    <tag k="collection_times" v="Fr"/>
    <tag k="condition" v="GOOD"/>
    <tag k="ref:UK:leedscc:bin" v="10537"/>
    <tag k="waste_basket:model" v="METAL SQUARE"/>
  </node>
  <node id="7429090524" lat="53.7766180" lon="-1.5428900">
    <tag k="amenity" v="waste_basket"/>
    <tag k="collection_times" v="Tu"/>
    <tag k="condition" v="GOOD"/>
    <tag k="ref:UK:leedscc:bin" v="10538"/>
    <tag k="waste_basket:model" v="METAL SQUARE"/>
  </node>
  <node id="7429090525" lat="53.7756500" lon="-1.5755790">
    <tag k="amenity" v="waste_basket"/>
    <tag k="ref:UK:leedscc:bin" v="1002"/>
  </node>
  <node id="7429090533" lat="53.7755420" lon="-1.5450560">
    <tag k="amenity" v="waste_basket"/>
    <tag k="collection_times" v="Mo-Fr"/>
    <tag k="condition" v="GOOD"/>
    <tag k="ref:UK:leedscc:bin" v="10539"/>
    <tag k="waste_basket:model" v="CAST IRON SQUARE"/>
  </node>
  <node id="7429090562" lat="53.7752400" lon="-1.5451930">
    <tag k="amenity" v="waste_basket"/>
    <tag k="collection_times" v="Mo-Fr"/>
    <tag k="condition" v="GOOD"/>
    <tag k="ref:UK:leedscc:bin" v="10540"/>
    <tag k="waste_basket:model" v="CAST IRON SQUARE"/>
  </node>
  <node id="7429090587" lat="53.7746910" lon="-1.5460350">
    <tag k="amenity" v="waste_basket"/>
    <tag k="collection_times" v="Mo"/>
    <tag k="condition" v="FAIR"/>
    <tag k="ref:UK:leedscc:bin" v="3377"/>
    <tag k="waste_basket:model" v="METAL TWIN"/>
  </node>
  <node id="7429090635" lat="53.7782610" lon="-1.5382890">
    <tag k="amenity" v="waste_basket"/>
    <tag k="collection_times" v="Tu"/>
    <tag k="condition" v="GOOD"/>
    <tag k="ref:UK:leedscc:bin" v="8924"/>
    <tag k="waste_basket:model" v="METAL SQUARE"/>
  </node>
  <node id="7429090642" lat="53.7759440" lon="-1.5417670">
    <tag k="amenity" v="waste_basket"/>
    <tag k="collection_times" v="Fr"/>
    <tag k="condition" v="FAIR"/>
    <tag k="ref:UK:leedscc:bin" v="10536"/>
    <tag k="waste_basket:model" v="METAL SQUARE"/>
  </node>
  <node id="7429090662" lat="53.7761430" lon="-1.5410520">
    <tag k="amenity" v="waste_basket"/>
    <tag k="collection_times" v="Fr"/>
    <tag k="condition" v="FAIR"/>
    <tag k="ref:UK:leedscc:bin" v="3382"/>
    <tag k="waste_basket:model" v="METAL SQUARE"/>
  </node>
  <node id="7429090709" lat="53.7762110" lon="-1.5393610">
    <tag k="amenity" v="waste_basket"/>
    <tag k="collection_times" v="Tu"/>
    <tag k="condition" v="GOOD"/>
    <tag k="ref:UK:leedscc:bin" v="8925"/>
    <tag k="waste_basket:model" v="METAL SQUARE"/>
  </node>

</osm>
