{
"type": "FeatureCollection",
"lastupdate": "2020-07-27T00:28:31Z",
"features": [
	{"geometry":{"coordinates":[-1.776604,53.704615],"type":"Point"},"properties":{"amenity":"recycling","osm_id":"368341664","tag":{"recycling:glass":"yes","recycling:paper":"yes"}},"type":"Feature"},
	{"geometry":{"coordinates":[-1.777575,53.700803],"type":"Point"},"properties":{"amenity":"recycling","osm_id":"376985734","tag":{"recycling:clothes":"yes","recycling:glass":"yes","recycling:shoes":"yes"}},"type":"Feature"},
	{"geometry":{"coordinates":[-1.779145,53.702432],"type":"Point"},"properties":{"amenity":"waste_basket","osm_id":"1026886589"},"type":"Feature"},
	{"geometry":{"coordinates":[-1.779285,53.701507],"type":"Point"},"properties":{"amenity":"waste_basket","osm_id":"1026946910"},"type":"Feature"},
	{"geometry":{"coordinates":[-1.77926,53.701606],"type":"Point"},"properties":{"amenity":"waste_basket","osm_id":"1026947182"},"type":"Feature"},
	{"geometry":{"coordinates":[-1.78202,53.701455],"type":"Point"},"properties":{"amenity":"waste_basket","osm_id":"1305117995"},"type":"Feature"},
	{"geometry":{"coordinates":[-1.812821,53.725821],"type":"Point"},"properties":{"amenity":"recycling","osm_id":"2255618042","tag":{"recycling:clothes":"yes"}},"type":"Feature"}
]
}
