{
"type": "FeatureCollection",
"lastupdate": "2020-07-25T00:42:33Z",
"features": [
	{"geometry":{"coordinates":[0.235524,51.559017],"type":"Point"},"properties":{"amenity":"waste_basket","osm_id":"3104461627"},"type":"Feature"},
	{"geometry":{"coordinates":[0.243178,51.563249],"type":"Point"},"properties":{"amenity":"waste_basket","osm_id":"3104472537"},"type":"Feature"},
	{"geometry":{"coordinates":[0.207956,51.532429],"type":"Point"},"properties":{"amenity":"waste_basket","osm_id":"3127482125"},"type":"Feature"},
	{"geometry":{"coordinates":[0.21392,51.53613],"type":"Point"},"properties":{"amenity":"waste_basket","osm_id":"3127482127"},"type":"Feature"},
	{"geometry":{"coordinates":[0.214287,51.537659],"type":"Point"},"properties":{"amenity":"waste_basket","osm_id":"3127482140"},"type":"Feature"},
	{"geometry":{"coordinates":[0.208862,51.543762],"type":"Point"},"properties":{"amenity":"recycling","name":"Bottle Bank","osm_id":"3517308177","tag":{"recycling:glass":"yes","recycling:paper":"yes"}},"type":"Feature"},
	{"geometry":{"coordinates":[0.198508,51.551376],"type":"Point"},"properties":{"amenity":"recycling","name":"Bottle Bank","osm_id":"3565590113"},"type":"Feature"},
	{"geometry":{"coordinates":[0.176407,51.552978],"type":"Point"},"properties":{"amenity":"waste_basket","osm_id":"4393407424"},"type":"Feature"},
	{"geometry":{"coordinates":[0.176396,51.552958],"type":"Point"},"properties":{"amenity":"waste_basket","osm_id":"4393407426"},"type":"Feature"},
	{"geometry":{"coordinates":[0.1764,51.552967],"type":"Point"},"properties":{"amenity":"waste_basket","osm_id":"4393407429"},"type":"Feature"},
	{"geometry":{"coordinates":[0.176413,51.552991],"type":"Point"},"properties":{"amenity":"waste_basket","osm_id":"4393407430"},"type":"Feature"},
	{"geometry":{"coordinates":[0.176467,51.5533],"type":"Point"},"properties":{"amenity":"waste_basket","osm_id":"4393407437"},"type":"Feature"},
	{"geometry":{"coordinates":[0.176422,51.553013],"type":"Point"},"properties":{"amenity":"waste_basket","osm_id":"4393407438"},"type":"Feature"},
	{"geometry":{"coordinates":[0.176416,51.553002],"type":"Point"},"properties":{"amenity":"waste_basket","osm_id":"4393407442"},"type":"Feature"},
	{"geometry":{"coordinates":[0.248877,51.557103],"type":"Point"},"properties":{"amenity":"recycling","osm_id":"5077080323","tag":{"recycling_type":"container"}},"type":"Feature"},
	{"geometry":{"coordinates":[0.183926,51.515302],"type":"Point"},"properties":{"amenity":"recycling","name":"scrap yard","osm_id":"5193838831"},"type":"Feature"}
]
}
