{
"type": "FeatureCollection",
"lastupdate": "2020-07-28T01:29:12Z",
"features": [
	{"geometry":{"coordinates":[0.230219,51.306154],"type":"Point"},"properties":{"amenity":"recycling","osm_id":"281355359"},"type":"Feature"},
	{"geometry":{"coordinates":[0.177987,51.332352],"type":"Point"},"properties":{"amenity":"recycling","osm_id":"390289624","tag":{"recycling:clothes":"yes"}},"type":"Feature"},
	{"geometry":{"coordinates":[0.178021,51.332341],"type":"Point"},"properties":{"amenity":"recycling","osm_id":"390289625","tag":{"recycling:paper":"yes"}},"type":"Feature"},
	{"geometry":{"coordinates":[0.178044,51.332359],"type":"Point"},"properties":{"amenity":"recycling","osm_id":"390289626","tag":{"recycling:glass":"yes"}},"type":"Feature"},
	{"geometry":{"coordinates":[0.220156,51.290398],"type":"Point"},"properties":{"amenity":"waste_basket","osm_id":"412268046"},"type":"Feature"},
	{"geometry":{"coordinates":[0.193928,51.297193],"type":"Point"},"properties":{"amenity":"recycling","osm_id":"412815838","tag":{"recycling:cardboard":"yes","recycling:clothes":"yes","recycling:glass":"yes","recycling:glass_bottles":"yes","recycling:newspaper":"yes","recycling:paper":"yes","recycling:shoes":"yes"}},"type":"Feature"},
	{"geometry":{"coordinates":[0.188392,51.313201],"type":"Point"},"properties":{"amenity":"recycling","osm_id":"2338202458","tag":{"recycling:clothes":"yes","recycling:glass":"yes"}},"type":"Feature"},
	{"geometry":{"coordinates":[0.191859,51.305332],"type":"Point"},"properties":{"amenity":"waste_basket","osm_id":"4853657257"},"type":"Feature"},
	{"geometry":{"coordinates":[0.191461,51.30546],"type":"Point"},"properties":{"amenity":"waste_basket","osm_id":"4853657258"},"type":"Feature"}
]
}
