{
"type": "FeatureCollection",
"lastupdate": "2020-07-27T00:28:31Z",
"features": [
	{"geometry":{"coordinates":[-5.293668,50.219789],"type":"Point"},"properties":{"amenity":"waste_basket","osm_id":"5322235509"},"type":"Feature"},
	{"geometry":{"coordinates":[-5.300387,50.213826],"type":"Point"},"properties":{"amenity":"waste_basket","osm_id":"5478920866"},"type":"Feature"},
	{"geometry":{"coordinates":[-5.301825,50.213575],"type":"Point"},"properties":{"amenity":"waste_basket","osm_id":"5478943869"},"type":"Feature"},
	{"geometry":{"coordinates":[-5.28362,50.214332],"type":"Point"},"properties":{"amenity":"waste_basket","osm_id":"6414627543","tag":{"bin":"yes","waste":"trash;dog_excrement"}},"type":"Feature"},
	{"geometry":{"coordinates":[-5.285733,50.218926],"type":"Point"},"properties":{"amenity":"waste_basket","osm_id":"6414627544","tag":{"bin":"yes","waste":"trash;dog_excrement"}},"type":"Feature"},
	{"geometry":{"coordinates":[-5.279574,50.221462],"type":"Point"},"properties":{"amenity":"waste_basket","osm_id":"6414627546","tag":{"bin":"yes","waste":"trash;dog_excrement"}},"type":"Feature"},
	{"geometry":{"coordinates":[-5.292957,50.193837],"type":"Point"},"properties":{"amenity":"waste_basket","osm_id":"6657580758","tag":{"waste":"trash"}},"type":"Feature"},
	{"geometry":{"coordinates":[-5.282014,50.216505],"type":"Point"},"properties":{"amenity":"waste_basket","osm_id":"6927746367","tag":{"waste":"dog_excrement"}},"type":"Feature"},
	{"geometry":{"coordinates":[-5.289065,50.224308],"type":"Point"},"properties":{"amenity":"waste_basket","osm_id":"7009010138"},"type":"Feature"},
	{"geometry":{"coordinates":[-5.310655,50.208488],"type":"Point"},"properties":{"amenity":"waste_basket","osm_id":"7093454034"},"type":"Feature"},
	{"geometry":{"coordinates":[-5.285015,50.215261],"type":"Point"},"properties":{"amenity":"waste_basket","osm_id":"7206813748"},"type":"Feature"},
	{"geometry":{"coordinates":[-5.301265,50.213702],"type":"Point"},"properties":{"amenity":"waste_basket","osm_id":"7526846970"},"type":"Feature"},
	{"geometry":{"coordinates":[-5.294743,50.212733],"type":"Point"},"properties":{"amenity":"waste_basket","osm_id":"7632790205","tag":{"description":"Post","survey:date":"2020-06-18","waste":"trash"}},"type":"Feature"},
	{"geometry":{"coordinates":[-5.307088,50.211006],"type":"Point"},"properties":{"amenity":"waste_basket","osm_id":"7632790206","tag":{"description":"On lamp post","survey:date":"2020-06-18","waste":"trash"}},"type":"Feature"},
	{"geometry":{"coordinates":[-5.293069,50.214694],"type":"Point"},"properties":{"amenity":"waste_basket","osm_id":"7632790210","tag":{"description":"On lamp post","survey:date":"2020-06-18","waste":"trash"}},"type":"Feature"},
	{"geometry":{"coordinates":[-5.304883,50.207993],"type":"Point"},"properties":{"amenity":"waste_basket","osm_id":"7632790211","tag":{"description":"On sign post","survey:date":"2020-06-18","waste":"trash"}},"type":"Feature"},
	{"geometry":{"coordinates":[-5.29335,50.214637],"type":"Point"},"properties":{"amenity":"waste_basket","osm_id":"7632790213","tag":{"description":"Free standing","survey:date":"2020-06-18","waste":"trash"}},"type":"Feature"},
	{"geometry":{"coordinates":[-5.302882,50.218111],"type":"Point"},"properties":{"amenity":"waste_basket","osm_id":"7632790214","tag":{"description":"On sign post","survey:date":"2020-06-18","waste":"trash"}},"type":"Feature"},
	{"geometry":{"coordinates":[-5.297901,50.211538],"type":"Point"},"properties":{"amenity":"waste_basket","osm_id":"7632790218","tag":{"description":"Free standing","survey:date":"2020-06-18","waste":"trash"}},"type":"Feature"},
	{"geometry":{"coordinates":[-5.304553,50.209687],"type":"Point"},"properties":{"amenity":"waste_basket","osm_id":"7632790220","tag":{"description":"On lamp post","survey:date":"2020-06-18","waste":"trash"}},"type":"Feature"},
	{"geometry":{"coordinates":[-5.308924,50.215738],"type":"Point"},"properties":{"amenity":"waste_basket","osm_id":"7632790221","tag":{"description":"On sign post","survey:date":"2020-06-18","waste":"trash"}},"type":"Feature"},
	{"geometry":{"coordinates":[-5.300287,50.212461],"type":"Point"},"properties":{"amenity":"waste_basket","osm_id":"7635427867","tag":{"waste":"trash"}},"type":"Feature"},
	{"geometry":{"coordinates":[-5.277502,50.200086],"type":"Point"},"properties":{"amenity":"waste_basket","osm_id":"7684845928"},"type":"Feature"},
	{"geometry":{"coordinates":[-5.278701,50.199669],"type":"Point"},"properties":{"amenity":"waste_basket","osm_id":"7684845929"},"type":"Feature"},
	{"geometry":{"coordinates":[-5.278182,50.19715],"type":"Point"},"properties":{"amenity":"waste_basket","osm_id":"7684845930","tag":{"description":"At bus stop","survey:date":"2020-06-30"}},"type":"Feature"},
	{"geometry":{"coordinates":[-5.277026,50.195665],"type":"Point"},"properties":{"amenity":"waste_basket","osm_id":"7684845932","tag":{"description":"On school sign"}},"type":"Feature"},
	{"geometry":{"coordinates":[-5.277175,50.195846],"type":"Point"},"properties":{"amenity":"waste_basket","osm_id":"7684845933","tag":{"description":"Outside the shop"}},"type":"Feature"},
	{"geometry":{"coordinates":[-5.290585,50.203778],"type":"Point"},"properties":{"amenity":"waste_basket","osm_id":"7705254488","tag":{"survey:date":"2020-07-11"}},"type":"Feature"},
	{"geometry":{"coordinates":[-5.297722,50.207723],"type":"Point"},"properties":{"amenity":"waste_basket","osm_id":"7705254537","tag":{"description":"Attached to school sign close to the wall","survey:date":"2020-07-11"}},"type":"Feature"},
	{"geometry":{"coordinates":[-5.297584,50.209225],"type":"Point"},"properties":{"amenity":"waste_basket","osm_id":"7705254540","tag":{"description":"Attached to school sign","survey:date":"2020-07-11"}},"type":"Feature"}
]
}
