{
"type": "FeatureCollection",
"lastupdate": "2020-07-27T00:28:31Z",
"features": [
	{"geometry":{"coordinates":[-5.541723,50.111937],"type":"Point"},"properties":{"amenity":"recycling","osm_id":"682351845","tag":{"location":"overground","recycling_type":"container"}},"type":"Feature"},
	{"geometry":{"coordinates":[-5.542425,50.111615],"type":"Point"},"properties":{"amenity":"recycling","osm_id":"682369534","tag":{"location":"overground","recycling_type":"container"}},"type":"Feature"},
	{"geometry":{"coordinates":[-5.568833,50.065653],"type":"Point"},"properties":{"amenity":"recycling","osm_id":"683892865"},"type":"Feature"},
	{"geometry":{"coordinates":[-5.623084,50.074504],"type":"Point"},"properties":{"amenity":"recycling","osm_id":"683907490"},"type":"Feature"},
	{"geometry":{"coordinates":[-5.617021,50.075765],"type":"Point"},"properties":{"amenity":"recycling","osm_id":"2181419700","tag":{"access":"private","recycling:glass":"yes","recycling_type":"container"}},"type":"Feature"},
	{"geometry":{"coordinates":[-5.54968,50.103287],"type":"Point"},"properties":{"amenity":"waste_basket","osm_id":"2399838190"},"type":"Feature"},
	{"geometry":{"coordinates":[-5.538241,50.11939],"type":"Point"},"properties":{"amenity":"waste_basket","osm_id":"6875225912"},"type":"Feature"},
	{"geometry":{"coordinates":[-5.608987,50.107917],"type":"Point"},"properties":{"amenity":"waste_basket","osm_id":"7729003036"},"type":"Feature"},
	{"geometry":{"coordinates":[-5.609293,50.107833],"type":"Point"},"properties":{"amenity":"waste_basket","osm_id":"7729024468"},"type":"Feature"}
]
}
