{
"type": "FeatureCollection",
"lastupdate": "2020-07-25T00:42:33Z",
"features": [
	{"geometry":{"coordinates":[-1.910422,50.739537],"type":"Point"},"properties":{"amenity":"recycling","osm_id":"1484865727","tag":{"recycling_type":"container"}},"type":"Feature"},
	{"geometry":{"coordinates":[-1.901613,50.765657],"type":"Point"},"properties":{"amenity":"waste_basket","osm_id":"1517703153"},"type":"Feature"},
	{"geometry":{"coordinates":[-1.892976,50.767175],"type":"Point"},"properties":{"amenity":"waste_basket","osm_id":"1517703156"},"type":"Feature"},
	{"geometry":{"coordinates":[-1.895798,50.767468],"type":"Point"},"properties":{"amenity":"recycling","osm_id":"1517703194","tag":{"recycling:glass":"yes","recycling_type":"container"}},"type":"Feature"},
	{"geometry":{"coordinates":[-1.88698,50.767572],"type":"Point"},"properties":{"amenity":"waste_basket","osm_id":"1517703215"},"type":"Feature"},
	{"geometry":{"coordinates":[-1.886151,50.767779],"type":"Point"},"properties":{"amenity":"waste_basket","osm_id":"1517703249"},"type":"Feature"},
	{"geometry":{"coordinates":[-1.901862,50.76781],"type":"Point"},"properties":{"amenity":"waste_basket","osm_id":"1517703253"},"type":"Feature"},
	{"geometry":{"coordinates":[-1.901589,50.768091],"type":"Point"},"properties":{"amenity":"waste_basket","osm_id":"1517703277"},"type":"Feature"},
	{"geometry":{"coordinates":[-1.899472,50.768467],"type":"Point"},"properties":{"amenity":"waste_basket","osm_id":"1517703301"},"type":"Feature"},
	{"geometry":{"coordinates":[-1.900994,50.769033],"type":"Point"},"properties":{"amenity":"waste_basket","osm_id":"1517703324"},"type":"Feature"},
	{"geometry":{"coordinates":[-1.879577,50.739125],"type":"Point"},"properties":{"amenity":"waste_basket","osm_id":"1667321422"},"type":"Feature"},
	{"geometry":{"coordinates":[-1.879552,50.739211],"type":"Point"},"properties":{"amenity":"waste_basket","osm_id":"1669104937"},"type":"Feature"},
	{"geometry":{"coordinates":[-1.899908,50.789693],"type":"Point"},"properties":{"amenity":"waste_basket","osm_id":"7555999595","tag":{"mapillary":"Doh8TBRsukpwSm9dfLDkjA","waste":"dog_excrement"}},"type":"Feature"},
	{"geometry":{"coordinates":[-1.896136,50.788853],"type":"Point"},"properties":{"amenity":"waste_basket","osm_id":"7563646709","tag":{"mapillary":"I7Lq6gPYwBlYSifo3JBACA","waste":"dog_excrement"}},"type":"Feature"},
	{"geometry":{"coordinates":[-1.893074,50.786341],"type":"Point"},"properties":{"amenity":"waste_basket","osm_id":"7563646715","tag":{"mapillary":"dvkgh_uyZCNNEmjZoeJp0g","waste":"dog_excrement"}},"type":"Feature"}
]
}
