{
"type": "FeatureCollection",
"lastupdate": "2020-07-31T01:06:47Z",
"features": [
	{"geometry":{"coordinates":[0.298073,50.782572],"type":"Point"},"properties":{"amenity":"recycling","osm_id":"268946053"},"type":"Feature"},
	{"geometry":{"coordinates":[0.279071,50.770646],"type":"Point"},"properties":{"amenity":"recycling","osm_id":"531828807"},"type":"Feature"},
	{"geometry":{"coordinates":[0.292458,50.767032],"type":"Point"},"properties":{"amenity":"recycling","osm_id":"5534638967","tag":{"recycling:cans":"yes","recycling_type":"container"}},"type":"Feature"},
	{"geometry":{"coordinates":[0.29245,50.767026],"type":"Point"},"properties":{"amenity":"recycling","osm_id":"5534638968","tag":{"recycling:plastic_bottles":"yes","recycling_type":"container"}},"type":"Feature"},
	{"geometry":{"coordinates":[0.292441,50.767019],"type":"Point"},"properties":{"amenity":"recycling","osm_id":"5534638969","tag":{"recycling:magazines":"yes","recycling:newspaper":"yes","recycling_type":"container"}},"type":"Feature"},
	{"geometry":{"coordinates":[0.290979,50.768226],"type":"Point"},"properties":{"amenity":"waste_basket","osm_id":"5537626841"},"type":"Feature"},
	{"geometry":{"coordinates":[0.290858,50.768116],"type":"Point"},"properties":{"amenity":"waste_basket","osm_id":"5537626842"},"type":"Feature"},
	{"geometry":{"coordinates":[0.289877,50.767836],"type":"Point"},"properties":{"amenity":"waste_basket","osm_id":"5538566082"},"type":"Feature"},
	{"geometry":{"coordinates":[0.289255,50.767649],"type":"Point"},"properties":{"amenity":"waste_basket","osm_id":"5541353554"},"type":"Feature"},
	{"geometry":{"coordinates":[0.289006,50.768893],"type":"Point"},"properties":{"amenity":"waste_basket","osm_id":"5541479709"},"type":"Feature"},
	{"geometry":{"coordinates":[0.288469,50.769198],"type":"Point"},"properties":{"amenity":"waste_basket","osm_id":"5546400573"},"type":"Feature"},
	{"geometry":{"coordinates":[0.287589,50.768676],"type":"Point"},"properties":{"amenity":"waste_basket","osm_id":"5546400620"},"type":"Feature"},
	{"geometry":{"coordinates":[0.284577,50.768449],"type":"Point"},"properties":{"amenity":"waste_basket","osm_id":"5551506433"},"type":"Feature"},
	{"geometry":{"coordinates":[0.284976,50.768408],"type":"Point"},"properties":{"amenity":"waste_basket","osm_id":"5551506460"},"type":"Feature"},
	{"geometry":{"coordinates":[0.285779,50.768175],"type":"Point"},"properties":{"amenity":"waste_basket","osm_id":"5551506473"},"type":"Feature"},
	{"geometry":{"coordinates":[0.284849,50.766926],"type":"Point"},"properties":{"amenity":"waste_basket","osm_id":"5554339676"},"type":"Feature"}
]
}
