{
"type": "FeatureCollection",
"lastupdate": "2020-07-25T00:42:33Z",
"features": [
	{"geometry":{"coordinates":[-1.48182,54.999436],"type":"Point"},"properties":{"amenity":"recycling","name":"North Tyneside Household Waste Recycling Centre","osm_id":"317055608","tag":{"addr:city":"North Shields","addr:postcode":"NE29 7SH","addr:street":"Wallsend Road","opening_hours":"Mo-Su 07:30-20:00","operator":"SUEZ","recycling:batteries":"yes","recycling:bicycles":"yes","recycling:books":"yes","recycling:cans":"yes","recycling:car_batteries":"yes","recycling:cardboard":"yes","recycling:cds":"yes","recycling:clothes":"yes","recycling:electrical_items":"yes","recycling:engine_oil":"yes","recycling:fluorescent_tubes":"yes","recycling:furniture":"yes","recycling:garden_waste":"yes","recycling:gas_bottles":"yes","recycling:glass":"yes","recycling:glass_bottles":"yes","recycling:green_waste":"yes","recycling:mobile_phones":"yes","recycling:paper":"yes","recycling:pet":"yes","recycling:plasterboard":"yes","recycling:plastic":"yes","recycling:plastic_bottles":"yes","recycling:rubble":"yes","recycling:scrap_metal":"yes","recycling:sheet_metal":"yes","recycling:small_appliances":"yes","recycling:small_electrical_appliances":"yes","recycling:tv_monitor":"yes","recycling:tyres":"yes","recycling:waste":"no","recycling:white_goods":"yes","recycling:wood":"yes","recycling_type":"centre"}},"type":"Feature"},
	{"geometry":{"coordinates":[-1.430798,54.990573],"type":"Point"},"properties":{"amenity":"recycling","osm_id":"372594847","tag":{"recycling:clothes":"yes","recycling:paper":"yes"}},"type":"Feature"},
	{"geometry":{"coordinates":[-1.444052,55.009678],"type":"Point"},"properties":{"amenity":"recycling","osm_id":"3513463734","tag":{"recycling:clothes":"yes","recycling:glass":"yes","recycling:paper":"yes","recycling_type":"container"}},"type":"Feature"},
	{"geometry":{"coordinates":[-1.430221,54.999188],"type":"Point"},"properties":{"amenity":"waste_basket","osm_id":"3709451332"},"type":"Feature"},
	{"geometry":{"coordinates":[-1.413704,54.9783],"type":"Point"},"properties":{"amenity":"waste_basket","osm_id":"4298026070"},"type":"Feature"},
	{"geometry":{"coordinates":[-1.410765,54.985675],"type":"Point"},"properties":{"amenity":"waste_basket","osm_id":"4319672843"},"type":"Feature"},
	{"geometry":{"coordinates":[-1.437213,54.989423],"type":"Point"},"properties":{"amenity":"waste_basket","osm_id":"4340856503"},"type":"Feature"},
	{"geometry":{"coordinates":[-1.437564,54.98909],"type":"Point"},"properties":{"amenity":"waste_basket","osm_id":"4340875273"},"type":"Feature"},
	{"geometry":{"coordinates":[-1.433826,54.987647],"type":"Point"},"properties":{"amenity":"waste_basket","osm_id":"4341075811"},"type":"Feature"},
	{"geometry":{"coordinates":[-1.430678,54.982873],"type":"Point"},"properties":{"amenity":"waste_basket","osm_id":"4341134836"},"type":"Feature"},
	{"geometry":{"coordinates":[-1.430444,54.983871],"type":"Point"},"properties":{"amenity":"waste_basket","osm_id":"4341134849"},"type":"Feature"},
	{"geometry":{"coordinates":[-1.426529,54.990336],"type":"Point"},"properties":{"amenity":"waste_basket","osm_id":"4342836363"},"type":"Feature"},
	{"geometry":{"coordinates":[-1.440385,54.990221],"type":"Point"},"properties":{"amenity":"recycling","osm_id":"4344123482"},"type":"Feature"},
	{"geometry":{"coordinates":[-1.412435,54.997832],"type":"Point"},"properties":{"amenity":"waste_basket","osm_id":"4345615596"},"type":"Feature"},
	{"geometry":{"coordinates":[-1.412197,54.997661],"type":"Point"},"properties":{"amenity":"waste_basket","osm_id":"4345615597"},"type":"Feature"},
	{"geometry":{"coordinates":[-1.414645,54.999226],"type":"Point"},"properties":{"amenity":"waste_basket","osm_id":"4345621052"},"type":"Feature"},
	{"geometry":{"coordinates":[-1.415693,54.9999],"type":"Point"},"properties":{"amenity":"waste_basket","osm_id":"4345621053"},"type":"Feature"},
	{"geometry":{"coordinates":[-1.428735,54.999448],"type":"Point"},"properties":{"amenity":"waste_basket","osm_id":"4345920616"},"type":"Feature"},
	{"geometry":{"coordinates":[-1.433959,54.996912],"type":"Point"},"properties":{"amenity":"waste_basket","osm_id":"4346953318"},"type":"Feature"},
	{"geometry":{"coordinates":[-1.434281,54.997155],"type":"Point"},"properties":{"amenity":"waste_basket","osm_id":"4346953327"},"type":"Feature"},
	{"geometry":{"coordinates":[-1.434354,54.997242],"type":"Point"},"properties":{"amenity":"waste_basket","osm_id":"4346953328"},"type":"Feature"},
	{"geometry":{"coordinates":[-1.436567,54.997046],"type":"Point"},"properties":{"amenity":"waste_basket","osm_id":"4346987714"},"type":"Feature"},
	{"geometry":{"coordinates":[-1.436714,54.997342],"type":"Point"},"properties":{"amenity":"waste_basket","osm_id":"4347016502"},"type":"Feature"},
	{"geometry":{"coordinates":[-1.432818,54.999135],"type":"Point"},"properties":{"amenity":"waste_basket","osm_id":"4347158442"},"type":"Feature"},
	{"geometry":{"coordinates":[-1.433332,54.999837],"type":"Point"},"properties":{"amenity":"waste_basket","osm_id":"4347190450"},"type":"Feature"},
	{"geometry":{"coordinates":[-1.433191,54.999683],"type":"Point"},"properties":{"amenity":"waste_basket","osm_id":"4347190470"},"type":"Feature"},
	{"geometry":{"coordinates":[-1.433077,54.999574],"type":"Point"},"properties":{"amenity":"waste_basket","osm_id":"4347190471"},"type":"Feature"},
	{"geometry":{"coordinates":[-1.430675,54.997786],"type":"Point"},"properties":{"amenity":"waste_basket","osm_id":"4347322215"},"type":"Feature"},
	{"geometry":{"coordinates":[-1.430785,54.997756],"type":"Point"},"properties":{"amenity":"waste_basket","osm_id":"4347322216"},"type":"Feature"},
	{"geometry":{"coordinates":[-1.43097,54.997368],"type":"Point"},"properties":{"amenity":"waste_basket","osm_id":"4347334181"},"type":"Feature"},
	{"geometry":{"coordinates":[-1.430851,54.99716],"type":"Point"},"properties":{"amenity":"waste_basket","osm_id":"4347340099"},"type":"Feature"},
	{"geometry":{"coordinates":[-1.4305,54.996534],"type":"Point"},"properties":{"amenity":"waste_basket","osm_id":"4347374054"},"type":"Feature"},
	{"geometry":{"coordinates":[-1.430356,54.995916],"type":"Point"},"properties":{"amenity":"waste_basket","osm_id":"4350737784"},"type":"Feature"},
	{"geometry":{"coordinates":[-1.430828,54.996785],"type":"Point"},"properties":{"amenity":"waste_basket","osm_id":"4350772099"},"type":"Feature"},
	{"geometry":{"coordinates":[-1.432041,54.996882],"type":"Point"},"properties":{"amenity":"waste_basket","osm_id":"4350779382"},"type":"Feature"},
	{"geometry":{"coordinates":[-1.431979,54.996799],"type":"Point"},"properties":{"amenity":"waste_basket","osm_id":"4350779383"},"type":"Feature"},
	{"geometry":{"coordinates":[-1.43138,54.997751],"type":"Point"},"properties":{"amenity":"waste_basket","osm_id":"4350792501"},"type":"Feature"},
	{"geometry":{"coordinates":[-1.432938,54.997865],"type":"Point"},"properties":{"amenity":"waste_basket","osm_id":"4350792505"},"type":"Feature"},
	{"geometry":{"coordinates":[-1.432503,54.997961],"type":"Point"},"properties":{"amenity":"waste_basket","osm_id":"4350792506"},"type":"Feature"},
	{"geometry":{"coordinates":[-1.431941,54.998108],"type":"Point"},"properties":{"amenity":"waste_basket","osm_id":"4350796582"},"type":"Feature"},
	{"geometry":{"coordinates":[-1.485396,54.984526],"type":"Point"},"properties":{"amenity":"waste_basket","osm_id":"4351090767"},"type":"Feature"},
	{"geometry":{"coordinates":[-1.485435,54.984363],"type":"Point"},"properties":{"amenity":"waste_basket","osm_id":"4351090768"},"type":"Feature"},
	{"geometry":{"coordinates":[-1.490899,54.982434],"type":"Point"},"properties":{"amenity":"waste_basket","osm_id":"4351142539"},"type":"Feature"},
	{"geometry":{"coordinates":[-1.489766,54.981446],"type":"Point"},"properties":{"amenity":"waste_basket","osm_id":"4351154990"},"type":"Feature"},
	{"geometry":{"coordinates":[-1.484235,54.98055],"type":"Point"},"properties":{"amenity":"waste_basket","osm_id":"4351224102"},"type":"Feature"},
	{"geometry":{"coordinates":[-1.439393,55.007842],"type":"Point"},"properties":{"amenity":"waste_basket","osm_id":"4526425521"},"type":"Feature"},
	{"geometry":{"coordinates":[-1.438971,55.007932],"type":"Point"},"properties":{"amenity":"waste_basket","osm_id":"4526425522"},"type":"Feature"},
	{"geometry":{"coordinates":[-1.438052,55.00814],"type":"Point"},"properties":{"amenity":"waste_basket","osm_id":"4526425523"},"type":"Feature"},
	{"geometry":{"coordinates":[-1.436839,55.008501],"type":"Point"},"properties":{"amenity":"waste_basket","osm_id":"4526425535"},"type":"Feature"},
	{"geometry":{"coordinates":[-1.43669,55.008691],"type":"Point"},"properties":{"amenity":"waste_basket","osm_id":"4526425624"},"type":"Feature"},
	{"geometry":{"coordinates":[-1.437749,55.008813],"type":"Point"},"properties":{"amenity":"waste_basket","osm_id":"4526425650"},"type":"Feature"},
	{"geometry":{"coordinates":[-1.436883,55.009095],"type":"Point"},"properties":{"amenity":"waste_basket","osm_id":"4526425651"},"type":"Feature"},
	{"geometry":{"coordinates":[-1.434145,55.010216],"type":"Point"},"properties":{"amenity":"waste_basket","osm_id":"4526526014"},"type":"Feature"},
	{"geometry":{"coordinates":[-1.43407,55.010427],"type":"Point"},"properties":{"amenity":"waste_basket","osm_id":"4526526021"},"type":"Feature"},
	{"geometry":{"coordinates":[-1.43254,55.010866],"type":"Point"},"properties":{"amenity":"waste_basket","osm_id":"4526526064"},"type":"Feature"},
	{"geometry":{"coordinates":[-1.492287,54.998552],"type":"Point"},"properties":{"amenity":"recycling","osm_id":"4672118689","tag":{"recycling:clothes":"yes","recycling:shoes":"yes","recycling_type":"container"}},"type":"Feature"},
	{"geometry":{"coordinates":[-1.445492,55.003658],"type":"Point"},"properties":{"amenity":"recycling","osm_id":"4676425288","tag":{"recycling_type":"container"}},"type":"Feature"},
	{"geometry":{"coordinates":[-1.445472,55.007744],"type":"Point"},"properties":{"amenity":"waste_basket","osm_id":"4678459379"},"type":"Feature"},
	{"geometry":{"coordinates":[-1.474312,54.998364],"type":"Point"},"properties":{"amenity":"waste_basket","osm_id":"4683505905"},"type":"Feature"},
	{"geometry":{"coordinates":[-1.47443,54.999409],"type":"Point"},"properties":{"amenity":"recycling","osm_id":"4683505913","tag":{"recycling_type":"container"}},"type":"Feature"},
	{"geometry":{"coordinates":[-1.463211,54.999589],"type":"Point"},"properties":{"amenity":"waste_basket","osm_id":"4683506255"},"type":"Feature"},
	{"geometry":{"coordinates":[-1.451782,55.002997],"type":"Point"},"properties":{"amenity":"waste_basket","osm_id":"4683556594"},"type":"Feature"},
	{"geometry":{"coordinates":[-1.448818,55.005537],"type":"Point"},"properties":{"amenity":"waste_basket","osm_id":"4683556617"},"type":"Feature"},
	{"geometry":{"coordinates":[-1.446224,55.008194],"type":"Point"},"properties":{"amenity":"waste_basket","osm_id":"4684972399"},"type":"Feature"},
	{"geometry":{"coordinates":[-1.445984,55.008045],"type":"Point"},"properties":{"amenity":"waste_basket","osm_id":"4684972402"},"type":"Feature"},
	{"geometry":{"coordinates":[-1.448132,55.00958],"type":"Point"},"properties":{"amenity":"waste_basket","osm_id":"4685109950"},"type":"Feature"},
	{"geometry":{"coordinates":[-1.448207,55.009631],"type":"Point"},"properties":{"amenity":"waste_basket","osm_id":"4685109951"},"type":"Feature"},
	{"geometry":{"coordinates":[-1.448023,55.00949],"type":"Point"},"properties":{"amenity":"waste_basket","osm_id":"4685109952"},"type":"Feature"},
	{"geometry":{"coordinates":[-1.447955,55.009433],"type":"Point"},"properties":{"amenity":"waste_basket","osm_id":"4685109953"},"type":"Feature"},
	{"geometry":{"coordinates":[-1.456129,55.008454],"type":"Point"},"properties":{"amenity":"waste_basket","osm_id":"4685339684"},"type":"Feature"},
	{"geometry":{"coordinates":[-1.464988,55.004059],"type":"Point"},"properties":{"amenity":"waste_basket","osm_id":"4685400841"},"type":"Feature"},
	{"geometry":{"coordinates":[-1.464375,55.002867],"type":"Point"},"properties":{"amenity":"waste_basket","osm_id":"4685471706"},"type":"Feature"},
	{"geometry":{"coordinates":[-1.475042,55.009704],"type":"Point"},"properties":{"amenity":"recycling","osm_id":"4697179560","tag":{"recycling_type":"container"}},"type":"Feature"},
	{"geometry":{"coordinates":[-1.475371,55.009555],"type":"Point"},"properties":{"amenity":"waste_basket","osm_id":"4697179563"},"type":"Feature"},
	{"geometry":{"coordinates":[-1.471222,55.004317],"type":"Point"},"properties":{"amenity":"recycling","osm_id":"4697179586","tag":{"recycling:clothes":"yes","recycling:shoes":"yes","recycling_type":"container"}},"type":"Feature"},
	{"geometry":{"coordinates":[-1.475163,55.023202],"type":"Point"},"properties":{"amenity":"waste_basket","osm_id":"4699352972"},"type":"Feature"},
	{"geometry":{"coordinates":[-1.471055,55.021193],"type":"Point"},"properties":{"amenity":"waste_basket","osm_id":"4699487867"},"type":"Feature"},
	{"geometry":{"coordinates":[-1.488327,55.025001],"type":"Point"},"properties":{"amenity":"recycling","osm_id":"4699549041","tag":{"recycling:clothes":"yes","recycling_type":"container"}},"type":"Feature"},
	{"geometry":{"coordinates":[-1.421091,55.018204],"type":"Point"},"properties":{"amenity":"waste_basket","osm_id":"4773072325"},"type":"Feature"},
	{"geometry":{"coordinates":[-1.421027,55.018186],"type":"Point"},"properties":{"amenity":"waste_basket","osm_id":"4773072326"},"type":"Feature"},
	{"geometry":{"coordinates":[-1.421146,55.018148],"type":"Point"},"properties":{"amenity":"waste_basket","osm_id":"4773072327"},"type":"Feature"},
	{"geometry":{"coordinates":[-1.421009,55.018],"type":"Point"},"properties":{"amenity":"waste_basket","osm_id":"4773072332"},"type":"Feature"},
	{"geometry":{"coordinates":[-1.439147,55.012902],"type":"Point"},"properties":{"amenity":"waste_basket","osm_id":"4773169073"},"type":"Feature"},
	{"geometry":{"coordinates":[-1.440287,55.015458],"type":"Point"},"properties":{"amenity":"waste_basket","osm_id":"4774306549"},"type":"Feature"},
	{"geometry":{"coordinates":[-1.425906,55.017752],"type":"Point"},"properties":{"amenity":"waste_basket","osm_id":"4774363380"},"type":"Feature"},
	{"geometry":{"coordinates":[-1.425781,55.017725],"type":"Point"},"properties":{"amenity":"waste_basket","osm_id":"4774363381"},"type":"Feature"},
	{"geometry":{"coordinates":[-1.425867,55.017805],"type":"Point"},"properties":{"amenity":"waste_basket","osm_id":"4774363392"},"type":"Feature"},
	{"geometry":{"coordinates":[-1.427729,55.024226],"type":"Point"},"properties":{"amenity":"recycling","osm_id":"4776771245","tag":{"recycling_type":"container"}},"type":"Feature"},
	{"geometry":{"coordinates":[-1.424613,55.017645],"type":"Point"},"properties":{"amenity":"waste_basket","osm_id":"4776955537"},"type":"Feature"},
	{"geometry":{"coordinates":[-1.476023,55.018179],"type":"Point"},"properties":{"amenity":"recycling","osm_id":"6175822345","tag":{"recycling_type":"container"}},"type":"Feature"},
	{"geometry":{"coordinates":[-1.448084,55.008589],"type":"Point"},"properties":{"amenity":"recycling","osm_id":"6189312624","tag":{"recycling_type":"container"}},"type":"Feature"},
	{"geometry":{"coordinates":[-1.428866,55.026132],"type":"Point"},"properties":{"amenity":"waste_basket","osm_id":"6192925513"},"type":"Feature"},
	{"geometry":{"coordinates":[-1.453897,55.011078],"type":"Point"},"properties":{"amenity":"waste_basket","osm_id":"6211791469"},"type":"Feature"},
	{"geometry":{"coordinates":[-1.454192,55.022481],"type":"Point"},"properties":{"amenity":"recycling","osm_id":"6241463593","tag":{"recycling:paper":"yes","recycling_type":"container"}},"type":"Feature"},
	{"geometry":{"coordinates":[-1.467379,55.026878],"type":"Point"},"properties":{"amenity":"waste_basket","osm_id":"6261196856"},"type":"Feature"},
	{"geometry":{"coordinates":[-1.470281,55.014802],"type":"Point"},"properties":{"amenity":"recycling","osm_id":"6271193501","tag":{"recycling:clothes":"yes","recycling_type":"container"}},"type":"Feature"},
	{"geometry":{"coordinates":[-1.468515,55.026403],"type":"Point"},"properties":{"amenity":"waste_basket","osm_id":"6271193504"},"type":"Feature"},
	{"geometry":{"coordinates":[-1.443539,55.005905],"type":"Point"},"properties":{"amenity":"waste_basket","osm_id":"6307562450"},"type":"Feature"},
	{"geometry":{"coordinates":[-1.427752,55.025081],"type":"Point"},"properties":{"amenity":"waste_basket","osm_id":"6374552905"},"type":"Feature"},
	{"geometry":{"coordinates":[-1.421249,55.021982],"type":"Point"},"properties":{"amenity":"waste_basket","osm_id":"6374552908"},"type":"Feature"},
	{"geometry":{"coordinates":[-1.423239,55.022468],"type":"Point"},"properties":{"amenity":"waste_basket","osm_id":"6374552910"},"type":"Feature"},
	{"geometry":{"coordinates":[-1.421039,55.003008],"type":"Point"},"properties":{"amenity":"waste_basket","osm_id":"6416694394"},"type":"Feature"},
	{"geometry":{"coordinates":[-1.421626,55.003333],"type":"Point"},"properties":{"amenity":"waste_basket","osm_id":"6416694410"},"type":"Feature"},
	{"geometry":{"coordinates":[-1.480386,55.022382],"type":"Point"},"properties":{"amenity":"waste_basket","osm_id":"6422006943"},"type":"Feature"},
	{"geometry":{"coordinates":[-1.470127,55.014919],"type":"Point"},"properties":{"amenity":"waste_basket","osm_id":"6458005465"},"type":"Feature"},
	{"geometry":{"coordinates":[-1.476628,55.019279],"type":"Point"},"properties":{"amenity":"waste_basket","osm_id":"7208868390"},"type":"Feature"},
	{"geometry":{"coordinates":[-1.428885,55.024315],"type":"Point"},"properties":{"amenity":"waste_basket","osm_id":"7460501420"},"type":"Feature"},
	{"geometry":{"coordinates":[-1.429232,55.024762],"type":"Point"},"properties":{"amenity":"waste_basket","osm_id":"7460501423"},"type":"Feature"},
	{"geometry":{"coordinates":[-1.466856,55.021176],"type":"Point"},"properties":{"amenity":"waste_basket","osm_id":"7711551030","tag":{"covered":"yes"}},"type":"Feature"}
]
}
