{
"type": "FeatureCollection",
"lastupdate": "2020-07-31T01:06:47Z",
"features": [
	{"geometry":{"coordinates":[-1.474043,53.474],"type":"Point"},"properties":{"amenity":"recycling","osm_id":"278027453","tag":{"recycling:glass":"yes"}},"type":"Feature"},
	{"geometry":{"coordinates":[-1.443362,53.436809],"type":"Point"},"properties":{"amenity":"recycling","osm_id":"305646262"},"type":"Feature"},
	{"geometry":{"coordinates":[-1.467059,53.464536],"type":"Point"},"properties":{"amenity":"recycling","osm_id":"312646829"},"type":"Feature"},
	{"geometry":{"coordinates":[-1.488831,53.470298],"type":"Point"},"properties":{"amenity":"recycling","osm_id":"317341719"},"type":"Feature"},
	{"geometry":{"coordinates":[-1.475694,53.472307],"type":"Point"},"properties":{"amenity":"recycling","osm_id":"1477543624","tag":{"recycling:glass":"yes","recycling:paper":"yes","recycling:scrap_metal":"yes"}},"type":"Feature"},
	{"geometry":{"coordinates":[-1.492755,53.479255],"type":"Point"},"properties":{"amenity":"recycling","name":"Greaves Lane Household Waste Recycling Centre","osm_id":"2812307167","tag":{"addr:city":"Sheffield","addr:postcode":"S35 4GR","addr:street":"Greaves Lane","opening_hours:url":"http://www.veoliaenvironmentalservices.co.uk/Sheffield/recycling-sites/Household-Waste-Recycling-Centres/Greaves-Lane-HWRC/","operator":"Veolia","recycling:cans":"yes","recycling:clothes":"yes","recycling:glass":"yes","recycling:paper":"yes","website":"http://www.veoliaenvironmentalservices.co.uk/Sheffield/recycling-sites/Household-Waste-Recycling-Centres/Greaves-Lane-HWRC/"}},"type":"Feature"}
]
}
