{
"type": "FeatureCollection",
"lastupdate": "2020-07-28T01:29:12Z",
"features": [
	{"geometry":{"coordinates":[-2.510693,54.118693],"type":"Point"},"properties":{"amenity":"recycling","osm_id":"330031602","tag":{"recycling_type":"container"}},"type":"Feature"},
	{"geometry":{"coordinates":[-2.471589,54.151448],"type":"Point"},"properties":{"amenity":"waste_basket","osm_id":"1390173929"},"type":"Feature"},
	{"geometry":{"coordinates":[-2.467172,54.154409],"type":"Point"},"properties":{"amenity":"waste_basket","osm_id":"3663046948"},"type":"Feature"},
	{"geometry":{"coordinates":[-2.468333,54.151859],"type":"Point"},"properties":{"amenity":"recycling","osm_id":"3885756657","tag":{"recycling_type":"container"}},"type":"Feature"},
	{"geometry":{"coordinates":[-2.469854,54.147002],"type":"Point"},"properties":{"amenity":"waste_basket","osm_id":"5272497280"},"type":"Feature"},
	{"geometry":{"coordinates":[-2.471021,54.157019],"type":"Point"},"properties":{"amenity":"waste_basket","osm_id":"5697438777"},"type":"Feature"}
]
}
