{
"type": "FeatureCollection",
"lastupdate": "2020-07-24T00:48:03Z",
"features": [
	{"geometry":{"coordinates":[-2.52949,53.581437],"type":"Point"},"properties":{"amenity":"recycling","osm_id":"2004392744"},"type":"Feature"},
	{"geometry":{"coordinates":[-2.474201,53.567486],"type":"Point"},"properties":{"amenity":"waste_basket","osm_id":"6137182266"},"type":"Feature"},
	{"geometry":{"coordinates":[-2.469426,53.547042],"type":"Point"},"properties":{"amenity":"waste_basket","osm_id":"6180714005"},"type":"Feature"},
	{"geometry":{"coordinates":[-2.470892,53.545238],"type":"Point"},"properties":{"amenity":"waste_basket","osm_id":"6185457151"},"type":"Feature"},
	{"geometry":{"coordinates":[-2.523744,53.546359],"type":"Point"},"properties":{"amenity":"recycling","name":"Sainsbury's Westhoughton","osm_id":"6229292800","tag":{"recycling_type":"centre"}},"type":"Feature"},
	{"geometry":{"coordinates":[-2.51567,53.552358],"type":"Point"},"properties":{"amenity":"waste_basket","osm_id":"6552313314"},"type":"Feature"},
	{"geometry":{"coordinates":[-2.524899,53.5507],"type":"Point"},"properties":{"amenity":"waste_basket","osm_id":"6559931862"},"type":"Feature"},
	{"geometry":{"coordinates":[-2.522393,53.548869],"type":"Point"},"properties":{"amenity":"waste_basket","osm_id":"6563542301"},"type":"Feature"},
	{"geometry":{"coordinates":[-2.521464,53.54887],"type":"Point"},"properties":{"amenity":"waste_basket","osm_id":"6563669605"},"type":"Feature"},
	{"geometry":{"coordinates":[-2.519995,53.548493],"type":"Point"},"properties":{"amenity":"waste_basket","osm_id":"6563669729"},"type":"Feature"},
	{"geometry":{"coordinates":[-2.518327,53.549478],"type":"Point"},"properties":{"amenity":"waste_basket","osm_id":"6564987869"},"type":"Feature"},
	{"geometry":{"coordinates":[-2.518405,53.549311],"type":"Point"},"properties":{"amenity":"waste_basket","osm_id":"6564987870"},"type":"Feature"},
	{"geometry":{"coordinates":[-2.527653,53.546265],"type":"Point"},"properties":{"amenity":"waste_basket","osm_id":"6571966964"},"type":"Feature"},
	{"geometry":{"coordinates":[-2.528222,53.544951],"type":"Point"},"properties":{"amenity":"waste_basket","osm_id":"6572024489"},"type":"Feature"},
	{"geometry":{"coordinates":[-2.530502,53.543719],"type":"Point"},"properties":{"amenity":"waste_basket","osm_id":"6574726442"},"type":"Feature"},
	{"geometry":{"coordinates":[-2.545056,53.54189],"type":"Point"},"properties":{"amenity":"waste_basket","osm_id":"6578515803"},"type":"Feature"},
	{"geometry":{"coordinates":[-2.517318,53.542181],"type":"Point"},"properties":{"amenity":"waste_basket","osm_id":"6578997926"},"type":"Feature"},
	{"geometry":{"coordinates":[-2.516413,53.540495],"type":"Point"},"properties":{"amenity":"waste_basket","osm_id":"6579930069"},"type":"Feature"},
	{"geometry":{"coordinates":[-2.46248,53.557374],"type":"Point"},"properties":{"amenity":"waste_basket","osm_id":"6687173039"},"type":"Feature"},
	{"geometry":{"coordinates":[-2.470081,53.56483],"type":"Point"},"properties":{"amenity":"waste_basket","osm_id":"6727297188"},"type":"Feature"},
	{"geometry":{"coordinates":[-2.465465,53.566922],"type":"Point"},"properties":{"amenity":"waste_basket","osm_id":"6752563163"},"type":"Feature"},
	{"geometry":{"coordinates":[-2.461538,53.566787],"type":"Point"},"properties":{"amenity":"waste_basket","osm_id":"6759584672"},"type":"Feature"},
	{"geometry":{"coordinates":[-2.475862,53.590349],"type":"Point"},"properties":{"amenity":"waste_basket","osm_id":"6801363247"},"type":"Feature"},
	{"geometry":{"coordinates":[-2.473525,53.589583],"type":"Point"},"properties":{"amenity":"waste_basket","osm_id":"6801363343"},"type":"Feature"}
]
}
