{
"type": "FeatureCollection",
"lastupdate": "2020-07-29T00:24:51Z",
"features": [
	{"geometry":{"coordinates":[-2.544759,53.395935],"type":"Point"},"properties":{"amenity":"recycling","osm_id":"626789855"},"type":"Feature"},
	{"geometry":{"coordinates":[-2.515062,53.398661],"type":"Point"},"properties":{"amenity":"waste_basket","highway":"bus_stop","osm_id":"1008806572","tag":{"layby":"yes","shelter":"no"}},"type":"Feature"},
	{"geometry":{"coordinates":[-2.514819,53.418097],"type":"Point"},"properties":{"amenity":"recycling","osm_id":"1341350999","tag":{"location":"overground","recycling_type":"container"}},"type":"Feature"},
	{"geometry":{"coordinates":[-2.523796,53.425456],"type":"Point"},"properties":{"amenity":"waste_basket","osm_id":"7277639875"},"type":"Feature"},
	{"geometry":{"coordinates":[-2.52316,53.424953],"type":"Point"},"properties":{"amenity":"waste_basket","osm_id":"7606784525","tag":{"waste":"trash"}},"type":"Feature"},
	{"geometry":{"coordinates":[-2.523424,53.425262],"type":"Point"},"properties":{"amenity":"waste_basket","osm_id":"7606807910","tag":{"waste":"trash"}},"type":"Feature"}
]
}
