{
"type": "FeatureCollection",
"lastupdate": "2020-07-29T00:24:51Z",
"features": [
	{"geometry":{"coordinates":[-2.461063,52.643627],"type":"Point"},"properties":{"amenity":"waste_basket","osm_id":"1340661775"},"type":"Feature"},
	{"geometry":{"coordinates":[-2.523984,52.660515],"type":"Point"},"properties":{"amenity":"waste_basket","osm_id":"1358405670"},"type":"Feature"},
	{"geometry":{"coordinates":[-2.5192,52.657083],"type":"Point"},"properties":{"amenity":"waste_basket","osm_id":"1358405674"},"type":"Feature"},
	{"geometry":{"coordinates":[-2.523278,52.657231],"type":"Point"},"properties":{"amenity":"waste_basket","osm_id":"1358405679"},"type":"Feature"},
	{"geometry":{"coordinates":[-2.521,52.659127],"type":"Point"},"properties":{"amenity":"waste_basket","osm_id":"1358405714"},"type":"Feature"},
	{"geometry":{"coordinates":[-2.493252,52.692357],"type":"Point"},"properties":{"amenity":"waste_basket","osm_id":"3399599448"},"type":"Feature"},
	{"geometry":{"coordinates":[-2.494771,52.696071],"type":"Point"},"properties":{"amenity":"waste_basket","osm_id":"3634131400"},"type":"Feature"},
	{"geometry":{"coordinates":[-2.505474,52.690402],"type":"Point"},"properties":{"amenity":"waste_basket","osm_id":"3634131493"},"type":"Feature"},
	{"geometry":{"coordinates":[-2.495313,52.691953],"type":"Point"},"properties":{"amenity":"waste_basket","osm_id":"3634131495"},"type":"Feature"},
	{"geometry":{"coordinates":[-2.493917,52.691987],"type":"Point"},"properties":{"amenity":"waste_basket","osm_id":"3634131503"},"type":"Feature"},
	{"geometry":{"coordinates":[-2.49301,52.692878],"type":"Point"},"properties":{"amenity":"waste_basket","osm_id":"3634131513"},"type":"Feature"},
	{"geometry":{"coordinates":[-2.50079,52.690045],"type":"Point"},"properties":{"amenity":"waste_basket","osm_id":"3634131593"},"type":"Feature"},
	{"geometry":{"coordinates":[-2.494109,52.690668],"type":"Point"},"properties":{"amenity":"waste_basket","osm_id":"3634131693"},"type":"Feature"},
	{"geometry":{"coordinates":[-2.491493,52.693856],"type":"Point"},"properties":{"amenity":"waste_basket","osm_id":"3634131996"},"type":"Feature"},
	{"geometry":{"coordinates":[-2.491891,52.694148],"type":"Point"},"properties":{"amenity":"waste_basket","osm_id":"3634132198"},"type":"Feature"},
	{"geometry":{"coordinates":[-2.492705,52.694716],"type":"Point"},"properties":{"amenity":"waste_basket","osm_id":"3634132199"},"type":"Feature"},
	{"geometry":{"coordinates":[-2.492828,52.695342],"type":"Point"},"properties":{"amenity":"waste_basket","osm_id":"3634132200"},"type":"Feature"},
	{"geometry":{"coordinates":[-2.488971,52.671584],"type":"Point"},"properties":{"amenity":"waste_basket","osm_id":"4052967750"},"type":"Feature"},
	{"geometry":{"coordinates":[-2.488754,52.671527],"type":"Point"},"properties":{"amenity":"waste_basket","osm_id":"4052967751"},"type":"Feature"},
	{"geometry":{"coordinates":[-2.48114,52.688939],"type":"Point"},"properties":{"amenity":"recycling","name":"Greenways Waste Recycling","osm_id":"5327452247","tag":{"recycling_type":"centre"}},"type":"Feature"}
]
}
