{
"type": "FeatureCollection",
"lastupdate": "2020-07-26T00:31:07Z",
"features": [
	{"geometry":{"coordinates":[1.127853,52.69979],"type":"Point"},"properties":{"amenity":"recycling","osm_id":"3224064994","tag":{"recycling:glass_bottles":"yes"}},"type":"Feature"},
	{"geometry":{"coordinates":[1.110625,52.721472],"type":"Point"},"properties":{"amenity":"recycling","osm_id":"3225704240","tag":{"recycling:clothes":"yes","recycling:glass_bottles":"yes","recycling:shoes":"yes"}},"type":"Feature"},
	{"geometry":{"coordinates":[1.061744,52.717939],"type":"Point"},"properties":{"amenity":"waste_basket","osm_id":"3542143771"},"type":"Feature"},
	{"geometry":{"coordinates":[1.066186,52.718496],"type":"Point"},"properties":{"amenity":"waste_basket","osm_id":"3542143821","tag":{"waste":"dog_excrement"}},"type":"Feature"},
	{"geometry":{"coordinates":[1.059979,52.719261],"type":"Point"},"properties":{"amenity":"waste_basket","osm_id":"3542143891","tag":{"waste":"dog_excrement"}},"type":"Feature"},
	{"geometry":{"coordinates":[1.059843,52.719425],"type":"Point"},"properties":{"amenity":"waste_basket","osm_id":"3542143897"},"type":"Feature"}
]
}
