{
"type": "FeatureCollection",
"lastupdate": "2020-07-28T01:29:12Z",
"features": [
	{"geometry":{"coordinates":[1.139209,52.055102],"type":"Point"},"properties":{"amenity":"recycling","osm_id":"316509787","tag":{"recycling:cans":"yes","recycling:clothes":"yes","recycling:glass":"yes","recycling:paper":"yes"}},"type":"Feature"},
	{"geometry":{"coordinates":[1.141897,52.068856],"type":"Point"},"properties":{"amenity":"waste_basket","osm_id":"1933692752"},"type":"Feature"},
	{"geometry":{"coordinates":[1.141848,52.068876],"type":"Point"},"properties":{"amenity":"waste_basket","osm_id":"1933692792","tag":{"waste":"dog_excrement"}},"type":"Feature"},
	{"geometry":{"coordinates":[1.141028,52.068985],"type":"Point"},"properties":{"amenity":"waste_basket","osm_id":"1933692865","tag":{"waste":"dog_excrement"}},"type":"Feature"},
	{"geometry":{"coordinates":[1.142036,52.069504],"type":"Point"},"properties":{"amenity":"waste_basket","osm_id":"1933693566","tag":{"waste":"dog_excrement"}},"type":"Feature"},
	{"geometry":{"coordinates":[1.126562,52.083331],"type":"Point"},"properties":{"amenity":"waste_basket","osm_id":"2689144647"},"type":"Feature"},
	{"geometry":{"coordinates":[1.128315,52.064881],"type":"Point"},"properties":{"amenity":"waste_basket","osm_id":"5003773173"},"type":"Feature"},
	{"geometry":{"coordinates":[1.128159,52.065033],"type":"Point"},"properties":{"amenity":"waste_basket","osm_id":"5003773174"},"type":"Feature"},
	{"geometry":{"coordinates":[1.127903,52.064342],"type":"Point"},"properties":{"amenity":"waste_basket","osm_id":"5679839344","tag":{"waste":"trash"}},"type":"Feature"},
	{"geometry":{"coordinates":[1.121248,52.064374],"type":"Point"},"properties":{"amenity":"recycling","osm_id":"6566536028","tag":{"opening_hours":"24/7","recycling:clothes":"yes","recycling:glass":"yes","recycling:paper":"yes","recycling:shoes":"yes","recycling_type":"centre"}},"type":"Feature"}
]
}
