{
"type": "FeatureCollection",
"lastupdate": "2020-07-25T00:42:33Z",
"features": [
	{"geometry":{"coordinates":[1.12759,51.370823],"type":"Point"},"properties":{"amenity":"recycling","osm_id":"31210144","tag":{"recycling:clothes":"yes","recycling:glass":"yes","recycling:paper":"yes"}},"type":"Feature"},
	{"geometry":{"coordinates":[1.097913,51.36836],"type":"Point"},"properties":{"amenity":"recycling","osm_id":"297158716","tag":{"recycling:glass":"yes"}},"type":"Feature"},
	{"geometry":{"coordinates":[1.098074,51.368369],"type":"Point"},"properties":{"amenity":"recycling","osm_id":"297158717","tag":{"recycling:cans":"yes","recycling:clothes":"yes","recycling:shoes":"yes"}},"type":"Feature"},
	{"geometry":{"coordinates":[1.06811,51.361728],"type":"Point"},"properties":{"amenity":"recycling","osm_id":"358043314","tag":{"recycling:cans":"yes"}},"type":"Feature"},
	{"geometry":{"coordinates":[1.06198,51.358102],"type":"Point"},"properties":{"amenity":"recycling","name":"Sainsburys Car Park","osm_id":"534279585"},"type":"Feature"},
	{"geometry":{"coordinates":[1.128546,51.371446],"type":"Point"},"properties":{"amenity":"waste_basket","osm_id":"6139152878"},"type":"Feature"},
	{"geometry":{"coordinates":[1.127816,51.370254],"type":"Point"},"properties":{"amenity":"waste_basket","osm_id":"6139152879"},"type":"Feature"},
	{"geometry":{"coordinates":[1.128573,51.371939],"type":"Point"},"properties":{"amenity":"waste_basket","osm_id":"6139152880"},"type":"Feature"},
	{"geometry":{"coordinates":[1.128567,51.372002],"type":"Point"},"properties":{"amenity":"waste_basket","osm_id":"6139152881"},"type":"Feature"},
	{"geometry":{"coordinates":[1.128406,51.371955],"type":"Point"},"properties":{"amenity":"waste_basket","osm_id":"6139152882"},"type":"Feature"},
	{"geometry":{"coordinates":[1.128398,51.371894],"type":"Point"},"properties":{"amenity":"waste_basket","osm_id":"6139152883"},"type":"Feature"},
	{"geometry":{"coordinates":[1.128924,51.371919],"type":"Point"},"properties":{"amenity":"waste_basket","osm_id":"6139176850"},"type":"Feature"},
	{"geometry":{"coordinates":[1.129388,51.371928],"type":"Point"},"properties":{"amenity":"waste_basket","osm_id":"6139176854"},"type":"Feature"},
	{"geometry":{"coordinates":[1.131611,51.372],"type":"Point"},"properties":{"amenity":"waste_basket","osm_id":"6139176855"},"type":"Feature"},
	{"geometry":{"coordinates":[1.131216,51.371952],"type":"Point"},"properties":{"amenity":"waste_basket","osm_id":"6139176857"},"type":"Feature"},
	{"geometry":{"coordinates":[1.128421,51.37308],"type":"Point"},"properties":{"amenity":"waste_basket","osm_id":"6139197704"},"type":"Feature"},
	{"geometry":{"coordinates":[1.128011,51.373094],"type":"Point"},"properties":{"amenity":"waste_basket","osm_id":"6139197705"},"type":"Feature"},
	{"geometry":{"coordinates":[1.12962,51.373061],"type":"Point"},"properties":{"amenity":"waste_basket","osm_id":"6139197707"},"type":"Feature"},
	{"geometry":{"coordinates":[1.129834,51.373085],"type":"Point"},"properties":{"amenity":"waste_basket","osm_id":"6139197708"},"type":"Feature"},
	{"geometry":{"coordinates":[1.130568,51.373069],"type":"Point"},"properties":{"amenity":"waste_basket","osm_id":"6139197709"},"type":"Feature"},
	{"geometry":{"coordinates":[1.130966,51.373042],"type":"Point"},"properties":{"amenity":"waste_basket","osm_id":"6139197710"},"type":"Feature"},
	{"geometry":{"coordinates":[1.13086,51.373076],"type":"Point"},"properties":{"amenity":"waste_basket","osm_id":"6139197711","tag":{"waste":"dog_excrement"}},"type":"Feature"},
	{"geometry":{"coordinates":[1.131469,51.373033],"type":"Point"},"properties":{"amenity":"waste_basket","osm_id":"6139197713"},"type":"Feature"},
	{"geometry":{"coordinates":[1.132124,51.373023],"type":"Point"},"properties":{"amenity":"waste_basket","osm_id":"6139197716"},"type":"Feature"},
	{"geometry":{"coordinates":[1.132652,51.373013],"type":"Point"},"properties":{"amenity":"waste_basket","osm_id":"6139197717"},"type":"Feature"},
	{"geometry":{"coordinates":[1.134,51.372993],"type":"Point"},"properties":{"amenity":"waste_basket","osm_id":"6139197720"},"type":"Feature"},
	{"geometry":{"coordinates":[1.138177,51.372127],"type":"Point"},"properties":{"amenity":"waste_basket","osm_id":"6146007696"},"type":"Feature"},
	{"geometry":{"coordinates":[1.140437,51.371628],"type":"Point"},"properties":{"amenity":"waste_basket","osm_id":"6146027421"},"type":"Feature"},
	{"geometry":{"coordinates":[1.140583,51.371741],"type":"Point"},"properties":{"amenity":"waste_basket","osm_id":"6146027423","tag":{"waste":"dog_excrement"}},"type":"Feature"},
	{"geometry":{"coordinates":[1.063344,51.347486],"type":"Point"},"properties":{"amenity":"waste_basket","osm_id":"6834491218","tag":{"waste":"trash"}},"type":"Feature"},
	{"geometry":{"coordinates":[1.063316,51.347453],"type":"Point"},"properties":{"amenity":"waste_basket","osm_id":"6834491219","tag":{"waste":"dog_excrement"}},"type":"Feature"}
]
}
