{
"type": "FeatureCollection",
"lastupdate": "2020-07-26T00:31:07Z",
"features": [
	{"geometry":{"coordinates":[1.101279,51.294797],"type":"Point"},"properties":{"amenity":"recycling","osm_id":"28276418"},"type":"Feature"},
	{"geometry":{"coordinates":[1.119596,51.332205],"type":"Point"},"properties":{"amenity":"recycling","osm_id":"54750972"},"type":"Feature"},
	{"geometry":{"coordinates":[1.067646,51.295903],"type":"Point"},"properties":{"amenity":"waste_basket","osm_id":"804160822"},"type":"Feature"},
	{"geometry":{"coordinates":[1.065511,51.296887],"type":"Point"},"properties":{"amenity":"waste_basket","osm_id":"804160847"},"type":"Feature"},
	{"geometry":{"coordinates":[1.067385,51.296268],"type":"Point"},"properties":{"amenity":"recycling","osm_id":"804160853"},"type":"Feature"},
	{"geometry":{"coordinates":[1.069213,51.295318],"type":"Point"},"properties":{"amenity":"waste_basket","osm_id":"804160872"},"type":"Feature"},
	{"geometry":{"coordinates":[1.06742,51.295931],"type":"Point"},"properties":{"amenity":"waste_basket","osm_id":"804160900"},"type":"Feature"},
	{"geometry":{"coordinates":[1.068774,51.295596],"type":"Point"},"properties":{"amenity":"waste_basket","osm_id":"804160903"},"type":"Feature"},
	{"geometry":{"coordinates":[1.070357,51.294317],"type":"Point"},"properties":{"amenity":"waste_basket","osm_id":"804160924"},"type":"Feature"},
	{"geometry":{"coordinates":[1.067741,51.295883],"type":"Point"},"properties":{"amenity":"waste_basket","osm_id":"804160935"},"type":"Feature"},
	{"geometry":{"coordinates":[1.070738,51.293388],"type":"Point"},"properties":{"amenity":"waste_basket","osm_id":"804160957"},"type":"Feature"},
	{"geometry":{"coordinates":[1.066248,51.294528],"type":"Point"},"properties":{"amenity":"waste_basket","osm_id":"805664958"},"type":"Feature"},
	{"geometry":{"coordinates":[1.064103,51.298098],"type":"Point"},"properties":{"amenity":"waste_basket","osm_id":"806934759"},"type":"Feature"},
	{"geometry":{"coordinates":[1.065027,51.297744],"type":"Point"},"properties":{"amenity":"waste_basket","osm_id":"806934766"},"type":"Feature"},
	{"geometry":{"coordinates":[1.064158,51.29751],"type":"Point"},"properties":{"amenity":"waste_basket","osm_id":"806934807"},"type":"Feature"},
	{"geometry":{"coordinates":[1.063939,51.298042],"type":"Point"},"properties":{"amenity":"waste_basket","osm_id":"806934810"},"type":"Feature"},
	{"geometry":{"coordinates":[1.069232,51.299137],"type":"Point"},"properties":{"amenity":"waste_basket","osm_id":"806934814"},"type":"Feature"},
	{"geometry":{"coordinates":[1.070135,51.299851],"type":"Point"},"properties":{"amenity":"waste_basket","osm_id":"806934820"},"type":"Feature"},
	{"geometry":{"coordinates":[1.077638,51.290613],"type":"Point"},"properties":{"amenity":"waste_basket","osm_id":"806934825"},"type":"Feature"},
	{"geometry":{"coordinates":[1.065277,51.297843],"type":"Point"},"properties":{"amenity":"waste_basket","osm_id":"806934826"},"type":"Feature"},
	{"geometry":{"coordinates":[1.077862,51.290566],"type":"Point"},"properties":{"amenity":"waste_basket","osm_id":"806934835"},"type":"Feature"},
	{"geometry":{"coordinates":[1.064934,51.297859],"type":"Point"},"properties":{"amenity":"waste_basket","osm_id":"806934844"},"type":"Feature"},
	{"geometry":{"coordinates":[1.065593,51.298665],"type":"Point"},"properties":{"amenity":"waste_basket","osm_id":"806934848"},"type":"Feature"},
	{"geometry":{"coordinates":[1.068845,51.299019],"type":"Point"},"properties":{"amenity":"waste_basket","osm_id":"806934852"},"type":"Feature"},
	{"geometry":{"coordinates":[1.070177,51.299798],"type":"Point"},"properties":{"amenity":"waste_basket","osm_id":"806934853"},"type":"Feature"},
	{"geometry":{"coordinates":[1.064314,51.297574],"type":"Point"},"properties":{"amenity":"waste_basket","osm_id":"806934889"},"type":"Feature"},
	{"geometry":{"coordinates":[1.067613,51.297462],"type":"Point"},"properties":{"amenity":"recycling","osm_id":"817292529"},"type":"Feature"},
	{"geometry":{"coordinates":[1.067369,51.297614],"type":"Point"},"properties":{"amenity":"recycling","osm_id":"817292530"},"type":"Feature"},
	{"geometry":{"coordinates":[1.069944,51.297414],"type":"Point"},"properties":{"amenity":"recycling","osm_id":"820370586"},"type":"Feature"},
	{"geometry":{"coordinates":[1.069764,51.298382],"type":"Point"},"properties":{"amenity":"recycling","osm_id":"820370588"},"type":"Feature"},
	{"geometry":{"coordinates":[1.071043,51.298685],"type":"Point"},"properties":{"amenity":"recycling","osm_id":"820370594"},"type":"Feature"},
	{"geometry":{"coordinates":[1.072663,51.298639],"type":"Point"},"properties":{"amenity":"waste_basket","osm_id":"820370597"},"type":"Feature"},
	{"geometry":{"coordinates":[1.071409,51.298129],"type":"Point"},"properties":{"amenity":"waste_basket","osm_id":"820370600"},"type":"Feature"},
	{"geometry":{"coordinates":[1.068274,51.29773],"type":"Point"},"properties":{"amenity":"waste_basket","osm_id":"820370601"},"type":"Feature"},
	{"geometry":{"coordinates":[1.069838,51.298334],"type":"Point"},"properties":{"amenity":"waste_basket","osm_id":"820370605"},"type":"Feature"},
	{"geometry":{"coordinates":[1.070873,51.297922],"type":"Point"},"properties":{"amenity":"waste_basket","osm_id":"820370607"},"type":"Feature"},
	{"geometry":{"coordinates":[1.070243,51.297732],"type":"Point"},"properties":{"amenity":"waste_basket","osm_id":"820370614"},"type":"Feature"},
	{"geometry":{"coordinates":[1.066539,51.297679],"type":"Point"},"properties":{"amenity":"waste_basket","osm_id":"820370622"},"type":"Feature"},
	{"geometry":{"coordinates":[1.07204,51.298336],"type":"Point"},"properties":{"amenity":"waste_basket","osm_id":"820370627"},"type":"Feature"},
	{"geometry":{"coordinates":[1.068331,51.297653],"type":"Point"},"properties":{"amenity":"waste_basket","osm_id":"820370633"},"type":"Feature"},
	{"geometry":{"coordinates":[1.067656,51.296533],"type":"Point"},"properties":{"amenity":"recycling","osm_id":"846095672"},"type":"Feature"},
	{"geometry":{"coordinates":[1.067442,51.296474],"type":"Point"},"properties":{"amenity":"recycling","osm_id":"846095680"},"type":"Feature"},
	{"geometry":{"coordinates":[1.072102,51.292091],"type":"Point"},"properties":{"amenity":"waste_basket","osm_id":"846095695"},"type":"Feature"},
	{"geometry":{"coordinates":[1.079217,51.289857],"type":"Point"},"properties":{"amenity":"waste_basket","osm_id":"1333862834"},"type":"Feature"},
	{"geometry":{"coordinates":[1.079169,51.289926],"type":"Point"},"properties":{"amenity":"waste_basket","osm_id":"1333862835"},"type":"Feature"},
	{"geometry":{"coordinates":[1.079962,51.29034],"type":"Point"},"properties":{"amenity":"waste_basket","osm_id":"1333862836"},"type":"Feature"},
	{"geometry":{"coordinates":[1.080104,51.290535],"type":"Point"},"properties":{"amenity":"waste_basket","osm_id":"1333862839"},"type":"Feature"},
	{"geometry":{"coordinates":[1.079637,51.290577],"type":"Point"},"properties":{"amenity":"waste_basket","osm_id":"1333862842"},"type":"Feature"},
	{"geometry":{"coordinates":[1.079204,51.290947],"type":"Point"},"properties":{"amenity":"waste_basket","osm_id":"1333862854"},"type":"Feature"},
	{"geometry":{"coordinates":[1.079016,51.290958],"type":"Point"},"properties":{"amenity":"waste_basket","osm_id":"1333862855"},"type":"Feature"},
	{"geometry":{"coordinates":[1.071013,51.296614],"type":"Point"},"properties":{"amenity":"waste_basket","osm_id":"1333932445"},"type":"Feature"},
	{"geometry":{"coordinates":[1.071328,51.296692],"type":"Point"},"properties":{"amenity":"waste_basket","osm_id":"1333932446"},"type":"Feature"},
	{"geometry":{"coordinates":[1.069193,51.29826],"type":"Point"},"properties":{"amenity":"waste_basket","osm_id":"1333932462"},"type":"Feature"},
	{"geometry":{"coordinates":[1.069892,51.298922],"type":"Point"},"properties":{"amenity":"waste_basket","osm_id":"1333932476"},"type":"Feature"},
	{"geometry":{"coordinates":[1.067824,51.298945],"type":"Point"},"properties":{"amenity":"waste_basket","osm_id":"1333932477"},"type":"Feature"},
	{"geometry":{"coordinates":[1.070786,51.298948],"type":"Point"},"properties":{"amenity":"waste_basket","osm_id":"1333932478"},"type":"Feature"},
	{"geometry":{"coordinates":[1.071372,51.299083],"type":"Point"},"properties":{"amenity":"waste_basket","osm_id":"1333932484"},"type":"Feature"},
	{"geometry":{"coordinates":[1.072141,51.299245],"type":"Point"},"properties":{"amenity":"waste_basket","osm_id":"1333932485"},"type":"Feature"},
	{"geometry":{"coordinates":[1.070554,51.293363],"type":"Point"},"properties":{"amenity":"waste_basket","osm_id":"1358223488"},"type":"Feature"},
	{"geometry":{"coordinates":[1.070357,51.294364],"type":"Point"},"properties":{"amenity":"waste_basket","osm_id":"1358223491"},"type":"Feature"},
	{"geometry":{"coordinates":[1.069794,51.294891],"type":"Point"},"properties":{"amenity":"waste_basket","osm_id":"1358223492"},"type":"Feature"},
	{"geometry":{"coordinates":[1.069784,51.295745],"type":"Point"},"properties":{"amenity":"waste_basket","osm_id":"1358223502"},"type":"Feature"},
	{"geometry":{"coordinates":[1.069879,51.295942],"type":"Point"},"properties":{"amenity":"waste_basket","osm_id":"1358223504"},"type":"Feature"},
	{"geometry":{"coordinates":[1.069834,51.296022],"type":"Point"},"properties":{"amenity":"waste_basket","osm_id":"1358223506"},"type":"Feature"},
	{"geometry":{"coordinates":[1.069603,51.296361],"type":"Point"},"properties":{"amenity":"waste_basket","osm_id":"1358223511"},"type":"Feature"},
	{"geometry":{"coordinates":[1.0686,51.296387],"type":"Point"},"properties":{"amenity":"waste_basket","osm_id":"1358223513"},"type":"Feature"},
	{"geometry":{"coordinates":[1.069093,51.296463],"type":"Point"},"properties":{"amenity":"waste_basket","osm_id":"1358223515"},"type":"Feature"},
	{"geometry":{"coordinates":[1.068124,51.296913],"type":"Point"},"properties":{"amenity":"recycling","osm_id":"1358223536","tag":{"location":"overground","recycling_type":"container"}},"type":"Feature"},
	{"geometry":{"coordinates":[1.067675,51.297325],"type":"Point"},"properties":{"amenity":"waste_basket","osm_id":"1358223543"},"type":"Feature"},
	{"geometry":{"coordinates":[1.070308,51.29835],"type":"Point"},"properties":{"amenity":"recycling","osm_id":"1375657063"},"type":"Feature"},
	{"geometry":{"coordinates":[1.069435,51.297437],"type":"Point"},"properties":{"amenity":"recycling","osm_id":"1380816403"},"type":"Feature"},
	{"geometry":{"coordinates":[1.069582,51.29749],"type":"Point"},"properties":{"amenity":"recycling","osm_id":"1391167512"},"type":"Feature"},
	{"geometry":{"coordinates":[1.069026,51.297308],"type":"Point"},"properties":{"amenity":"recycling","osm_id":"1391167543"},"type":"Feature"},
	{"geometry":{"coordinates":[1.069305,51.297396],"type":"Point"},"properties":{"amenity":"recycling","osm_id":"1391167553"},"type":"Feature"},
	{"geometry":{"coordinates":[1.069341,51.297524],"type":"Point"},"properties":{"amenity":"waste_basket","osm_id":"1391167566"},"type":"Feature"},
	{"geometry":{"coordinates":[1.06914,51.29746],"type":"Point"},"properties":{"amenity":"waste_basket","osm_id":"1391167567"},"type":"Feature"},
	{"geometry":{"coordinates":[1.069189,51.297358],"type":"Point"},"properties":{"amenity":"recycling","osm_id":"1391167571"},"type":"Feature"},
	{"geometry":{"coordinates":[1.069661,51.296888],"type":"Point"},"properties":{"amenity":"waste_basket","osm_id":"1391190314"},"type":"Feature"},
	{"geometry":{"coordinates":[1.069829,51.297062],"type":"Point"},"properties":{"amenity":"recycling","osm_id":"1391190317"},"type":"Feature"},
	{"geometry":{"coordinates":[1.06906,51.296787],"type":"Point"},"properties":{"amenity":"recycling","osm_id":"1391190325"},"type":"Feature"},
	{"geometry":{"coordinates":[1.067808,51.2964],"type":"Point"},"properties":{"amenity":"recycling","osm_id":"1391190349"},"type":"Feature"},
	{"geometry":{"coordinates":[1.067597,51.296334],"type":"Point"},"properties":{"amenity":"recycling","osm_id":"1391190352"},"type":"Feature"},
	{"geometry":{"coordinates":[1.070269,51.298392],"type":"Point"},"properties":{"amenity":"recycling","osm_id":"1391190356"},"type":"Feature"},
	{"geometry":{"coordinates":[1.068196,51.296572],"type":"Point"},"properties":{"amenity":"recycling","osm_id":"1391190385","tag":{"location":"overground","recycling_type":"container"}},"type":"Feature"},
	{"geometry":{"coordinates":[1.066544,51.295192],"type":"Point"},"properties":{"amenity":"waste_basket","osm_id":"1654690884"},"type":"Feature"},
	{"geometry":{"coordinates":[1.065112,51.295895],"type":"Point"},"properties":{"amenity":"waste_basket","osm_id":"1654690888"},"type":"Feature"},
	{"geometry":{"coordinates":[1.069022,51.297307],"type":"Point"},"properties":{"amenity":"waste_basket","osm_id":"2349685818"},"type":"Feature"},
	{"geometry":{"coordinates":[1.069186,51.297358],"type":"Point"},"properties":{"amenity":"waste_basket","osm_id":"2349685934"},"type":"Feature"},
	{"geometry":{"coordinates":[1.069302,51.297396],"type":"Point"},"properties":{"amenity":"waste_basket","osm_id":"2349685935"},"type":"Feature"},
	{"geometry":{"coordinates":[1.069433,51.297436],"type":"Point"},"properties":{"amenity":"waste_basket","osm_id":"2349685948"},"type":"Feature"},
	{"geometry":{"coordinates":[1.069578,51.297489],"type":"Point"},"properties":{"amenity":"waste_basket","osm_id":"2349686155"},"type":"Feature"},
	{"geometry":{"coordinates":[1.117488,51.307984],"type":"Point"},"properties":{"amenity":"recycling","osm_id":"5777229088","tag":{"recycling:clothes":"yes","recycling_type":"container"}},"type":"Feature"},
	{"geometry":{"coordinates":[1.077194,51.328354],"type":"Point"},"properties":{"amenity":"waste_basket","osm_id":"6828651427","tag":{"waste":"dog_excrement"}},"type":"Feature"}
]
}
