{
"type": "FeatureCollection",
"lastupdate": "2020-07-26T00:31:07Z",
"features": [
	{"geometry":{"coordinates":[-0.274055,51.407413],"type":"Point"},"properties":{"amenity":"recycling","osm_id":"247278510"},"type":"Feature"},
	{"geometry":{"coordinates":[-0.338106,51.42538],"type":"Point"},"properties":{"amenity":"recycling","osm_id":"322809977","tag":{"opening_hours":"24/7","recycling:cans":"yes","recycling:clothes":"yes","recycling:glass_bottles":"yes","recycling:paper":"yes","recycling:plastic":"yes","recycling_type":"container"}},"type":"Feature"},
	{"geometry":{"coordinates":[-0.340153,51.438932],"type":"Point"},"properties":{"amenity":"recycling","osm_id":"371598851"},"type":"Feature"},
	{"geometry":{"coordinates":[-0.349047,51.438216],"type":"Point"},"properties":{"amenity":"recycling","osm_id":"371598895"},"type":"Feature"},
	{"geometry":{"coordinates":[-0.331171,51.427096],"type":"Point"},"properties":{"amenity":"recycling","osm_id":"381809847"},"type":"Feature"},
	{"geometry":{"coordinates":[-0.333141,51.42702],"type":"Point"},"properties":{"amenity":"recycling","osm_id":"381824797"},"type":"Feature"},
	{"geometry":{"coordinates":[-0.301723,51.415618],"type":"Point"},"properties":{"amenity":"recycling","osm_id":"407209898"},"type":"Feature"},
	{"geometry":{"coordinates":[-0.317765,51.433167],"type":"Point"},"properties":{"amenity":"recycling","osm_id":"432693307"},"type":"Feature"},
	{"geometry":{"coordinates":[-0.28952,51.40333],"type":"Point"},"properties":{"amenity":"recycling","name":"Villiers Road Refuse and Recycling Centre","osm_id":"971867465"},"type":"Feature"},
	{"geometry":{"coordinates":[-0.317165,51.437418],"type":"Point"},"properties":{"amenity":"recycling","osm_id":"1309004263"},"type":"Feature"},
	{"geometry":{"coordinates":[-0.295775,51.418897],"type":"Point"},"properties":{"amenity":"recycling","osm_id":"2461450467","tag":{"recycling:cans":"yes","recycling:plastic":"yes","recycling_type":"container"}},"type":"Feature"},
	{"geometry":{"coordinates":[-0.268665,51.44056],"type":"Point"},"properties":{"amenity":"waste_basket","osm_id":"2823638198","tag":{"waste":"dog_excrement"}},"type":"Feature"},
	{"geometry":{"coordinates":[-0.278098,51.437774],"type":"Point"},"properties":{"amenity":"waste_basket","osm_id":"2823639603","tag":{"waste":"dog_excrement"}},"type":"Feature"},
	{"geometry":{"coordinates":[-0.351172,51.44741],"type":"Point"},"properties":{"amenity":"waste_basket","osm_id":"2834262157"},"type":"Feature"},
	{"geometry":{"coordinates":[-0.34755,51.447066],"type":"Point"},"properties":{"amenity":"waste_basket","osm_id":"2834262722"},"type":"Feature"},
	{"geometry":{"coordinates":[-0.351023,51.446553],"type":"Point"},"properties":{"amenity":"recycling","osm_id":"2834262767"},"type":"Feature"},
	{"geometry":{"coordinates":[-0.347592,51.447051],"type":"Point"},"properties":{"amenity":"recycling","osm_id":"2834262769"},"type":"Feature"},
	{"geometry":{"coordinates":[-0.338349,51.446914],"type":"Point"},"properties":{"amenity":"waste_basket","osm_id":"2834262774"},"type":"Feature"},
	{"geometry":{"coordinates":[-0.301814,51.428633],"type":"Point"},"properties":{"amenity":"waste_basket","osm_id":"2885429179"},"type":"Feature"},
	{"geometry":{"coordinates":[-0.331185,51.446414],"type":"Point"},"properties":{"amenity":"waste_basket","osm_id":"2892230771"},"type":"Feature"},
	{"geometry":{"coordinates":[-0.330662,51.446276],"type":"Point"},"properties":{"amenity":"recycling","osm_id":"2892230772","tag":{"recycling:cans":"yes","recycling:clothes":"yes","recycling:glass":"yes","recycling:paper":"yes"}},"type":"Feature"},
	{"geometry":{"coordinates":[-0.33089,51.44628],"type":"Point"},"properties":{"amenity":"waste_basket","osm_id":"2892511999"},"type":"Feature"},
	{"geometry":{"coordinates":[-0.350974,51.436205],"type":"Point"},"properties":{"amenity":"recycling","osm_id":"2932003228"},"type":"Feature"},
	{"geometry":{"coordinates":[-0.298615,51.426894],"type":"Point"},"properties":{"amenity":"recycling","osm_id":"2944453914","tag":{"recycling:cans":"yes","recycling:clothes":"no","recycling:glass":"no","recycling:paper":"no","recycling:plastic_bottles":"yes","recycling_type":"container"}},"type":"Feature"},
	{"geometry":{"coordinates":[-0.333302,51.427165],"type":"Point"},"properties":{"amenity":"waste_basket","osm_id":"3027872826"},"type":"Feature"},
	{"geometry":{"coordinates":[-0.329497,51.427304],"type":"Point"},"properties":{"amenity":"waste_basket","osm_id":"3027873182"},"type":"Feature"},
	{"geometry":{"coordinates":[-0.332321,51.424435],"type":"Point"},"properties":{"amenity":"recycling","osm_id":"3172583859","tag":{"recycling:batteries":"no","recycling:cans":"yes","recycling:cartons":"yes","recycling:clothes":"yes","recycling:paper":"yes"}},"type":"Feature"},
	{"geometry":{"coordinates":[-0.278901,51.42035],"type":"Point"},"properties":{"amenity":"waste_basket","osm_id":"3373052628"},"type":"Feature"},
	{"geometry":{"coordinates":[-0.349045,51.443515],"type":"Point"},"properties":{"amenity":"waste_basket","osm_id":"3508901431"},"type":"Feature"},
	{"geometry":{"coordinates":[-0.351331,51.442643],"type":"Point"},"properties":{"amenity":"recycling","osm_id":"3508901433","tag":{"recycling:cans":"no","recycling:clothes":"yes","recycling:glass":"no","recycling:paper":"no"}},"type":"Feature"},
	{"geometry":{"coordinates":[-0.347028,51.444038],"type":"Point"},"properties":{"amenity":"waste_basket","osm_id":"3508901435"},"type":"Feature"},
	{"geometry":{"coordinates":[-0.346403,51.444177],"type":"Point"},"properties":{"amenity":"waste_basket","osm_id":"3508901437"},"type":"Feature"},
	{"geometry":{"coordinates":[-0.345999,51.444109],"type":"Point"},"properties":{"amenity":"waste_basket","osm_id":"3508901438"},"type":"Feature"},
	{"geometry":{"coordinates":[-0.345411,51.444352],"type":"Point"},"properties":{"amenity":"waste_basket","osm_id":"3508901439"},"type":"Feature"},
	{"geometry":{"coordinates":[-0.341261,51.444602],"type":"Point"},"properties":{"amenity":"waste_basket","osm_id":"3508901440"},"type":"Feature"},
	{"geometry":{"coordinates":[-0.344425,51.44415],"type":"Point"},"properties":{"amenity":"waste_basket","osm_id":"3539482633"},"type":"Feature"},
	{"geometry":{"coordinates":[-0.351087,51.442752],"type":"Point"},"properties":{"amenity":"recycling","osm_id":"3564239719"},"type":"Feature"},
	{"geometry":{"coordinates":[-0.34424,51.44202],"type":"Point"},"properties":{"amenity":"waste_basket","osm_id":"3599454131"},"type":"Feature"},
	{"geometry":{"coordinates":[-0.345284,51.441463],"type":"Point"},"properties":{"amenity":"waste_basket","osm_id":"3599454191"},"type":"Feature"},
	{"geometry":{"coordinates":[-0.334966,51.425307],"type":"Point"},"properties":{"amenity":"recycling","osm_id":"3600986369","tag":{"opening_hours":"24/7","recycling:glass_bottles":"yes","recycling:paper":"yes","recycling_type":"container"}},"type":"Feature"},
	{"geometry":{"coordinates":[-0.340146,51.426423],"type":"Point"},"properties":{"amenity":"waste_basket","osm_id":"3617009155"},"type":"Feature"},
	{"geometry":{"coordinates":[-0.33982,51.426376],"type":"Point"},"properties":{"amenity":"waste_basket","osm_id":"3617009156"},"type":"Feature"},
	{"geometry":{"coordinates":[-0.335787,51.445423],"type":"Point"},"properties":{"amenity":"waste_basket","osm_id":"3624773179"},"type":"Feature"},
	{"geometry":{"coordinates":[-0.33483,51.445373],"type":"Point"},"properties":{"amenity":"waste_basket","osm_id":"3624999532"},"type":"Feature"},
	{"geometry":{"coordinates":[-0.333707,51.445305],"type":"Point"},"properties":{"amenity":"waste_basket","osm_id":"3625381647"},"type":"Feature"},
	{"geometry":{"coordinates":[-0.332462,51.445261],"type":"Point"},"properties":{"amenity":"waste_basket","osm_id":"3625381672"},"type":"Feature"},
	{"geometry":{"coordinates":[-0.336823,51.445212],"type":"Point"},"properties":{"amenity":"recycling","osm_id":"3958876549","tag":{"location":"overground","recycling_type":"container"}},"type":"Feature"},
	{"geometry":{"coordinates":[-0.340629,51.426405],"type":"Point"},"properties":{"amenity":"waste_basket","osm_id":"4020655610"},"type":"Feature"},
	{"geometry":{"coordinates":[-0.289645,51.441353],"type":"Point"},"properties":{"amenity":"recycling","osm_id":"4131244490"},"type":"Feature"},
	{"geometry":{"coordinates":[-0.286573,51.421094],"type":"Point"},"properties":{"amenity":"waste_basket","name":"Bin","osm_id":"4350373789"},"type":"Feature"},
	{"geometry":{"coordinates":[-0.302408,51.452684],"type":"Point"},"properties":{"amenity":"waste_basket","osm_id":"4443005519"},"type":"Feature"},
	{"geometry":{"coordinates":[-0.302681,51.453231],"type":"Point"},"properties":{"amenity":"waste_basket","osm_id":"4443005563"},"type":"Feature"},
	{"geometry":{"coordinates":[-0.302213,51.452322],"type":"Point"},"properties":{"amenity":"waste_basket","osm_id":"4443005578"},"type":"Feature"},
	{"geometry":{"coordinates":[-0.301443,51.45214],"type":"Point"},"properties":{"amenity":"waste_basket","osm_id":"4443007217"},"type":"Feature"},
	{"geometry":{"coordinates":[-0.301566,51.452643],"type":"Point"},"properties":{"amenity":"waste_basket","osm_id":"4443014894"},"type":"Feature"},
	{"geometry":{"coordinates":[-0.300836,51.453659],"type":"Point"},"properties":{"amenity":"waste_basket","osm_id":"4443017336"},"type":"Feature"},
	{"geometry":{"coordinates":[-0.300407,51.452602],"type":"Point"},"properties":{"amenity":"waste_basket","osm_id":"4443018044"},"type":"Feature"},
	{"geometry":{"coordinates":[-0.307649,51.414735],"type":"Point"},"properties":{"amenity":"waste_basket","osm_id":"4902640378"},"type":"Feature"},
	{"geometry":{"coordinates":[-0.307599,51.415193],"type":"Point"},"properties":{"amenity":"waste_basket","osm_id":"4902640379"},"type":"Feature"},
	{"geometry":{"coordinates":[-0.307538,51.415515],"type":"Point"},"properties":{"amenity":"waste_basket","osm_id":"4902640382"},"type":"Feature"},
	{"geometry":{"coordinates":[-0.307312,51.416179],"type":"Point"},"properties":{"amenity":"waste_basket","osm_id":"4902640385"},"type":"Feature"},
	{"geometry":{"coordinates":[-0.306891,51.416396],"type":"Point"},"properties":{"amenity":"waste_basket","osm_id":"4902640386"},"type":"Feature"},
	{"geometry":{"coordinates":[-0.306692,51.417364],"type":"Point"},"properties":{"amenity":"waste_basket","osm_id":"4902640391"},"type":"Feature"},
	{"geometry":{"coordinates":[-0.306399,51.417766],"type":"Point"},"properties":{"amenity":"waste_basket","osm_id":"4902640392"},"type":"Feature"},
	{"geometry":{"coordinates":[-0.306235,51.417824],"type":"Point"},"properties":{"amenity":"waste_basket","osm_id":"4902640395"},"type":"Feature"},
	{"geometry":{"coordinates":[-0.306263,51.417959],"type":"Point"},"properties":{"amenity":"waste_basket","osm_id":"4902640396"},"type":"Feature"},
	{"geometry":{"coordinates":[-0.30559,51.419265],"type":"Point"},"properties":{"amenity":"waste_basket","osm_id":"4902640410"},"type":"Feature"},
	{"geometry":{"coordinates":[-0.30541,51.419615],"type":"Point"},"properties":{"amenity":"waste_basket","osm_id":"4902640414"},"type":"Feature"},
	{"geometry":{"coordinates":[-0.30524,51.419915],"type":"Point"},"properties":{"amenity":"waste_basket","osm_id":"4902640415"},"type":"Feature"},
	{"geometry":{"coordinates":[-0.30496,51.420255],"type":"Point"},"properties":{"amenity":"waste_basket","osm_id":"4902640722"},"type":"Feature"},
	{"geometry":{"coordinates":[-0.30469,51.419606],"type":"Point"},"properties":{"amenity":"waste_basket","osm_id":"4902669752"},"type":"Feature"},
	{"geometry":{"coordinates":[-0.304936,51.418755],"type":"Point"},"properties":{"amenity":"waste_basket","osm_id":"4902669755"},"type":"Feature"},
	{"geometry":{"coordinates":[-0.304752,51.418638],"type":"Point"},"properties":{"amenity":"waste_basket","osm_id":"4902669759"},"type":"Feature"},
	{"geometry":{"coordinates":[-0.305455,51.418021],"type":"Point"},"properties":{"amenity":"waste_basket","osm_id":"4902669761"},"type":"Feature"},
	{"geometry":{"coordinates":[-0.307563,51.414185],"type":"Point"},"properties":{"amenity":"waste_basket","osm_id":"4902669775"},"type":"Feature"},
	{"geometry":{"coordinates":[-0.320433,51.450803],"type":"Point"},"properties":{"amenity":"waste_basket","osm_id":"4912223202"},"type":"Feature"},
	{"geometry":{"coordinates":[-0.276534,51.443945],"type":"Point"},"properties":{"amenity":"waste_basket","osm_id":"4916239707","tag":{"waste":"trash"}},"type":"Feature"},
	{"geometry":{"coordinates":[-0.276508,51.443939],"type":"Point"},"properties":{"amenity":"waste_basket","osm_id":"4916239708","tag":{"waste":"dog_excrement"}},"type":"Feature"},
	{"geometry":{"coordinates":[-0.343747,51.44362],"type":"Point"},"properties":{"amenity":"waste_basket","osm_id":"5570001305"},"type":"Feature"},
	{"geometry":{"coordinates":[-0.343196,51.442875],"type":"Point"},"properties":{"amenity":"waste_basket","osm_id":"5570001306"},"type":"Feature"},
	{"geometry":{"coordinates":[-0.342919,51.442735],"type":"Point"},"properties":{"amenity":"recycling","osm_id":"5588541480","tag":{"recycling:cardboard":"yes","recycling:paper":"yes","recycling_type":"container"}},"type":"Feature"},
	{"geometry":{"coordinates":[-0.342955,51.442738],"type":"Point"},"properties":{"amenity":"recycling","osm_id":"5588541481","tag":{"recycling:cardboard":"yes","recycling:paper":"yes","recycling_type":"container"}},"type":"Feature"},
	{"geometry":{"coordinates":[-0.34299,51.442741],"type":"Point"},"properties":{"amenity":"recycling","osm_id":"5588541482","tag":{"recycling:cardboard":"yes","recycling:paper":"yes","recycling_type":"container"}},"type":"Feature"},
	{"geometry":{"coordinates":[-0.343026,51.442743],"type":"Point"},"properties":{"amenity":"recycling","osm_id":"5588541483","tag":{"recycling:clothes":"yes","recycling:shoes":"yes","recycling_type":"container"}},"type":"Feature"},
	{"geometry":{"coordinates":[-0.343061,51.442746],"type":"Point"},"properties":{"amenity":"recycling","osm_id":"5588541484","tag":{"recycling:cans":"yes","recycling:glass":"yes","recycling:glass_bottles":"yes","recycling:plastic":"yes","recycling:plastic_bottles":"yes","recycling_type":"container"}},"type":"Feature"},
	{"geometry":{"coordinates":[-0.343097,51.442748],"type":"Point"},"properties":{"amenity":"recycling","osm_id":"5588541485","tag":{"recycling:cans":"yes","recycling:glass":"yes","recycling:glass_bottles":"yes","recycling:plastic":"yes","recycling:plastic_bottles":"yes","recycling_type":"container"}},"type":"Feature"},
	{"geometry":{"coordinates":[-0.343133,51.442751],"type":"Point"},"properties":{"amenity":"recycling","osm_id":"5588541486","tag":{"recycling:cans":"yes","recycling:glass":"yes","recycling:glass_bottles":"yes","recycling:plastic":"yes","recycling:plastic_bottles":"yes","recycling_type":"container"}},"type":"Feature"},
	{"geometry":{"coordinates":[-0.330092,51.449738],"type":"Point"},"properties":{"amenity":"waste_basket","osm_id":"5749889396"},"type":"Feature"},
	{"geometry":{"coordinates":[-0.328127,51.446372],"type":"Point"},"properties":{"amenity":"waste_basket","osm_id":"5960264961","tag":{"waste":"trash"}},"type":"Feature"},
	{"geometry":{"coordinates":[-0.328254,51.448102],"type":"Point"},"properties":{"amenity":"waste_basket","osm_id":"6008643533","tag":{"waste":"trash"}},"type":"Feature"},
	{"geometry":{"coordinates":[-0.328352,51.44815],"type":"Point"},"properties":{"amenity":"waste_basket","osm_id":"6008643534","tag":{"waste":"trash"}},"type":"Feature"},
	{"geometry":{"coordinates":[-0.328498,51.44824],"type":"Point"},"properties":{"amenity":"waste_basket","osm_id":"6024493088","tag":{"waste":"trash"}},"type":"Feature"},
	{"geometry":{"coordinates":[-0.329212,51.448542],"type":"Point"},"properties":{"amenity":"waste_basket","osm_id":"6024493089","tag":{"waste":"trash"}},"type":"Feature"},
	{"geometry":{"coordinates":[-0.333877,51.445153],"type":"Point"},"properties":{"amenity":"waste_basket","osm_id":"6027000514"},"type":"Feature"},
	{"geometry":{"coordinates":[-0.330718,51.445317],"type":"Point"},"properties":{"amenity":"waste_basket","osm_id":"6027000519","tag":{"waste":"trash"}},"type":"Feature"},
	{"geometry":{"coordinates":[-0.33028,51.445384],"type":"Point"},"properties":{"amenity":"waste_basket","osm_id":"6027000520","tag":{"waste":"trash"}},"type":"Feature"},
	{"geometry":{"coordinates":[-0.328371,51.44617],"type":"Point"},"properties":{"amenity":"waste_basket","osm_id":"6027000526","tag":{"waste":"trash"}},"type":"Feature"},
	{"geometry":{"coordinates":[-0.328113,51.446878],"type":"Point"},"properties":{"amenity":"waste_basket","osm_id":"6027000527","tag":{"waste":"trash"}},"type":"Feature"},
	{"geometry":{"coordinates":[-0.329252,51.448283],"type":"Point"},"properties":{"amenity":"waste_basket","osm_id":"6027000528","tag":{"waste":"trash"}},"type":"Feature"},
	{"geometry":{"coordinates":[-0.330702,51.445496],"type":"Point"},"properties":{"amenity":"waste_basket","osm_id":"6027762529","tag":{"waste":"trash"}},"type":"Feature"},
	{"geometry":{"coordinates":[-0.328788,51.446139],"type":"Point"},"properties":{"amenity":"waste_basket","osm_id":"6027762539","tag":{"waste":"trash"}},"type":"Feature"},
	{"geometry":{"coordinates":[-0.32954,51.445754],"type":"Point"},"properties":{"amenity":"waste_basket","osm_id":"6027762548","tag":{"waste":"trash"}},"type":"Feature"},
	{"geometry":{"coordinates":[-0.331582,51.4452],"type":"Point"},"properties":{"amenity":"waste_basket","osm_id":"6403015562"},"type":"Feature"},
	{"geometry":{"coordinates":[-0.337872,51.445347],"type":"Point"},"properties":{"amenity":"waste_basket","osm_id":"6446595091"},"type":"Feature"},
	{"geometry":{"coordinates":[-0.337882,51.445301],"type":"Point"},"properties":{"amenity":"waste_basket","osm_id":"6446595092"},"type":"Feature"},
	{"geometry":{"coordinates":[-0.327468,51.4457],"type":"Point"},"properties":{"amenity":"waste_basket","osm_id":"6519221298"},"type":"Feature"},
	{"geometry":{"coordinates":[-0.323816,51.428546],"type":"Point"},"properties":{"amenity":"waste_basket","osm_id":"6989593621"},"type":"Feature"},
	{"geometry":{"coordinates":[-0.340486,51.427097],"type":"Point"},"properties":{"amenity":"recycling","osm_id":"7580327014","tag":{"recycling:glass_bottles":"yes","recycling:paper":"yes","recycling:plastic":"yes","recycling_type":"container"}},"type":"Feature"},
	{"geometry":{"coordinates":[-0.332809,51.411602],"type":"Point"},"properties":{"amenity":"waste_basket","osm_id":"7588378653"},"type":"Feature"}
]
}
