{
"type": "FeatureCollection",
"lastupdate": "2020-07-25T00:42:33Z",
"features": [
	{"geometry":{"coordinates":[-2.588978,53.547958],"type":"Point"},"properties":{"amenity":"recycling","osm_id":"1411593798"},"type":"Feature"},
	{"geometry":{"coordinates":[-2.626584,53.547249],"type":"Point"},"properties":{"amenity":"recycling","osm_id":"3452608185"},"type":"Feature"},
	{"geometry":{"coordinates":[-2.576043,53.540638],"type":"Point"},"properties":{"amenity":"waste_basket","osm_id":"4726285185"},"type":"Feature"},
	{"geometry":{"coordinates":[-2.627282,53.544973],"type":"Point"},"properties":{"amenity":"waste_basket","osm_id":"5050071449"},"type":"Feature"},
	{"geometry":{"coordinates":[-2.621144,53.554521],"type":"Point"},"properties":{"amenity":"waste_basket","osm_id":"7173386042","tag":{"waste":"litter"}},"type":"Feature"},
	{"geometry":{"coordinates":[-2.622949,53.552363],"type":"Point"},"properties":{"amenity":"waste_basket","osm_id":"7173386044","tag":{"waste":"litter"}},"type":"Feature"},
	{"geometry":{"coordinates":[-2.619288,53.551759],"type":"Point"},"properties":{"amenity":"waste_basket","osm_id":"7176059145","tag":{"waste":"trash"}},"type":"Feature"},
	{"geometry":{"coordinates":[-2.618102,53.552479],"type":"Point"},"properties":{"amenity":"waste_basket","osm_id":"7179505995","tag":{"waste":"trash"}},"type":"Feature"}
]
}
