{
"type": "FeatureCollection",
"lastupdate": "2020-07-30T00:29:16Z",
"features": [
	{"geometry":{"coordinates":[-2.5703,51.928197],"type":"Point"},"properties":{"amenity":"waste_basket","osm_id":"1735875672"},"type":"Feature"},
	{"geometry":{"coordinates":[-2.570064,51.928272],"type":"Point"},"properties":{"amenity":"waste_basket","osm_id":"1735875691"},"type":"Feature"},
	{"geometry":{"coordinates":[-2.577132,51.916237],"type":"Point"},"properties":{"amenity":"recycling","name":"Ross-on-wye household recycling","osm_id":"3301661836"},"type":"Feature"},
	{"geometry":{"coordinates":[-2.58873,51.91371],"type":"Point"},"properties":{"amenity":"waste_basket","osm_id":"6685539748"},"type":"Feature"},
	{"geometry":{"coordinates":[-2.589021,51.913595],"type":"Point"},"properties":{"amenity":"waste_basket","osm_id":"6685599000"},"type":"Feature"},
	{"geometry":{"coordinates":[-2.589473,51.913399],"type":"Point"},"properties":{"amenity":"waste_basket","osm_id":"6685606953"},"type":"Feature"}
]
}
