{
"type": "FeatureCollection",
"lastupdate": "2020-07-31T01:06:47Z",
"features": [
	{"geometry":{"coordinates":[-1.241126,50.865112],"type":"Point"},"properties":{"amenity":"recycling","osm_id":"244210733"},"type":"Feature"},
	{"geometry":{"coordinates":[-1.236011,50.850106],"type":"Point"},"properties":{"amenity":"recycling","osm_id":"2267497810","tag":{"recycling:batteries":"no","recycling:books":"no","recycling:cans":"no","recycling:cardboard":"no","recycling:cartons":"no","recycling:clothes":"yes","recycling:electrical_appliances":"no","recycling:glass":"no","recycling:glass_bottles":"yes","recycling:green_waste":"no","recycling:magazines":"no","recycling:paper":"no","recycling:paper_packaging":"no","recycling:plastic":"no","recycling:plastic_packaging":"no","recycling:small_appliances":"no","recycling:waste":"no","recycling_type":"container"}},"type":"Feature"},
	{"geometry":{"coordinates":[-1.290099,50.868045],"type":"Point"},"properties":{"amenity":"recycling","osm_id":"2529241061","tag":{"recycling_type":"container"}},"type":"Feature"},
	{"geometry":{"coordinates":[-1.282515,50.859741],"type":"Point"},"properties":{"amenity":"recycling","osm_id":"2529241145"},"type":"Feature"},
	{"geometry":{"coordinates":[-1.274686,50.864485],"type":"Point"},"properties":{"amenity":"recycling","osm_id":"2529264450"},"type":"Feature"},
	{"geometry":{"coordinates":[-1.262992,50.894367],"type":"Point"},"properties":{"amenity":"recycling","osm_id":"2661431806"},"type":"Feature"},
	{"geometry":{"coordinates":[-1.267595,50.872923],"type":"Point"},"properties":{"amenity":"recycling","osm_id":"3703566686","tag":{"recycling:glass":"yes","recycling:glass_bottles":"yes","recycling_type":"container"}},"type":"Feature"},
	{"geometry":{"coordinates":[-1.267612,50.872926],"type":"Point"},"properties":{"amenity":"recycling","osm_id":"3703566687","tag":{"recycling:glass":"yes","recycling:glass_bottles":"yes","recycling_type":"container"}},"type":"Feature"},
	{"geometry":{"coordinates":[-1.26763,50.87293],"type":"Point"},"properties":{"amenity":"recycling","osm_id":"3703566688","tag":{"recycling:glass":"yes","recycling:glass_bottles":"yes","recycling_type":"container"}},"type":"Feature"},
	{"geometry":{"coordinates":[-1.267594,50.87295],"type":"Point"},"properties":{"amenity":"recycling","osm_id":"3703566689","tag":{"recycling:glass":"yes","recycling:glass_bottles":"yes","recycling_type":"container"}},"type":"Feature"},
	{"geometry":{"coordinates":[-1.267667,50.872955],"type":"Point"},"properties":{"amenity":"recycling","osm_id":"3703566690","tag":{"recycling:books":"yes","recycling:cds":"yes","recycling_type":"container"}},"type":"Feature"},
	{"geometry":{"coordinates":[-1.267646,50.872957],"type":"Point"},"properties":{"amenity":"recycling","osm_id":"3703566691","tag":{"recycling:glass":"yes","recycling:glass_bottles":"yes","recycling_type":"container"}},"type":"Feature"},
	{"geometry":{"coordinates":[-1.267605,50.872961],"type":"Point"},"properties":{"amenity":"recycling","osm_id":"3703566692","tag":{"recycling:glass":"yes","recycling:glass_bottles":"yes","recycling_type":"container"}},"type":"Feature"},
	{"geometry":{"coordinates":[-1.267661,50.872966],"type":"Point"},"properties":{"amenity":"recycling","osm_id":"3703566693","tag":{"recycling:clothes":"yes","recycling:shoes":"yes","recycling_type":"container"}},"type":"Feature"},
	{"geometry":{"coordinates":[-1.267639,50.872968],"type":"Point"},"properties":{"amenity":"recycling","osm_id":"3703566694","tag":{"recycling:glass":"yes","recycling:glass_bottles":"yes","recycling_type":"container"}},"type":"Feature"},
	{"geometry":{"coordinates":[-1.267654,50.872976],"type":"Point"},"properties":{"amenity":"recycling","osm_id":"3703566695","tag":{"recycling:clothes":"yes","recycling:shoes":"yes","recycling_type":"container"}},"type":"Feature"},
	{"geometry":{"coordinates":[-1.267633,50.87298],"type":"Point"},"properties":{"amenity":"recycling","osm_id":"3703566696","tag":{"recycling:glass":"yes","recycling:glass_bottles":"yes","recycling_type":"container"}},"type":"Feature"},
	{"geometry":{"coordinates":[-1.267647,50.872987],"type":"Point"},"properties":{"amenity":"recycling","osm_id":"3703566697","tag":{"recycling:shoes":"yes","recycling_type":"container"}},"type":"Feature"},
	{"geometry":{"coordinates":[-1.247414,50.886701],"type":"Point"},"properties":{"amenity":"recycling","osm_id":"3703566719","tag":{"operator":"Scope","recycling:clothes":"yes","recycling:shoes":"yes","recycling_type":"container"}},"type":"Feature"},
	{"geometry":{"coordinates":[-1.247404,50.886713],"type":"Point"},"properties":{"amenity":"recycling","osm_id":"3703566720","tag":{"operator":"Scope","recycling:clothes":"yes","recycling:shoes":"yes","recycling_type":"container"}},"type":"Feature"},
	{"geometry":{"coordinates":[-1.247394,50.886725],"type":"Point"},"properties":{"amenity":"recycling","osm_id":"3703566721","tag":{"operator":"Hampshire and Isle of Wight Air Ambulance","recycling:clothes":"yes","recycling:shoes":"yes","recycling_type":"container"}},"type":"Feature"},
	{"geometry":{"coordinates":[-1.247387,50.886736],"type":"Point"},"properties":{"amenity":"recycling","osm_id":"3703566722","tag":{"operator":"Oxfam","recycling:books":"yes","recycling:cds":"yes","recycling:dvds":"yes","recycling_type":"container"}},"type":"Feature"},
	{"geometry":{"coordinates":[-1.247383,50.88674],"type":"Point"},"properties":{"amenity":"recycling","osm_id":"3703566723","tag":{"recycling:clothes":"no","recycling:shoes":"yes","recycling_type":"container"}},"type":"Feature"},
	{"geometry":{"coordinates":[-1.24738,50.886745],"type":"Point"},"properties":{"amenity":"recycling","osm_id":"3703566724","tag":{"recycling:clothes":"no","recycling:shoes":"yes","recycling_type":"container"}},"type":"Feature"},
	{"geometry":{"coordinates":[-1.247389,50.886762],"type":"Point"},"properties":{"amenity":"recycling","osm_id":"3703566925","tag":{"recycling:glass":"yes","recycling:glass_bottles":"yes","recycling_type":"container"}},"type":"Feature"},
	{"geometry":{"coordinates":[-1.247368,50.886783],"type":"Point"},"properties":{"amenity":"recycling","osm_id":"3703566926","tag":{"recycling:glass":"yes","recycling:glass_bottles":"yes","recycling_type":"container"}},"type":"Feature"},
	{"geometry":{"coordinates":[-1.266645,50.881903],"type":"Point"},"properties":{"amenity":"waste_basket","osm_id":"3814567479","tag":{"waste":"dog_excrement"}},"type":"Feature"},
	{"geometry":{"coordinates":[-1.265518,50.882599],"type":"Point"},"properties":{"amenity":"waste_basket","osm_id":"3814567584"},"type":"Feature"},
	{"geometry":{"coordinates":[-1.250069,50.881708],"type":"Point"},"properties":{"amenity":"waste_basket","osm_id":"3980934233"},"type":"Feature"},
	{"geometry":{"coordinates":[-1.249922,50.884695],"type":"Point"},"properties":{"amenity":"waste_basket","osm_id":"3996362700"},"type":"Feature"},
	{"geometry":{"coordinates":[-1.316374,50.889544],"type":"Point"},"properties":{"amenity":"waste_basket","osm_id":"4594321872"},"type":"Feature"},
	{"geometry":{"coordinates":[-1.316199,50.889664],"type":"Point"},"properties":{"amenity":"waste_basket","osm_id":"4594322957"},"type":"Feature"},
	{"geometry":{"coordinates":[-1.298189,50.853092],"type":"Point"},"properties":{"amenity":"recycling","osm_id":"4770169617","tag":{"recycling:clothes":"yes","recycling:shoes":"yes","recycling_type":"container"}},"type":"Feature"},
	{"geometry":{"coordinates":[-1.312069,50.868031],"type":"Point"},"properties":{"amenity":"waste_basket","osm_id":"6066077090"},"type":"Feature"}
]
}
