{
"type": "FeatureCollection",
"lastupdate": "2020-07-29T00:24:51Z",
"features": [
	{"geometry":{"coordinates":[-1.244859,50.690633],"type":"Point"},"properties":{"amenity":"recycling","name":"Lynbottom Recycling Centre","osm_id":"286869168","tag":{"addr:city":"Newport","addr:postcode":"PO30 2PD","addr:street":"Briddlesford Road","opening_hours":"Nov-Mar: 10:00-18:00; Apr-Oct: 7:00-20:00; Dec 25 off","recycling_type":"centre"}},"type":"Feature"},
	{"geometry":{"coordinates":[-1.27813,50.724547],"type":"Point"},"properties":{"amenity":"recycling","osm_id":"2388468334","tag":{"recycling:glass":"yes","recycling:glass_bottles":"yes","recycling_type":"container"}},"type":"Feature"},
	{"geometry":{"coordinates":[-1.277775,50.72454],"type":"Point"},"properties":{"amenity":"waste_basket","osm_id":"2388468335"},"type":"Feature"},
	{"geometry":{"coordinates":[-1.278494,50.724559],"type":"Point"},"properties":{"amenity":"waste_basket","osm_id":"2388468337"},"type":"Feature"},
	{"geometry":{"coordinates":[-1.290784,50.702959],"type":"Point"},"properties":{"amenity":"recycling","osm_id":"3203313970"},"type":"Feature"},
	{"geometry":{"coordinates":[-1.29247,50.697552],"type":"Point"},"properties":{"amenity":"recycling","osm_id":"3203313971","tag":{"location":"overground","recycling_type":"container"}},"type":"Feature"},
	{"geometry":{"coordinates":[-1.240736,50.686216],"type":"Point"},"properties":{"amenity":"waste_basket","osm_id":"5911176057"},"type":"Feature"},
	{"geometry":{"coordinates":[-1.28407,50.69878],"type":"Point"},"properties":{"amenity":"waste_basket","osm_id":"7146505925","tag":{"waste":"trash"}},"type":"Feature"}
]
}
