{
"type": "FeatureCollection",
"lastupdate": "2020-07-27T00:28:31Z",
"features": [
	{"geometry":{"coordinates":[-1.554392,55.06489],"type":"Point"},"properties":{"amenity":"recycling","osm_id":"685890998","tag":{"recycling:cans":"yes","recycling:glass":"yes"}},"type":"Feature"},
	{"geometry":{"coordinates":[-1.511798,55.067168],"type":"Point"},"properties":{"amenity":"recycling","osm_id":"706590831","tag":{"recycling:glass":"yes"}},"type":"Feature"},
	{"geometry":{"coordinates":[-1.567324,55.038217],"type":"Point"},"properties":{"amenity":"recycling","name":"Recycling Point","osm_id":"796206538","tag":{"recycling:cans":"yes","recycling:clothes":"yes","recycling:glass":"yes","recycling:paper":"yes","recycling_type":"container"}},"type":"Feature"},
	{"geometry":{"coordinates":[-1.507762,55.064312],"type":"Point"},"properties":{"amenity":"waste_basket","osm_id":"4841364100"},"type":"Feature"},
	{"geometry":{"coordinates":[-1.566937,55.03619],"type":"Point"},"properties":{"amenity":"waste_basket","osm_id":"6192925504"},"type":"Feature"},
	{"geometry":{"coordinates":[-1.566852,55.036131],"type":"Point"},"properties":{"amenity":"waste_basket","osm_id":"6192925536"},"type":"Feature"},
	{"geometry":{"coordinates":[-1.518113,55.028075],"type":"Point"},"properties":{"amenity":"recycling","osm_id":"6226249841","tag":{"recycling:clothes":"yes","recycling_type":"container"}},"type":"Feature"},
	{"geometry":{"coordinates":[-1.561152,55.037165],"type":"Point"},"properties":{"amenity":"waste_basket","osm_id":"7208868268","tag":{"waste":"dog_excrement"}},"type":"Feature"},
	{"geometry":{"coordinates":[-1.564775,55.036089],"type":"Point"},"properties":{"amenity":"recycling","osm_id":"7208868386","tag":{"opening_hours":"24/7","recycling:cans":"yes","recycling:cardboard":"yes","recycling:paper":"yes","recycling:plastic_bottles":"yes","recycling_type":"container"}},"type":"Feature"},
	{"geometry":{"coordinates":[-1.52632,55.071576],"type":"Point"},"properties":{"amenity":"waste_basket","osm_id":"7393490254"},"type":"Feature"}
]
}
