{
"type": "FeatureCollection",
"lastupdate": "2020-07-24T00:48:03Z",
"features": [
	{"geometry":{"coordinates":[-1.539697,55.020233],"type":"Point"},"properties":{"amenity":"recycling","osm_id":"768806441"},"type":"Feature"},
	{"geometry":{"coordinates":[-1.576737,54.977644],"type":"Point"},"properties":{"amenity":"waste_basket","osm_id":"4159096511"},"type":"Feature"},
	{"geometry":{"coordinates":[-1.577063,54.977708],"type":"Point"},"properties":{"amenity":"waste_basket","osm_id":"4160890373"},"type":"Feature"},
	{"geometry":{"coordinates":[-1.57681,54.977776],"type":"Point"},"properties":{"amenity":"waste_basket","osm_id":"4160890381"},"type":"Feature"},
	{"geometry":{"coordinates":[-1.520778,54.97958],"type":"Point"},"properties":{"amenity":"waste_basket","osm_id":"4353999088"},"type":"Feature"},
	{"geometry":{"coordinates":[-1.505405,54.979992],"type":"Point"},"properties":{"amenity":"waste_basket","osm_id":"4355195651"},"type":"Feature"},
	{"geometry":{"coordinates":[-1.543334,54.986021],"type":"Point"},"properties":{"amenity":"recycling","osm_id":"4629609154","tag":{"recycling_type":"container"}},"type":"Feature"},
	{"geometry":{"coordinates":[-1.560168,54.984323],"type":"Point"},"properties":{"amenity":"waste_basket","osm_id":"4631847413"},"type":"Feature"},
	{"geometry":{"coordinates":[-1.561174,54.984048],"type":"Point"},"properties":{"amenity":"waste_basket","osm_id":"4631847815"},"type":"Feature"},
	{"geometry":{"coordinates":[-1.575801,54.983205],"type":"Point"},"properties":{"amenity":"waste_basket","osm_id":"4637279655"},"type":"Feature"},
	{"geometry":{"coordinates":[-1.508069,54.991197],"type":"Point"},"properties":{"amenity":"recycling","name":"Acorn","osm_id":"4647423827","tag":{"recycling_type":"centre"}},"type":"Feature"},
	{"geometry":{"coordinates":[-1.536222,54.990491],"type":"Point"},"properties":{"amenity":"recycling","name":"Community Link","osm_id":"4656569126","tag":{"addr:city":"Wallsend","addr:street":"High Street West","phone":"+44 300 365 2121","recycling_type":"centre"}},"type":"Feature"},
	{"geometry":{"coordinates":[-1.531719,54.991465],"type":"Point"},"properties":{"amenity":"waste_basket","osm_id":"4656616970"},"type":"Feature"},
	{"geometry":{"coordinates":[-1.529669,54.991574],"type":"Point"},"properties":{"amenity":"recycling","name":"The Cash For Clothes Shop","osm_id":"4656630997","tag":{"addr:city":"Wallsend","addr:street":"High Street East","recycling_type":"centre"}},"type":"Feature"},
	{"geometry":{"coordinates":[-1.52809,54.991846],"type":"Point"},"properties":{"amenity":"waste_basket","osm_id":"4656631013"},"type":"Feature"},
	{"geometry":{"coordinates":[-1.535156,54.990845],"type":"Point"},"properties":{"amenity":"waste_basket","osm_id":"4656790101"},"type":"Feature"},
	{"geometry":{"coordinates":[-1.534462,54.991185],"type":"Point"},"properties":{"amenity":"waste_basket","osm_id":"4656790109"},"type":"Feature"},
	{"geometry":{"coordinates":[-1.534555,54.991296],"type":"Point"},"properties":{"amenity":"waste_basket","osm_id":"4656790110"},"type":"Feature"},
	{"geometry":{"coordinates":[-1.534619,54.991427],"type":"Point"},"properties":{"amenity":"waste_basket","osm_id":"4656790111"},"type":"Feature"},
	{"geometry":{"coordinates":[-1.53426,54.991765],"type":"Point"},"properties":{"amenity":"waste_basket","osm_id":"4667434024"},"type":"Feature"},
	{"geometry":{"coordinates":[-1.529869,54.992029],"type":"Point"},"properties":{"amenity":"recycling","osm_id":"4667572416","tag":{"recycling_type":"container"}},"type":"Feature"},
	{"geometry":{"coordinates":[-1.526535,54.992217],"type":"Point"},"properties":{"amenity":"waste_basket","osm_id":"4667572431"},"type":"Feature"},
	{"geometry":{"coordinates":[-1.494555,54.996574],"type":"Point"},"properties":{"amenity":"recycling","osm_id":"4668370612","tag":{"recycling_type":"container"}},"type":"Feature"},
	{"geometry":{"coordinates":[-1.494344,54.99785],"type":"Point"},"properties":{"amenity":"waste_basket","osm_id":"4668370635"},"type":"Feature"},
	{"geometry":{"coordinates":[-1.517937,55.004258],"type":"Point"},"properties":{"amenity":"waste_basket","osm_id":"4668470505"},"type":"Feature"},
	{"geometry":{"coordinates":[-1.503271,54.99677],"type":"Point"},"properties":{"amenity":"waste_basket","osm_id":"4671232960"},"type":"Feature"},
	{"geometry":{"coordinates":[-1.503053,54.996355],"type":"Point"},"properties":{"amenity":"recycling","osm_id":"4671232961","tag":{"recycling_type":"container"}},"type":"Feature"},
	{"geometry":{"coordinates":[-1.57943,54.996183],"type":"Point"},"properties":{"amenity":"recycling","osm_id":"6109452553","tag":{"recycling_type":"centre"}},"type":"Feature"},
	{"geometry":{"coordinates":[-1.503232,54.996623],"type":"Point"},"properties":{"amenity":"recycling","osm_id":"6192925519","tag":{"recycling_type":"container"}},"type":"Feature"},
	{"geometry":{"coordinates":[-1.578471,55.008493],"type":"Point"},"properties":{"amenity":"recycling","osm_id":"6192925532","tag":{"recycling:paper":"yes","recycling:plastic_bottles":"yes","recycling_type":"container"}},"type":"Feature"},
	{"geometry":{"coordinates":[-1.576839,54.986456],"type":"Point"},"properties":{"amenity":"waste_basket","osm_id":"6195181776"},"type":"Feature"},
	{"geometry":{"coordinates":[-1.505689,55.007826],"type":"Point"},"properties":{"amenity":"waste_basket","osm_id":"6270814222"},"type":"Feature"},
	{"geometry":{"coordinates":[-1.50992,55.006954],"type":"Point"},"properties":{"amenity":"waste_basket","osm_id":"6270814238"},"type":"Feature"},
	{"geometry":{"coordinates":[-1.535544,55.001712],"type":"Point"},"properties":{"amenity":"waste_basket","osm_id":"6282314111"},"type":"Feature"},
	{"geometry":{"coordinates":[-1.509696,55.006341],"type":"Point"},"properties":{"amenity":"waste_basket","osm_id":"6381578001"},"type":"Feature"},
	{"geometry":{"coordinates":[-1.527845,54.995216],"type":"Point"},"properties":{"amenity":"waste_basket","osm_id":"6439972244"},"type":"Feature"},
	{"geometry":{"coordinates":[-1.528124,55.004619],"type":"Point"},"properties":{"amenity":"waste_basket","osm_id":"6449191706"},"type":"Feature"},
	{"geometry":{"coordinates":[-1.526622,54.992122],"type":"Point"},"properties":{"amenity":"waste_basket","osm_id":"6473203329"},"type":"Feature"},
	{"geometry":{"coordinates":[-1.505501,55.027854],"type":"Point"},"properties":{"amenity":"waste_basket","osm_id":"6486443689"},"type":"Feature"},
	{"geometry":{"coordinates":[-1.555383,54.987906],"type":"Point"},"properties":{"amenity":"waste_basket","osm_id":"6681947471"},"type":"Feature"},
	{"geometry":{"coordinates":[-1.545679,54.999088],"type":"Point"},"properties":{"amenity":"waste_basket","osm_id":"7208868265"},"type":"Feature"},
	{"geometry":{"coordinates":[-1.543884,54.986817],"type":"Point"},"properties":{"amenity":"waste_basket","osm_id":"7230817017"},"type":"Feature"},
	{"geometry":{"coordinates":[-1.544815,54.986823],"type":"Point"},"properties":{"amenity":"waste_basket","osm_id":"7230817018"},"type":"Feature"}
]
}
