{
"type": "FeatureCollection",
"lastupdate": "2020-07-27T00:28:31Z",
"features": [
	{"geometry":{"coordinates":[-1.575259,54.780515],"type":"Point"},"properties":{"amenity":"recycling","osm_id":"244319738","tag":{" & clear glass bottles in seperate boxes":null," brown":null,"description":"green","recycling:cans":"yes","recycling:glass_bottles":"yes"}},"type":"Feature"},
	{"geometry":{"coordinates":[-1.533822,54.785343],"type":"Point"},"properties":{"amenity":"waste_basket","osm_id":"288578330","tag":{"waste":"dog_excrement"}},"type":"Feature"},
	{"geometry":{"coordinates":[-1.547306,54.789175],"type":"Point"},"properties":{"amenity":"waste_basket","osm_id":"292273452"},"type":"Feature"},
	{"geometry":{"coordinates":[-1.578567,54.80751],"type":"Point"},"properties":{"amenity":"recycling","osm_id":"300057869"},"type":"Feature"},
	{"geometry":{"coordinates":[-1.578826,54.807627],"type":"Point"},"properties":{"amenity":"recycling","osm_id":"300057871"},"type":"Feature"},
	{"geometry":{"coordinates":[-1.572137,54.775495],"type":"Point"},"properties":{"amenity":"waste_basket","osm_id":"309784664"},"type":"Feature"},
	{"geometry":{"coordinates":[-1.575069,54.776522],"type":"Point"},"properties":{"amenity":"waste_basket","osm_id":"309785011"},"type":"Feature"},
	{"geometry":{"coordinates":[-1.574603,54.777686],"type":"Point"},"properties":{"amenity":"waste_basket","osm_id":"355845810"},"type":"Feature"},
	{"geometry":{"coordinates":[-1.572588,54.776921],"type":"Point"},"properties":{"amenity":"waste_basket","osm_id":"355846287"},"type":"Feature"},
	{"geometry":{"coordinates":[-1.572313,54.775822],"type":"Point"},"properties":{"amenity":"waste_basket","osm_id":"355846398"},"type":"Feature"},
	{"geometry":{"coordinates":[-1.574001,54.776019],"type":"Point"},"properties":{"amenity":"waste_basket","osm_id":"365633691"},"type":"Feature"},
	{"geometry":{"coordinates":[-1.573849,54.776068],"type":"Point"},"properties":{"amenity":"waste_basket","osm_id":"365633699","tag":{"layer":"1","location":"bridge"}},"type":"Feature"},
	{"geometry":{"coordinates":[-1.572943,54.775883],"type":"Point"},"properties":{"amenity":"waste_basket","osm_id":"365633768","tag":{"layer":"1","location":"bridge"}},"type":"Feature"},
	{"geometry":{"coordinates":[-1.578879,54.783519],"type":"Point"},"properties":{"amenity":"waste_basket","osm_id":"385603875"},"type":"Feature"},
	{"geometry":{"coordinates":[-1.579274,54.783692],"type":"Point"},"properties":{"amenity":"waste_basket","osm_id":"385603876"},"type":"Feature"},
	{"geometry":{"coordinates":[-1.578913,54.783905],"type":"Point"},"properties":{"amenity":"waste_basket","osm_id":"385603877"},"type":"Feature"},
	{"geometry":{"coordinates":[-1.579909,54.783657],"type":"Point"},"properties":{"amenity":"waste_basket","osm_id":"385603878"},"type":"Feature"},
	{"geometry":{"coordinates":[-1.580492,54.784004],"type":"Point"},"properties":{"amenity":"waste_basket","osm_id":"385606668","tag":{"waste":"dog_excrement"}},"type":"Feature"},
	{"geometry":{"coordinates":[-1.581196,54.784291],"type":"Point"},"properties":{"amenity":"waste_basket","osm_id":"385607318"},"type":"Feature"},
	{"geometry":{"coordinates":[-1.577204,54.779542],"type":"Point"},"properties":{"amenity":"waste_basket","osm_id":"391426662","tag":{"colour":"black"}},"type":"Feature"},
	{"geometry":{"coordinates":[-1.577433,54.77895],"type":"Point"},"properties":{"amenity":"waste_basket","osm_id":"391426663","tag":{"colour":"black"}},"type":"Feature"},
	{"geometry":{"coordinates":[-1.578598,54.785906],"type":"Point"},"properties":{"amenity":"waste_basket","osm_id":"441791253","tag":{"waste":"dog_excrement"}},"type":"Feature"},
	{"geometry":{"coordinates":[-1.578675,54.786678],"type":"Point"},"properties":{"amenity":"waste_basket","osm_id":"441791388","tag":{"waste":"dog_excrement"}},"type":"Feature"},
	{"geometry":{"coordinates":[-1.575857,54.779412],"type":"Point"},"properties":{"amenity":"waste_basket","osm_id":"444549252"},"type":"Feature"},
	{"geometry":{"coordinates":[-1.574526,54.78061],"type":"Point"},"properties":{"amenity":"waste_basket","osm_id":"444552644"},"type":"Feature"},
	{"geometry":{"coordinates":[-1.576054,54.779927],"type":"Point"},"properties":{"amenity":"waste_basket","osm_id":"444553130"},"type":"Feature"},
	{"geometry":{"coordinates":[-1.575187,54.781531],"type":"Point"},"properties":{"amenity":"waste_basket","osm_id":"444574426","tag":{"vending":"excrement_bags","waste":"dog_excrement"}},"type":"Feature"},
	{"geometry":{"coordinates":[-1.563612,54.778434],"type":"Point"},"properties":{"amenity":"waste_basket","osm_id":"922657741"},"type":"Feature"},
	{"geometry":{"coordinates":[-1.558104,54.778769],"type":"Point"},"properties":{"amenity":"waste_basket","osm_id":"922658108"},"type":"Feature"},
	{"geometry":{"coordinates":[-1.555973,54.779857],"type":"Point"},"properties":{"amenity":"waste_basket","osm_id":"922658776"},"type":"Feature"},
	{"geometry":{"coordinates":[-1.568962,54.778687],"type":"Point"},"properties":{"amenity":"waste_basket","osm_id":"950480362"},"type":"Feature"},
	{"geometry":{"coordinates":[-1.576221,54.77849],"type":"Point"},"properties":{"amenity":"waste_basket","osm_id":"950793188"},"type":"Feature"},
	{"geometry":{"coordinates":[-1.572584,54.778929],"type":"Point"},"properties":{"amenity":"waste_basket","osm_id":"950794694"},"type":"Feature"},
	{"geometry":{"coordinates":[-1.566371,54.778564],"type":"Point"},"properties":{"amenity":"waste_basket","osm_id":"1108410522"},"type":"Feature"},
	{"geometry":{"coordinates":[-1.571955,54.778352],"type":"Point"},"properties":{"amenity":"waste_basket","osm_id":"1108411136"},"type":"Feature"},
	{"geometry":{"coordinates":[-1.577541,54.776081],"type":"Point"},"properties":{"amenity":"waste_basket","osm_id":"1574784864"},"type":"Feature"},
	{"geometry":{"coordinates":[-1.575887,54.776955],"type":"Point"},"properties":{"amenity":"waste_basket","osm_id":"1574785355"},"type":"Feature"},
	{"geometry":{"coordinates":[-1.575471,54.777002],"type":"Point"},"properties":{"amenity":"waste_basket","osm_id":"1574785423"},"type":"Feature"},
	{"geometry":{"coordinates":[-1.575779,54.777071],"type":"Point"},"properties":{"amenity":"waste_basket","osm_id":"1574785489"},"type":"Feature"},
	{"geometry":{"coordinates":[-1.575713,54.777143],"type":"Point"},"properties":{"amenity":"waste_basket","osm_id":"1574785541"},"type":"Feature"},
	{"geometry":{"coordinates":[-1.575391,54.777175],"type":"Point"},"properties":{"amenity":"waste_basket","osm_id":"1574785559"},"type":"Feature"},
	{"geometry":{"coordinates":[-1.573713,54.778031],"type":"Point"},"properties":{"amenity":"waste_basket","osm_id":"1574785604"},"type":"Feature"},
	{"geometry":{"coordinates":[-1.573458,54.778084],"type":"Point"},"properties":{"amenity":"waste_basket","osm_id":"1574785605"},"type":"Feature"},
	{"geometry":{"coordinates":[-1.575044,54.778201],"type":"Point"},"properties":{"amenity":"waste_basket","osm_id":"1574785606"},"type":"Feature"},
	{"geometry":{"coordinates":[-1.57261,54.778202],"type":"Point"},"properties":{"amenity":"waste_basket","osm_id":"1574785607"},"type":"Feature"},
	{"geometry":{"coordinates":[-1.575415,54.778366],"type":"Point"},"properties":{"amenity":"waste_basket","osm_id":"1574785608","tag":{"capacity":"limited"}},"type":"Feature"},
	{"geometry":{"coordinates":[-1.569668,54.77858],"type":"Point"},"properties":{"amenity":"waste_basket","osm_id":"1574785610"},"type":"Feature"},
	{"geometry":{"coordinates":[-1.574014,54.776689],"type":"Point"},"properties":{"amenity":"waste_basket","osm_id":"1600046364"},"type":"Feature"},
	{"geometry":{"coordinates":[-1.573781,54.776712],"type":"Point"},"properties":{"amenity":"waste_basket","osm_id":"1600046410"},"type":"Feature"},
	{"geometry":{"coordinates":[-1.573778,54.77675],"type":"Point"},"properties":{"amenity":"waste_basket","osm_id":"1600046487"},"type":"Feature"},
	{"geometry":{"coordinates":[-1.575521,54.776823],"type":"Point"},"properties":{"amenity":"waste_basket","osm_id":"1600046533"},"type":"Feature"},
	{"geometry":{"coordinates":[-1.574217,54.776942],"type":"Point"},"properties":{"amenity":"waste_basket","osm_id":"1600046589"},"type":"Feature"},
	{"geometry":{"coordinates":[-1.574415,54.777014],"type":"Point"},"properties":{"amenity":"waste_basket","osm_id":"1600046623"},"type":"Feature"},
	{"geometry":{"coordinates":[-1.580037,54.776004],"type":"Point"},"properties":{"amenity":"waste_basket","osm_id":"2594368987"},"type":"Feature"},
	{"geometry":{"coordinates":[-1.581401,54.776006],"type":"Point"},"properties":{"amenity":"waste_basket","osm_id":"2594368988"},"type":"Feature"},
	{"geometry":{"coordinates":[-1.578404,54.776069],"type":"Point"},"properties":{"amenity":"waste_basket","osm_id":"2594368992"},"type":"Feature"},
	{"geometry":{"coordinates":[-1.573959,54.776161],"type":"Point"},"properties":{"amenity":"waste_basket","osm_id":"2594368996","tag":{"layer":"1","location":"bridge"}},"type":"Feature"},
	{"geometry":{"coordinates":[-1.57891,54.776209],"type":"Point"},"properties":{"amenity":"waste_basket","osm_id":"2594369000"},"type":"Feature"},
	{"geometry":{"coordinates":[-1.573878,54.776211],"type":"Point"},"properties":{"amenity":"waste_basket","osm_id":"2594369001","tag":{"colour":"black"}},"type":"Feature"},
	{"geometry":{"coordinates":[-1.573567,54.776344],"type":"Point"},"properties":{"amenity":"waste_basket","osm_id":"2594369006","tag":{"colour":"black"}},"type":"Feature"},
	{"geometry":{"coordinates":[-1.579773,54.77664],"type":"Point"},"properties":{"amenity":"waste_basket","osm_id":"2594369013"},"type":"Feature"},
	{"geometry":{"coordinates":[-1.579703,54.776721],"type":"Point"},"properties":{"amenity":"waste_basket","osm_id":"2594369015"},"type":"Feature"},
	{"geometry":{"coordinates":[-1.57601,54.776744],"type":"Point"},"properties":{"amenity":"waste_basket","osm_id":"2594369016"},"type":"Feature"},
	{"geometry":{"coordinates":[-1.580325,54.776858],"type":"Point"},"properties":{"amenity":"waste_basket","osm_id":"2594369021"},"type":"Feature"},
	{"geometry":{"coordinates":[-1.580977,54.777054],"type":"Point"},"properties":{"amenity":"waste_basket","osm_id":"2594369023"},"type":"Feature"},
	{"geometry":{"coordinates":[-1.581625,54.777334],"type":"Point"},"properties":{"amenity":"waste_basket","osm_id":"2594369027"},"type":"Feature"},
	{"geometry":{"coordinates":[-1.575382,54.777555],"type":"Point"},"properties":{"amenity":"waste_basket","osm_id":"2594369037"},"type":"Feature"},
	{"geometry":{"coordinates":[-1.575684,54.777575],"type":"Point"},"properties":{"amenity":"waste_basket","osm_id":"2594369038"},"type":"Feature"},
	{"geometry":{"coordinates":[-1.576383,54.777713],"type":"Point"},"properties":{"amenity":"waste_basket","osm_id":"2594369040"},"type":"Feature"},
	{"geometry":{"coordinates":[-1.574758,54.77798],"type":"Point"},"properties":{"amenity":"waste_basket","osm_id":"2594369043"},"type":"Feature"},
	{"geometry":{"coordinates":[-1.575692,54.778383],"type":"Point"},"properties":{"amenity":"waste_basket","osm_id":"2594369050","tag":{"capacity":"limited"}},"type":"Feature"},
	{"geometry":{"coordinates":[-1.575018,54.777939],"type":"Point"},"properties":{"amenity":"waste_basket","osm_id":"3017698712","tag":{"start_date":"201408"}},"type":"Feature"},
	{"geometry":{"coordinates":[-1.571642,54.807362],"type":"Point"},"properties":{"amenity":"waste_basket","osm_id":"3109698048","tag":{"waste":"dog_excrement"}},"type":"Feature"},
	{"geometry":{"coordinates":[-1.540537,54.791002],"type":"Point"},"properties":{"amenity":"waste_basket","osm_id":"3709269651"},"type":"Feature"},
	{"geometry":{"coordinates":[-1.563667,54.798707],"type":"Point"},"properties":{"amenity":"waste_basket","osm_id":"3748203962"},"type":"Feature"},
	{"geometry":{"coordinates":[-1.566684,54.803852],"type":"Point"},"properties":{"amenity":"waste_basket","osm_id":"3748203973"},"type":"Feature"},
	{"geometry":{"coordinates":[-1.515702,54.785823],"type":"Point"},"properties":{"amenity":"waste_basket","osm_id":"3748386791","tag":{"waste":"dog_excrement"}},"type":"Feature"},
	{"geometry":{"coordinates":[-1.522255,54.785038],"type":"Point"},"properties":{"amenity":"waste_basket","osm_id":"3749095723","tag":{"waste":"dog_excrement"}},"type":"Feature"},
	{"geometry":{"coordinates":[-1.52894,54.780045],"type":"Point"},"properties":{"amenity":"waste_basket","osm_id":"3749363035","tag":{"waste":"dog_excrement"}},"type":"Feature"},
	{"geometry":{"coordinates":[-1.528121,54.780104],"type":"Point"},"properties":{"amenity":"waste_basket","osm_id":"3749363037","tag":{"waste":"dog_excrement"}},"type":"Feature"},
	{"geometry":{"coordinates":[-1.523599,54.785619],"type":"Point"},"properties":{"amenity":"waste_basket","osm_id":"3760474527","tag":{"waste":"dog_excrement"}},"type":"Feature"},
	{"geometry":{"coordinates":[-1.523863,54.785685],"type":"Point"},"properties":{"amenity":"waste_basket","osm_id":"3760474534"},"type":"Feature"},
	{"geometry":{"coordinates":[-1.519532,54.789207],"type":"Point"},"properties":{"amenity":"waste_basket","osm_id":"3761952367"},"type":"Feature"},
	{"geometry":{"coordinates":[-1.521704,54.787849],"type":"Point"},"properties":{"amenity":"waste_basket","osm_id":"3762969342","tag":{"waste":"dog_excrement"}},"type":"Feature"},
	{"geometry":{"coordinates":[-1.500308,54.77701],"type":"Point"},"properties":{"amenity":"waste_basket","osm_id":"3785034673","tag":{"waste":"dog_excrement"}},"type":"Feature"},
	{"geometry":{"coordinates":[-1.521827,54.785045],"type":"Point"},"properties":{"amenity":"waste_basket","osm_id":"3786202737"},"type":"Feature"},
	{"geometry":{"coordinates":[-1.519433,54.787696],"type":"Point"},"properties":{"amenity":"waste_basket","osm_id":"3853007653","tag":{"waste":"dog_excrement"}},"type":"Feature"},
	{"geometry":{"coordinates":[-1.508922,54.778346],"type":"Point"},"properties":{"amenity":"waste_basket","osm_id":"3854887874","tag":{"waste":"dog_excrement"}},"type":"Feature"},
	{"geometry":{"coordinates":[-1.510093,54.780538],"type":"Point"},"properties":{"amenity":"waste_basket","osm_id":"3854888169","tag":{"waste":"dog_excrement"}},"type":"Feature"},
	{"geometry":{"coordinates":[-1.577107,54.779772],"type":"Point"},"properties":{"amenity":"waste_basket","osm_id":"4204695693","tag":{"colour":"black"}},"type":"Feature"},
	{"geometry":{"coordinates":[-1.575821,54.779102],"type":"Point"},"properties":{"amenity":"waste_basket","osm_id":"4204695695","tag":{"colour":"blue"}},"type":"Feature"},
	{"geometry":{"coordinates":[-1.578212,54.776829],"type":"Point"},"properties":{"amenity":"waste_basket","osm_id":"4204715291","tag":{"colour":"black","operator":"Durham County Council"}},"type":"Feature"},
	{"geometry":{"coordinates":[-1.577623,54.77839],"type":"Point"},"properties":{"amenity":"waste_basket","osm_id":"4204729993","tag":{"colour":"black"}},"type":"Feature"},
	{"geometry":{"coordinates":[-1.57588,54.778861],"type":"Point"},"properties":{"amenity":"waste_basket","osm_id":"4204729995","tag":{"colour":"black"}},"type":"Feature"},
	{"geometry":{"coordinates":[-1.576322,54.777703],"type":"Point"},"properties":{"amenity":"waste_basket","osm_id":"4204729996","tag":{"colour":"black"}},"type":"Feature"},
	{"geometry":{"coordinates":[-1.578335,54.776304],"type":"Point"},"properties":{"amenity":"waste_basket","osm_id":"4204730192","tag":{"colour":"black","operator":"Durham County Council"}},"type":"Feature"},
	{"geometry":{"coordinates":[-1.577858,54.778054],"type":"Point"},"properties":{"amenity":"waste_basket","osm_id":"4204730193","tag":{"colour":"black"}},"type":"Feature"},
	{"geometry":{"coordinates":[-1.57028,54.776922],"type":"Point"},"properties":{"amenity":"waste_basket","osm_id":"4207698937","tag":{"colour":"black"}},"type":"Feature"},
	{"geometry":{"coordinates":[-1.568227,54.775806],"type":"Point"},"properties":{"amenity":"waste_basket","osm_id":"4207885486"},"type":"Feature"},
	{"geometry":{"coordinates":[-1.567013,54.775928],"type":"Point"},"properties":{"amenity":"waste_basket","osm_id":"4207887632","tag":{"colour":"black"}},"type":"Feature"},
	{"geometry":{"coordinates":[-1.566104,54.775769],"type":"Point"},"properties":{"amenity":"waste_basket","osm_id":"4207887646","tag":{"colour":"black"}},"type":"Feature"},
	{"geometry":{"coordinates":[-1.564866,54.775587],"type":"Point"},"properties":{"amenity":"waste_basket","osm_id":"4207887647","tag":{"colour":"black"}},"type":"Feature"},
	{"geometry":{"coordinates":[-1.565466,54.775678],"type":"Point"},"properties":{"amenity":"waste_basket","osm_id":"4207887648","tag":{"colour":"black"}},"type":"Feature"},
	{"geometry":{"coordinates":[-1.563517,54.775422],"type":"Point"},"properties":{"amenity":"waste_basket","osm_id":"4207887649","tag":{"colour":"black"}},"type":"Feature"},
	{"geometry":{"coordinates":[-1.563024,54.775365],"type":"Point"},"properties":{"amenity":"waste_basket","osm_id":"4207887658","tag":{"colour":"black"}},"type":"Feature"},
	{"geometry":{"coordinates":[-1.565788,54.776365],"type":"Point"},"properties":{"amenity":"waste_basket","osm_id":"4207887829","tag":{"colour":"black"}},"type":"Feature"},
	{"geometry":{"coordinates":[-1.573175,54.781517],"type":"Point"},"properties":{"amenity":"waste_basket","osm_id":"4211260192","tag":{"colour":"green"}},"type":"Feature"},
	{"geometry":{"coordinates":[-1.567276,54.782007],"type":"Point"},"properties":{"amenity":"waste_basket","osm_id":"4211267390"},"type":"Feature"},
	{"geometry":{"coordinates":[-1.569258,54.781983],"type":"Point"},"properties":{"amenity":"waste_basket","osm_id":"4211267391","tag":{"colour":"black"}},"type":"Feature"},
	{"geometry":{"coordinates":[-1.571298,54.781838],"type":"Point"},"properties":{"amenity":"waste_basket","osm_id":"4211272590","tag":{"colour":"grey"}},"type":"Feature"},
	{"geometry":{"coordinates":[-1.574967,54.780747],"type":"Point"},"properties":{"amenity":"waste_basket","osm_id":"4211273089","tag":{"colour":"black"}},"type":"Feature"},
	{"geometry":{"coordinates":[-1.56866,54.781873],"type":"Point"},"properties":{"amenity":"waste_basket","osm_id":"4211405619","tag":{"waste":"dog_excrement"}},"type":"Feature"},
	{"geometry":{"coordinates":[-1.548016,54.786499],"type":"Point"},"properties":{"amenity":"waste_basket","osm_id":"4222726004","tag":{"colour":"black"}},"type":"Feature"},
	{"geometry":{"coordinates":[-1.547978,54.7865],"type":"Point"},"properties":{"amenity":"waste_basket","osm_id":"4222726005","tag":{"colour":"green","waste":"dog_excrement"}},"type":"Feature"},
	{"geometry":{"coordinates":[-1.517927,54.785777],"type":"Point"},"properties":{"amenity":"waste_basket","osm_id":"4262595170","tag":{"waste":"dog_excrement"}},"type":"Feature"},
	{"geometry":{"coordinates":[-1.517872,54.789812],"type":"Point"},"properties":{"amenity":"waste_basket","osm_id":"4262595217"},"type":"Feature"},
	{"geometry":{"coordinates":[-1.551762,54.785751],"type":"Point"},"properties":{"amenity":"waste_basket","osm_id":"4573501138","tag":{"waste":"dog_excrement"}},"type":"Feature"},
	{"geometry":{"coordinates":[-1.576578,54.803182],"type":"Point"},"properties":{"amenity":"waste_basket","osm_id":"4632095429","tag":{"waste":"dog_excrement"}},"type":"Feature"},
	{"geometry":{"coordinates":[-1.581144,54.797448],"type":"Point"},"properties":{"amenity":"waste_basket","osm_id":"4632095430","tag":{"waste":"dog_excrement"}},"type":"Feature"},
	{"geometry":{"coordinates":[-1.557793,54.782408],"type":"Point"},"properties":{"amenity":"waste_basket","osm_id":"4909668443","tag":{"waste":"dog_excrement"}},"type":"Feature"},
	{"geometry":{"coordinates":[-1.580569,54.778452],"type":"Point"},"properties":{"amenity":"waste_basket","osm_id":"4932678621"},"type":"Feature"},
	{"geometry":{"coordinates":[-1.579502,54.778764],"type":"Point"},"properties":{"amenity":"waste_basket","osm_id":"4932678821"},"type":"Feature"},
	{"geometry":{"coordinates":[-1.579309,54.808233],"type":"Point"},"properties":{"amenity":"waste_basket","osm_id":"5004909224"},"type":"Feature"},
	{"geometry":{"coordinates":[-1.579215,54.808218],"type":"Point"},"properties":{"amenity":"waste_basket","osm_id":"5004909225"},"type":"Feature"},
	{"geometry":{"coordinates":[-1.579635,54.808285],"type":"Point"},"properties":{"amenity":"waste_basket","osm_id":"5004909226"},"type":"Feature"},
	{"geometry":{"coordinates":[-1.579648,54.808126],"type":"Point"},"properties":{"amenity":"waste_basket","osm_id":"5004909227"},"type":"Feature"},
	{"geometry":{"coordinates":[-1.578413,54.806267],"type":"Point"},"properties":{"amenity":"waste_basket","osm_id":"5004909322"},"type":"Feature"},
	{"geometry":{"coordinates":[-1.579224,54.808315],"type":"Point"},"properties":{"amenity":"waste_basket","osm_id":"5004927222"},"type":"Feature"},
	{"geometry":{"coordinates":[-1.579533,54.808133],"type":"Point"},"properties":{"amenity":"waste_basket","osm_id":"5004927223"},"type":"Feature"},
	{"geometry":{"coordinates":[-1.540672,54.776212],"type":"Point"},"properties":{"amenity":"waste_basket","osm_id":"5026369824"},"type":"Feature"},
	{"geometry":{"coordinates":[-1.54139,54.777239],"type":"Point"},"properties":{"amenity":"recycling","osm_id":"5026448021","tag":{"recycling:cans":"yes","recycling:clothes":"yes","recycling:glass":"yes","recycling:glass_bottles":"yes","recycling:shoes":"yes","recycling_type":"container"}},"type":"Feature"},
	{"geometry":{"coordinates":[-1.563741,54.777383],"type":"Point"},"properties":{"amenity":"waste_basket","osm_id":"5301390055","tag":{"colour":"black"}},"type":"Feature"},
	{"geometry":{"coordinates":[-1.576766,54.776418],"type":"Point"},"properties":{"amenity":"waste_basket","osm_id":"5489413240"},"type":"Feature"},
	{"geometry":{"coordinates":[-1.581476,54.777401],"type":"Point"},"properties":{"amenity":"waste_basket","osm_id":"5494446017"},"type":"Feature"},
	{"geometry":{"coordinates":[-1.580943,54.778978],"type":"Point"},"properties":{"amenity":"waste_basket","osm_id":"5503508082"},"type":"Feature"},
	{"geometry":{"coordinates":[-1.579239,54.776461],"type":"Point"},"properties":{"amenity":"waste_basket","osm_id":"5506268775"},"type":"Feature"},
	{"geometry":{"coordinates":[-1.580371,54.77693],"type":"Point"},"properties":{"amenity":"waste_basket","osm_id":"5506274997"},"type":"Feature"},
	{"geometry":{"coordinates":[-1.581619,54.776041],"type":"Point"},"properties":{"amenity":"waste_basket","osm_id":"5514664337"},"type":"Feature"},
	{"geometry":{"coordinates":[-1.525118,54.786516],"type":"Point"},"properties":{"amenity":"waste_basket","osm_id":"5627676332"},"type":"Feature"},
	{"geometry":{"coordinates":[-1.536266,54.785042],"type":"Point"},"properties":{"amenity":"waste_basket","osm_id":"6376759511","tag":{"waste":"trash"}},"type":"Feature"},
	{"geometry":{"coordinates":[-1.536946,54.784168],"type":"Point"},"properties":{"amenity":"waste_basket","osm_id":"6376759512","tag":{"waste":"trash"}},"type":"Feature"},
	{"geometry":{"coordinates":[-1.541589,54.786882],"type":"Point"},"properties":{"amenity":"waste_basket","osm_id":"6376764735","tag":{"waste":"dog_excrement"}},"type":"Feature"},
	{"geometry":{"coordinates":[-1.566316,54.778688],"type":"Point"},"properties":{"amenity":"waste_basket","osm_id":"6388982712","tag":{"waste":"trash"}},"type":"Feature"},
	{"geometry":{"coordinates":[-1.579461,54.784106],"type":"Point"},"properties":{"amenity":"waste_basket","osm_id":"6535770297","tag":{"waste":"dog_excrement"}},"type":"Feature"},
	{"geometry":{"coordinates":[-1.57974,54.795027],"type":"Point"},"properties":{"amenity":"waste_basket","osm_id":"6558139039"},"type":"Feature"},
	{"geometry":{"coordinates":[-1.571496,54.804192],"type":"Point"},"properties":{"amenity":"waste_basket","osm_id":"6684123910","tag":{"waste":"dog_excrement"}},"type":"Feature"},
	{"geometry":{"coordinates":[-1.571513,54.804076],"type":"Point"},"properties":{"amenity":"waste_basket","osm_id":"6684123916"},"type":"Feature"},
	{"geometry":{"coordinates":[-1.546031,54.783688],"type":"Point"},"properties":{"amenity":"waste_basket","osm_id":"6942935408"},"type":"Feature"},
	{"geometry":{"coordinates":[-1.563756,54.798634],"type":"Point"},"properties":{"amenity":"waste_basket","osm_id":"7422767603","tag":{"waste":"dog_excrement"}},"type":"Feature"},
	{"geometry":{"coordinates":[-1.566186,54.799955],"type":"Point"},"properties":{"amenity":"waste_basket","osm_id":"7422767619","tag":{"waste":"dog_excrement"}},"type":"Feature"},
	{"geometry":{"coordinates":[-1.5798,54.783924],"type":"Point"},"properties":{"amenity":"waste_basket","osm_id":"7431552497","tag":{"waste":"dog_excrement"}},"type":"Feature"},
	{"geometry":{"coordinates":[-1.525102,54.793447],"type":"Point"},"properties":{"amenity":"waste_basket","osm_id":"7525409866","tag":{"waste":"dog_excrement"}},"type":"Feature"},
	{"geometry":{"coordinates":[-1.530763,54.779886],"type":"Point"},"properties":{"amenity":"waste_basket","osm_id":"7527381023","tag":{"waste":"dog_excrement"}},"type":"Feature"},
	{"geometry":{"coordinates":[-1.569105,54.799719],"type":"Point"},"properties":{"amenity":"waste_basket","osm_id":"7620645041","tag":{"waste":"dog_excrement"}},"type":"Feature"},
	{"geometry":{"coordinates":[-1.573873,54.799206],"type":"Point"},"properties":{"amenity":"recycling","osm_id":"7620645082","tag":{"opening_hours":"24/7","operator":"Salvation Army","recycling:clothes":"yes","recycling_type":"container"}},"type":"Feature"},
	{"geometry":{"coordinates":[-1.576391,54.778111],"type":"Point"},"properties":{"amenity":"waste_basket","osm_id":"7692938502","tag":{"waste":"trash"}},"type":"Feature"}
]
}
