{
"type": "FeatureCollection",
"lastupdate": "2020-07-28T01:29:12Z",
"features": [
	{"geometry":{"coordinates":[-1.540634,53.85279],"type":"Point"},"properties":{"amenity":"waste_basket","osm_id":"7429089494","tag":{"ref:UK:leedscc:bin":"2587"}},"type":"Feature"},
	{"geometry":{"coordinates":[-1.53736,53.852978],"type":"Point"},"properties":{"amenity":"waste_basket","osm_id":"7429089612","tag":{"ref:UK:leedscc:bin":"2584"}},"type":"Feature"},
	{"geometry":{"coordinates":[-1.534753,53.852623],"type":"Point"},"properties":{"amenity":"waste_basket","osm_id":"7429089683","tag":{"ref:UK:leedscc:bin":"2585"}},"type":"Feature"},
	{"geometry":{"coordinates":[-1.541817,53.854671],"type":"Point"},"properties":{"amenity":"waste_basket","osm_id":"7429089768","tag":{"ref:UK:leedscc:bin":"2589"}},"type":"Feature"},
	{"geometry":{"coordinates":[-1.540609,53.855102],"type":"Point"},"properties":{"amenity":"waste_basket","osm_id":"7429089833","tag":{"ref:UK:leedscc:bin":"2588"}},"type":"Feature"},
	{"geometry":{"coordinates":[-1.533973,53.854641],"type":"Point"},"properties":{"amenity":"waste_basket","osm_id":"7429089965","tag":{"ref:UK:leedscc:bin":"2586"}},"type":"Feature"},
	{"geometry":{"coordinates":[-1.55789,53.853363],"type":"Point"},"properties":{"amenity":"waste_basket","osm_id":"7429090074","tag":{"ref:UK:leedscc:bin":"1593"}},"type":"Feature"},
	{"geometry":{"coordinates":[-1.54063,53.857033],"type":"Point"},"properties":{"amenity":"waste_basket","osm_id":"7429090101","tag":{"ref:UK:leedscc:bin":"2590"}},"type":"Feature"},
	{"geometry":{"coordinates":[-1.559403,53.853584],"type":"Point"},"properties":{"amenity":"waste_basket","osm_id":"7429090196","tag":{"ref:UK:leedscc:bin":"477"}},"type":"Feature"},
	{"geometry":{"coordinates":[-1.530736,53.855708],"type":"Point"},"properties":{"amenity":"waste_basket","osm_id":"7429090211","tag":{"ref:UK:leedscc:bin":"1385"}},"type":"Feature"},
	{"geometry":{"coordinates":[-1.530733,53.855961],"type":"Point"},"properties":{"amenity":"waste_basket","osm_id":"7429090243","tag":{"ref:UK:leedscc:bin":"1384"}},"type":"Feature"},
	{"geometry":{"coordinates":[-1.530655,53.855961],"type":"Point"},"properties":{"amenity":"waste_basket","osm_id":"7429090244","tag":{"ref:UK:leedscc:bin":"1383"}},"type":"Feature"},
	{"geometry":{"coordinates":[-1.53026,53.856171],"type":"Point"},"properties":{"amenity":"waste_basket","osm_id":"7429090264","tag":{"ref:UK:leedscc:bin":"2801"}},"type":"Feature"},
	{"geometry":{"coordinates":[-1.514257,53.85268],"type":"Point"},"properties":{"amenity":"waste_basket","osm_id":"7429090318","tag":{"ref:UK:leedscc:bin":"254"}},"type":"Feature"},
	{"geometry":{"coordinates":[-1.560858,53.854316],"type":"Point"},"properties":{"amenity":"waste_basket","osm_id":"7429090334","tag":{"ref:UK:leedscc:bin":"476"}},"type":"Feature"},
	{"geometry":{"coordinates":[-1.514935,53.852843],"type":"Point"},"properties":{"amenity":"waste_basket","osm_id":"7429090361","tag":{"ref:UK:leedscc:bin":"2876"}},"type":"Feature"},
	{"geometry":{"coordinates":[-1.509477,53.853717],"type":"Point"},"properties":{"amenity":"waste_basket","osm_id":"7429090363","tag":{"ref:UK:leedscc:bin":"2883"}},"type":"Feature"},
	{"geometry":{"coordinates":[-1.506278,53.854259],"type":"Point"},"properties":{"amenity":"waste_basket","osm_id":"7429090372","tag":{"ref:UK:leedscc:bin":"2884"}},"type":"Feature"},
	{"geometry":{"coordinates":[-1.560854,53.854733],"type":"Point"},"properties":{"amenity":"waste_basket","osm_id":"7429090373","tag":{"ref:UK:leedscc:bin":"1592"}},"type":"Feature"},
	{"geometry":{"coordinates":[-1.507612,53.854353],"type":"Point"},"properties":{"amenity":"waste_basket","osm_id":"7429090419","tag":{"ref:UK:leedscc:bin":"1013"}},"type":"Feature"},
	{"geometry":{"coordinates":[-1.521601,53.856029],"type":"Point"},"properties":{"amenity":"waste_basket","osm_id":"7429090423","tag":{"ref:UK:leedscc:bin":"1434"}},"type":"Feature"},
	{"geometry":{"coordinates":[-1.554159,53.858212],"type":"Point"},"properties":{"amenity":"waste_basket","osm_id":"7429090427","tag":{"ref:UK:leedscc:bin":"3187"}},"type":"Feature"},
	{"geometry":{"coordinates":[-1.502171,53.855622],"type":"Point"},"properties":{"amenity":"waste_basket","osm_id":"7429090441","tag":{"ref:UK:leedscc:bin":"2885"}},"type":"Feature"},
	{"geometry":{"coordinates":[-1.520649,53.856036],"type":"Point"},"properties":{"amenity":"waste_basket","osm_id":"7429090454","tag":{"ref:UK:leedscc:bin":"1433"}},"type":"Feature"},
	{"geometry":{"coordinates":[-1.520338,53.856058],"type":"Point"},"properties":{"amenity":"waste_basket","osm_id":"7429090469","tag":{"ref:UK:leedscc:bin":"1432"}},"type":"Feature"},
	{"geometry":{"coordinates":[-1.519675,53.856205],"type":"Point"},"properties":{"amenity":"waste_basket","osm_id":"7429090500","tag":{"ref:UK:leedscc:bin":"1431"}},"type":"Feature"},
	{"geometry":{"coordinates":[-1.562519,53.855863],"type":"Point"},"properties":{"amenity":"waste_basket","osm_id":"7429090544","tag":{"ref:UK:leedscc:bin":"1607"}},"type":"Feature"},
	{"geometry":{"coordinates":[-1.500882,53.856691],"type":"Point"},"properties":{"amenity":"waste_basket","osm_id":"7429090553","tag":{"ref:UK:leedscc:bin":"2875"}},"type":"Feature"},
	{"geometry":{"coordinates":[-1.577667,53.852888],"type":"Point"},"properties":{"amenity":"waste_basket","osm_id":"7429090575","tag":{"collection_times":"Mo; Fr","ref:UK:leedscc:bin":"2904"}},"type":"Feature"},
	{"geometry":{"coordinates":[-1.500782,53.856897],"type":"Point"},"properties":{"amenity":"waste_basket","osm_id":"7429090581","tag":{"ref:UK:leedscc:bin":"2874"}},"type":"Feature"},
	{"geometry":{"coordinates":[-1.577568,53.853036],"type":"Point"},"properties":{"amenity":"waste_basket","osm_id":"7429090591","tag":{"collection_times":"Mo; Fr","ref:UK:leedscc:bin":"2903"}},"type":"Feature"},
	{"geometry":{"coordinates":[-1.500722,53.857046],"type":"Point"},"properties":{"amenity":"waste_basket","osm_id":"7429090599","tag":{"ref:UK:leedscc:bin":"2873"}},"type":"Feature"},
	{"geometry":{"coordinates":[-1.562806,53.856277],"type":"Point"},"properties":{"amenity":"waste_basket","osm_id":"7429090601","tag":{"ref:UK:leedscc:bin":"1606"}},"type":"Feature"},
	{"geometry":{"coordinates":[-1.580289,53.852687],"type":"Point"},"properties":{"amenity":"waste_basket","osm_id":"7429090606","tag":{"collection_times":"Mo; Fr","ref:UK:leedscc:bin":"1893"}},"type":"Feature"},
	{"geometry":{"coordinates":[-1.562844,53.856381],"type":"Point"},"properties":{"amenity":"waste_basket","osm_id":"7429090610","tag":{"ref:UK:leedscc:bin":"1605"}},"type":"Feature"},
	{"geometry":{"coordinates":[-1.500641,53.85731],"type":"Point"},"properties":{"amenity":"waste_basket","osm_id":"7429090623","tag":{"ref:UK:leedscc:bin":"2872"}},"type":"Feature"},
	{"geometry":{"coordinates":[-1.517049,53.85647],"type":"Point"},"properties":{"amenity":"waste_basket","osm_id":"7429090625","tag":{"ref:UK:leedscc:bin":"168"}},"type":"Feature"},
	{"geometry":{"coordinates":[-1.579316,53.853111],"type":"Point"},"properties":{"amenity":"waste_basket","osm_id":"7429090626","tag":{"collection_times":"Mo; Fr","ref:UK:leedscc:bin":"3509"}},"type":"Feature"},
	{"geometry":{"coordinates":[-1.518075,53.856864],"type":"Point"},"properties":{"amenity":"waste_basket","osm_id":"7429090627","tag":{"ref:UK:leedscc:bin":"1430"}},"type":"Feature"},
	{"geometry":{"coordinates":[-1.562821,53.856771],"type":"Point"},"properties":{"amenity":"waste_basket","osm_id":"7429090636","tag":{"ref:UK:leedscc:bin":"1604"}},"type":"Feature"},
	{"geometry":{"coordinates":[-1.580325,53.853101],"type":"Point"},"properties":{"amenity":"waste_basket","osm_id":"7429090645","tag":{"collection_times":"Mo; Fr","ref:UK:leedscc:bin":"1894"}},"type":"Feature"},
	{"geometry":{"coordinates":[-1.500599,53.857586],"type":"Point"},"properties":{"amenity":"waste_basket","osm_id":"7429090654","tag":{"ref:UK:leedscc:bin":"2871"}},"type":"Feature"},
	{"geometry":{"coordinates":[-1.563052,53.85691],"type":"Point"},"properties":{"amenity":"waste_basket","osm_id":"7429090663","tag":{"ref:UK:leedscc:bin":"1603"}},"type":"Feature"},
	{"geometry":{"coordinates":[-1.577245,53.853836],"type":"Point"},"properties":{"amenity":"waste_basket","osm_id":"7429090671","tag":{"collection_times":"Mo; Fr","condition":"GOOD","ref:UK:leedscc:bin":"875","waste_basket:model":"METAL SQUARE"}},"type":"Feature"},
	{"geometry":{"coordinates":[-1.501453,53.857704],"type":"Point"},"properties":{"amenity":"waste_basket","osm_id":"7429090674","tag":{"ref:UK:leedscc:bin":"3665"}},"type":"Feature"},
	{"geometry":{"coordinates":[-1.563068,53.857243],"type":"Point"},"properties":{"amenity":"waste_basket","osm_id":"7429090679","tag":{"ref:UK:leedscc:bin":"1601"}},"type":"Feature"},
	{"geometry":{"coordinates":[-1.56342,53.85706],"type":"Point"},"properties":{"amenity":"waste_basket","osm_id":"7429090682","tag":{"ref:UK:leedscc:bin":"1602"}},"type":"Feature"},
	{"geometry":{"coordinates":[-1.528506,53.859633],"type":"Point"},"properties":{"amenity":"waste_basket","osm_id":"7429090688","tag":{"ref:UK:leedscc:bin":"1329"}},"type":"Feature"},
	{"geometry":{"coordinates":[-1.553776,53.861332],"type":"Point"},"properties":{"amenity":"waste_basket","osm_id":"7429090724","tag":{"ref:UK:leedscc:bin":"3186"}},"type":"Feature"},
	{"geometry":{"coordinates":[-1.553521,53.861619],"type":"Point"},"properties":{"amenity":"waste_basket","osm_id":"7429090740","tag":{"ref:UK:leedscc:bin":"3185"}},"type":"Feature"},
	{"geometry":{"coordinates":[-1.509903,53.857842],"type":"Point"},"properties":{"amenity":"waste_basket","osm_id":"7429090782","tag":{"ref:UK:leedscc:bin":"2554"}},"type":"Feature"},
	{"geometry":{"coordinates":[-1.510078,53.857843],"type":"Point"},"properties":{"amenity":"waste_basket","osm_id":"7429090784","tag":{"ref:UK:leedscc:bin":"2555"}},"type":"Feature"},
	{"geometry":{"coordinates":[-1.527604,53.861244],"type":"Point"},"properties":{"amenity":"waste_basket","osm_id":"7429090808","tag":{"ref:UK:leedscc:bin":"1389"}},"type":"Feature"},
	{"geometry":{"coordinates":[-1.529791,53.861965],"type":"Point"},"properties":{"amenity":"waste_basket","osm_id":"7429090822","tag":{"ref:UK:leedscc:bin":"1386"}},"type":"Feature"},
	{"geometry":{"coordinates":[-1.527386,53.861588],"type":"Point"},"properties":{"amenity":"waste_basket","osm_id":"7429090836","tag":{"ref:UK:leedscc:bin":"1388"}},"type":"Feature"},
	{"geometry":{"coordinates":[-1.528839,53.861961],"type":"Point"},"properties":{"amenity":"waste_basket","osm_id":"7429090842","tag":{"ref:UK:leedscc:bin":"86"}},"type":"Feature"},
	{"geometry":{"coordinates":[-1.527365,53.861771],"type":"Point"},"properties":{"amenity":"waste_basket","osm_id":"7429090848","tag":{"ref:UK:leedscc:bin":"1387"}},"type":"Feature"},
	{"geometry":{"coordinates":[-1.510922,53.900069],"type":"Point"},"properties":{"amenity":"waste_basket","osm_id":"7429091302","tag":{"ref:UK:leedscc:bin":"3183"}},"type":"Feature"},
	{"geometry":{"coordinates":[-1.511055,53.899946],"type":"Point"},"properties":{"amenity":"waste_basket","osm_id":"7429091305","tag":{"ref:UK:leedscc:bin":"3184"}},"type":"Feature"},
	{"geometry":{"coordinates":[-1.511943,53.900744],"type":"Point"},"properties":{"amenity":"waste_basket","osm_id":"7429091315","tag":{"ref:UK:leedscc:bin":"1326"}},"type":"Feature"},
	{"geometry":{"coordinates":[-1.511926,53.901281],"type":"Point"},"properties":{"amenity":"waste_basket","osm_id":"7429091316","tag":{"ref:UK:leedscc:bin":"1331"}},"type":"Feature"},
	{"geometry":{"coordinates":[-1.512083,53.901639],"type":"Point"},"properties":{"amenity":"waste_basket","osm_id":"7429091317","tag":{"ref:UK:leedscc:bin":"1330"}},"type":"Feature"},
	{"geometry":{"coordinates":[-1.513769,53.902283],"type":"Point"},"properties":{"amenity":"waste_basket","osm_id":"7429091328","tag":{"ref:UK:leedscc:bin":"643"}},"type":"Feature"}
]
}
