{
"type": "FeatureCollection",
"lastupdate": "2020-07-30T00:29:16Z",
"features": [
	{"geometry":{"coordinates":[-2.990542,53.041083],"type":"Point"},"properties":{"amenity":"recycling","osm_id":"1231452229","tag":{"recycling:cans":"yes","recycling:clothes":"yes","recycling:glass":"yes","recycling:paper":"yes"}},"type":"Feature"},
	{"geometry":{"coordinates":[-2.998126,53.051342],"type":"Point"},"properties":{"amenity":"recycling","osm_id":"1232331443","tag":{"recycling:clothes":"yes"}},"type":"Feature"},
	{"geometry":{"coordinates":[-3.009698,53.056012],"type":"Point"},"properties":{"amenity":"recycling","osm_id":"1232331467","tag":{"recycling:cans":"yes","recycling:clothes":"yes","recycling:glass":"yes","recycling:paper":"yes"}},"type":"Feature"},
	{"geometry":{"coordinates":[-3.003112,53.042196],"type":"Point"},"properties":{"amenity":"recycling","osm_id":"1258021440"},"type":"Feature"},
	{"geometry":{"coordinates":[-3.03663,53.067015],"type":"Point"},"properties":{"amenity":"recycling","osm_id":"1259363020"},"type":"Feature"},
	{"geometry":{"coordinates":[-2.992639,53.047913],"type":"Point"},"properties":{"amenity":"waste_basket","osm_id":"6534409743"},"type":"Feature"}
]
}
