{
"type": "FeatureCollection",
"lastupdate": "2020-07-26T00:31:07Z",
"features": [
	{"geometry":{"coordinates":[-1.127343,52.949266],"type":"Point"},"properties":{"amenity":"recycling","osm_id":"286550662","tag":{"recycling:glass":"yes","recycling:paper":"yes"}},"type":"Feature"},
	{"geometry":{"coordinates":[-1.102364,52.923413],"type":"Point"},"properties":{"amenity":"recycling","osm_id":"322814531"},"type":"Feature"},
	{"geometry":{"coordinates":[-1.131073,52.951939],"type":"Point"},"properties":{"amenity":"recycling","osm_id":"773404977","tag":{"recycling:cans":"yes","recycling:cardboard":"yes","recycling:glass":"yes","recycling:paper":"yes","recycling:plastic_bottles":"yes","recycling_type":"container"}},"type":"Feature"},
	{"geometry":{"coordinates":[-1.127045,52.957995],"type":"Point"},"properties":{"amenity":"recycling","osm_id":"824847539","tag":{"recycling:clothes":"yes","recycling:shoes":"yes","recycling_type":"container"}},"type":"Feature"},
	{"geometry":{"coordinates":[-1.067597,52.960387],"type":"Point"},"properties":{"amenity":"recycling","osm_id":"1020515472","tag":{"operator":"Gedling Borough Council","recycling:clothes":"yes","recycling:glass_bottles":"yes","recycling:paper":"yes","recycling:shoes":"yes","recycling_type":"containers"}},"type":"Feature"},
	{"geometry":{"coordinates":[-1.126576,52.93228],"type":"Point"},"properties":{"amenity":"recycling","osm_id":"1189460778"},"type":"Feature"},
	{"geometry":{"coordinates":[-1.136788,52.953639],"type":"Point"},"properties":{"amenity":"waste_basket","osm_id":"2283598700"},"type":"Feature"},
	{"geometry":{"coordinates":[-1.136254,52.953445],"type":"Point"},"properties":{"amenity":"waste_basket","osm_id":"2283598769"},"type":"Feature"},
	{"geometry":{"coordinates":[-1.140641,52.940449],"type":"Point"},"properties":{"amenity":"recycling","osm_id":"2347863751","tag":{"recycling:cans":"yes","recycling:cardboard":"yes","recycling:clothes":"yes","recycling:glass":"yes","recycling:paper":"yes"}},"type":"Feature"},
	{"geometry":{"coordinates":[-1.138693,52.923936],"type":"Point"},"properties":{"amenity":"recycling","osm_id":"2501396953","tag":{"recycling_type":"container"}},"type":"Feature"},
	{"geometry":{"coordinates":[-1.139944,52.954883],"type":"Point"},"properties":{"amenity":"recycling","name":"Brook Street Car Park Recycling Site","osm_id":"2778452894","tag":{"recycling:glass_bottles":"yes"}},"type":"Feature"},
	{"geometry":{"coordinates":[-1.127572,52.933957],"type":"Point"},"properties":{"amenity":"waste_basket","osm_id":"5910106297"},"type":"Feature"},
	{"geometry":{"coordinates":[-1.128115,52.9343],"type":"Point"},"properties":{"amenity":"waste_basket","osm_id":"5910124941"},"type":"Feature"},
	{"geometry":{"coordinates":[-1.126422,52.93327],"type":"Point"},"properties":{"amenity":"waste_basket","osm_id":"5910124942"},"type":"Feature"},
	{"geometry":{"coordinates":[-1.128492,52.934059],"type":"Point"},"properties":{"amenity":"waste_basket","osm_id":"5910124946"},"type":"Feature"},
	{"geometry":{"coordinates":[-1.126501,52.933545],"type":"Point"},"properties":{"amenity":"waste_basket","osm_id":"5910124955"},"type":"Feature"},
	{"geometry":{"coordinates":[-1.12628,52.933188],"type":"Point"},"properties":{"amenity":"waste_basket","osm_id":"5910124959"},"type":"Feature"},
	{"geometry":{"coordinates":[-1.126667,52.933608],"type":"Point"},"properties":{"amenity":"waste_basket","osm_id":"5910124960"},"type":"Feature"},
	{"geometry":{"coordinates":[-1.124714,52.932527],"type":"Point"},"properties":{"amenity":"waste_basket","osm_id":"5910124965","tag":{"waste":"dog_excrement"}},"type":"Feature"},
	{"geometry":{"coordinates":[-1.126093,52.932919],"type":"Point"},"properties":{"amenity":"waste_basket","osm_id":"5910124969"},"type":"Feature"},
	{"geometry":{"coordinates":[-1.126784,52.933403],"type":"Point"},"properties":{"amenity":"waste_basket","osm_id":"5910124970"},"type":"Feature"},
	{"geometry":{"coordinates":[-1.124915,52.932957],"type":"Point"},"properties":{"amenity":"waste_basket","osm_id":"5910124976","tag":{"waste":"dog_excrement"}},"type":"Feature"},
	{"geometry":{"coordinates":[-1.124748,52.932442],"type":"Point"},"properties":{"amenity":"waste_basket","osm_id":"5910124982","tag":{"waste":"dog_excrement"}},"type":"Feature"},
	{"geometry":{"coordinates":[-1.124751,52.933235],"type":"Point"},"properties":{"amenity":"waste_basket","osm_id":"5910126985"},"type":"Feature"},
	{"geometry":{"coordinates":[-1.124453,52.932821],"type":"Point"},"properties":{"amenity":"waste_basket","osm_id":"5910126986","tag":{"waste":"dog_excrement"}},"type":"Feature"},
	{"geometry":{"coordinates":[-1.124386,52.933857],"type":"Point"},"properties":{"amenity":"waste_basket","osm_id":"5910126993"},"type":"Feature"},
	{"geometry":{"coordinates":[-1.12533,52.934154],"type":"Point"},"properties":{"amenity":"waste_basket","osm_id":"5910126997","tag":{"waste":"dog_excrement"}},"type":"Feature"},
	{"geometry":{"coordinates":[-1.12631,52.934237],"type":"Point"},"properties":{"amenity":"waste_basket","osm_id":"5910127003"},"type":"Feature"},
	{"geometry":{"coordinates":[-1.126983,52.934056],"type":"Point"},"properties":{"amenity":"waste_basket","osm_id":"5910127007","tag":{"waste":"dog_excrement"}},"type":"Feature"},
	{"geometry":{"coordinates":[-1.127324,52.934331],"type":"Point"},"properties":{"amenity":"waste_basket","osm_id":"5910127010"},"type":"Feature"},
	{"geometry":{"coordinates":[-1.131465,52.955074],"type":"Point"},"properties":{"amenity":"waste_basket","osm_id":"5995507330"},"type":"Feature"},
	{"geometry":{"coordinates":[-1.130726,52.95446],"type":"Point"},"properties":{"amenity":"waste_basket","osm_id":"5995507338"},"type":"Feature"},
	{"geometry":{"coordinates":[-1.131991,52.951948],"type":"Point"},"properties":{"amenity":"waste_basket","osm_id":"5995507340"},"type":"Feature"},
	{"geometry":{"coordinates":[-1.132496,52.955417],"type":"Point"},"properties":{"amenity":"waste_basket","osm_id":"5995507341"},"type":"Feature"},
	{"geometry":{"coordinates":[-1.133199,52.955747],"type":"Point"},"properties":{"amenity":"waste_basket","osm_id":"5995507342"},"type":"Feature"},
	{"geometry":{"coordinates":[-1.104369,52.94392],"type":"Point"},"properties":{"amenity":"waste_basket","osm_id":"6283491907"},"type":"Feature"},
	{"geometry":{"coordinates":[-1.097372,52.95002],"type":"Point"},"properties":{"amenity":"waste_basket","osm_id":"6283504648"},"type":"Feature"},
	{"geometry":{"coordinates":[-1.094877,52.95216],"type":"Point"},"properties":{"amenity":"waste_basket","osm_id":"6283504661"},"type":"Feature"},
	{"geometry":{"coordinates":[-1.091059,52.952542],"type":"Point"},"properties":{"amenity":"waste_basket","osm_id":"6283521867"},"type":"Feature"},
	{"geometry":{"coordinates":[-1.090509,52.952473],"type":"Point"},"properties":{"amenity":"waste_basket","osm_id":"6283522090"},"type":"Feature"},
	{"geometry":{"coordinates":[-1.088429,52.951584],"type":"Point"},"properties":{"amenity":"waste_basket","osm_id":"6283522107"},"type":"Feature"},
	{"geometry":{"coordinates":[-1.09082,52.948003],"type":"Point"},"properties":{"amenity":"waste_basket","osm_id":"6283549353"},"type":"Feature"},
	{"geometry":{"coordinates":[-1.09821,52.945333],"type":"Point"},"properties":{"amenity":"waste_basket","osm_id":"6283549357"},"type":"Feature"},
	{"geometry":{"coordinates":[-1.098128,52.94529],"type":"Point"},"properties":{"amenity":"waste_basket","osm_id":"6283549366"},"type":"Feature"},
	{"geometry":{"coordinates":[-1.095802,52.946712],"type":"Point"},"properties":{"amenity":"waste_basket","osm_id":"6283549383"},"type":"Feature"},
	{"geometry":{"coordinates":[-1.089516,52.948474],"type":"Point"},"properties":{"amenity":"waste_basket","osm_id":"6283550688"},"type":"Feature"},
	{"geometry":{"coordinates":[-1.108577,52.928386],"type":"Point"},"properties":{"amenity":"waste_basket","osm_id":"6312866748"},"type":"Feature"},
	{"geometry":{"coordinates":[-1.108635,52.927707],"type":"Point"},"properties":{"amenity":"waste_basket","osm_id":"6312866766","tag":{"waste":"dog_excrement"}},"type":"Feature"},
	{"geometry":{"coordinates":[-1.132723,52.959895],"type":"Point"},"properties":{"amenity":"waste_basket","osm_id":"6343397457","tag":{"waste":"trash"}},"type":"Feature"},
	{"geometry":{"coordinates":[-1.132654,52.96032],"type":"Point"},"properties":{"amenity":"waste_basket","osm_id":"6354458311","tag":{"waste":"trash"}},"type":"Feature"},
	{"geometry":{"coordinates":[-1.134803,52.957333],"type":"Point"},"properties":{"amenity":"waste_basket","osm_id":"6361405926","tag":{"image":"https://www.mapillary.com/map/im/MnbBNcrYdcD6YiHAPSYBHQ","waste":"trash"}},"type":"Feature"},
	{"geometry":{"coordinates":[-1.135214,52.958036],"type":"Point"},"properties":{"amenity":"waste_basket","osm_id":"6361405958","tag":{"image":"https://www.mapillary.com/map/im/8dxVsTJGchtKGIWv1kwbPQ","waste":"trash"}},"type":"Feature"},
	{"geometry":{"coordinates":[-1.136695,52.958457],"type":"Point"},"properties":{"amenity":"waste_basket","osm_id":"6361405983","tag":{"image":"https://www.mapillary.com/map/im/WEYYrHSb0nBRCzdwFX-O8A","waste":"trash"}},"type":"Feature"},
	{"geometry":{"coordinates":[-1.130408,52.958049],"type":"Point"},"properties":{"amenity":"waste_basket","osm_id":"6364735191","tag":{"image":"https://www.mapillary.com/map/im/8ZdqrQoyCKUNxCE-sPGvzg","waste":"trash"}},"type":"Feature"},
	{"geometry":{"coordinates":[-1.137397,52.956577],"type":"Point"},"properties":{"amenity":"waste_basket","osm_id":"6388978801","tag":{"waste":"trash"}},"type":"Feature"},
	{"geometry":{"coordinates":[-1.137843,52.955318],"type":"Point"},"properties":{"amenity":"waste_basket","osm_id":"6396200973","tag":{"waste":"trash"}},"type":"Feature"},
	{"geometry":{"coordinates":[-1.115472,52.943194],"type":"Point"},"properties":{"amenity":"waste_basket","osm_id":"6448397330"},"type":"Feature"},
	{"geometry":{"coordinates":[-1.122838,52.942297],"type":"Point"},"properties":{"amenity":"waste_basket","osm_id":"6448397332"},"type":"Feature"},
	{"geometry":{"coordinates":[-1.105858,52.956034],"type":"Point"},"properties":{"amenity":"waste_basket","osm_id":"6450223099"},"type":"Feature"},
	{"geometry":{"coordinates":[-1.105109,52.956276],"type":"Point"},"properties":{"amenity":"waste_basket","osm_id":"6450223122"},"type":"Feature"},
	{"geometry":{"coordinates":[-1.090409,52.959016],"type":"Point"},"properties":{"amenity":"waste_basket","osm_id":"6450223137"},"type":"Feature"},
	{"geometry":{"coordinates":[-1.085464,52.961666],"type":"Point"},"properties":{"amenity":"waste_basket","osm_id":"6450223173"},"type":"Feature"},
	{"geometry":{"coordinates":[-1.087832,52.960474],"type":"Point"},"properties":{"amenity":"waste_basket","osm_id":"6450223404"},"type":"Feature"},
	{"geometry":{"coordinates":[-1.118018,52.949423],"type":"Point"},"properties":{"amenity":"waste_basket","osm_id":"6452434103"},"type":"Feature"},
	{"geometry":{"coordinates":[-1.122697,52.948388],"type":"Point"},"properties":{"amenity":"waste_basket","osm_id":"6452434128"},"type":"Feature"},
	{"geometry":{"coordinates":[-1.132644,52.945609],"type":"Point"},"properties":{"amenity":"waste_basket","osm_id":"6452434138"},"type":"Feature"},
	{"geometry":{"coordinates":[-1.129748,52.947489],"type":"Point"},"properties":{"amenity":"waste_basket","osm_id":"6452434145"},"type":"Feature"},
	{"geometry":{"coordinates":[-1.133128,52.945991],"type":"Point"},"properties":{"amenity":"waste_basket","osm_id":"6452434147"},"type":"Feature"},
	{"geometry":{"coordinates":[-1.124571,52.946469],"type":"Point"},"properties":{"amenity":"waste_basket","osm_id":"6452463805"},"type":"Feature"},
	{"geometry":{"coordinates":[-1.124416,52.947318],"type":"Point"},"properties":{"amenity":"waste_basket","osm_id":"6452463819"},"type":"Feature"},
	{"geometry":{"coordinates":[-1.124823,52.947206],"type":"Point"},"properties":{"amenity":"waste_basket","osm_id":"6452463820"},"type":"Feature"},
	{"geometry":{"coordinates":[-1.124497,52.946643],"type":"Point"},"properties":{"amenity":"waste_basket","osm_id":"6452463824"},"type":"Feature"},
	{"geometry":{"coordinates":[-1.124352,52.947179],"type":"Point"},"properties":{"amenity":"waste_basket","osm_id":"6452463832"},"type":"Feature"},
	{"geometry":{"coordinates":[-1.139882,52.95633],"type":"Point"},"properties":{"amenity":"waste_basket","osm_id":"6464483356"},"type":"Feature"},
	{"geometry":{"coordinates":[-1.138808,52.9563],"type":"Point"},"properties":{"amenity":"waste_basket","osm_id":"6464483361"},"type":"Feature"},
	{"geometry":{"coordinates":[-1.138473,52.956065],"type":"Point"},"properties":{"amenity":"waste_basket","osm_id":"6464483364"},"type":"Feature"},
	{"geometry":{"coordinates":[-1.140835,52.957182],"type":"Point"},"properties":{"amenity":"waste_basket","osm_id":"6464483365"},"type":"Feature"},
	{"geometry":{"coordinates":[-1.137661,52.956466],"type":"Point"},"properties":{"amenity":"waste_basket","osm_id":"6464483370"},"type":"Feature"},
	{"geometry":{"coordinates":[-1.140756,52.956524],"type":"Point"},"properties":{"amenity":"waste_basket","osm_id":"6464483373"},"type":"Feature"},
	{"geometry":{"coordinates":[-1.139974,52.95654],"type":"Point"},"properties":{"amenity":"waste_basket","osm_id":"6464483374"},"type":"Feature"},
	{"geometry":{"coordinates":[-1.115331,52.941356],"type":"Point"},"properties":{"amenity":"waste_basket","osm_id":"6467969453"},"type":"Feature"},
	{"geometry":{"coordinates":[-1.091796,52.945327],"type":"Point"},"properties":{"amenity":"waste_basket","osm_id":"6482651968"},"type":"Feature"},
	{"geometry":{"coordinates":[-1.091082,52.945484],"type":"Point"},"properties":{"amenity":"waste_basket","osm_id":"6482651970"},"type":"Feature"},
	{"geometry":{"coordinates":[-1.142478,52.923406],"type":"Point"},"properties":{"amenity":"waste_basket","osm_id":"6504268786"},"type":"Feature"},
	{"geometry":{"coordinates":[-1.140586,52.933693],"type":"Point"},"properties":{"amenity":"waste_basket","osm_id":"6580293996"},"type":"Feature"},
	{"geometry":{"coordinates":[-1.141002,52.933926],"type":"Point"},"properties":{"amenity":"waste_basket","osm_id":"6580294001"},"type":"Feature"},
	{"geometry":{"coordinates":[-1.115694,52.926271],"type":"Point"},"properties":{"amenity":"waste_basket","osm_id":"6586638063"},"type":"Feature"},
	{"geometry":{"coordinates":[-1.114976,52.927451],"type":"Point"},"properties":{"amenity":"waste_basket","osm_id":"6587371526"},"type":"Feature"},
	{"geometry":{"coordinates":[-1.121052,52.928992],"type":"Point"},"properties":{"amenity":"waste_basket","osm_id":"6587371567"},"type":"Feature"},
	{"geometry":{"coordinates":[-1.130521,52.947892],"type":"Point"},"properties":{"amenity":"waste_basket","osm_id":"6618597865"},"type":"Feature"},
	{"geometry":{"coordinates":[-1.130034,52.947635],"type":"Point"},"properties":{"amenity":"waste_basket","osm_id":"6618597869"},"type":"Feature"},
	{"geometry":{"coordinates":[-1.131361,52.947789],"type":"Point"},"properties":{"amenity":"waste_basket","osm_id":"6618597870"},"type":"Feature"},
	{"geometry":{"coordinates":[-1.120325,52.934408],"type":"Point"},"properties":{"amenity":"waste_basket","osm_id":"6761309587"},"type":"Feature"},
	{"geometry":{"coordinates":[-1.111068,52.931184],"type":"Point"},"properties":{"amenity":"waste_basket","osm_id":"6761314202"},"type":"Feature"}
]
}
