{
"type": "FeatureCollection",
"lastupdate": "2020-07-31T01:06:47Z",
"features": [
	{"geometry":{"coordinates":[-0.60332,51.514039],"type":"Point"},"properties":{"amenity":"waste_basket","osm_id":"665433466"},"type":"Feature"},
	{"geometry":{"coordinates":[-0.603378,51.514057],"type":"Point"},"properties":{"amenity":"waste_basket","osm_id":"665433474"},"type":"Feature"},
	{"geometry":{"coordinates":[-0.604863,51.51627],"type":"Point"},"properties":{"amenity":"waste_basket","osm_id":"665433558"},"type":"Feature"},
	{"geometry":{"coordinates":[-0.605321,51.517702],"type":"Point"},"properties":{"amenity":"waste_basket","osm_id":"665433638"},"type":"Feature"},
	{"geometry":{"coordinates":[-0.603089,51.518422],"type":"Point"},"properties":{"amenity":"waste_basket","osm_id":"665482828"},"type":"Feature"},
	{"geometry":{"coordinates":[-0.588413,51.515569],"type":"Point"},"properties":{"amenity":"waste_basket","osm_id":"665499468"},"type":"Feature"},
	{"geometry":{"coordinates":[-0.560909,51.52237],"type":"Point"},"properties":{"amenity":"waste_basket","osm_id":"758878320"},"type":"Feature"},
	{"geometry":{"coordinates":[-0.554721,51.52797],"type":"Point"},"properties":{"amenity":"waste_basket","osm_id":"758878332"},"type":"Feature"},
	{"geometry":{"coordinates":[-0.537792,51.534303],"type":"Point"},"properties":{"amenity":"waste_basket","osm_id":"760728749"},"type":"Feature"},
	{"geometry":{"coordinates":[-0.539805,51.544687],"type":"Point"},"properties":{"amenity":"waste_basket","osm_id":"760728805"},"type":"Feature"},
	{"geometry":{"coordinates":[-0.576543,51.532787],"type":"Point"},"properties":{"amenity":"waste_basket","osm_id":"866945243"},"type":"Feature"},
	{"geometry":{"coordinates":[-0.57623,51.533233],"type":"Point"},"properties":{"amenity":"waste_basket","osm_id":"866945362"},"type":"Feature"},
	{"geometry":{"coordinates":[-0.601934,51.541398],"type":"Point"},"properties":{"amenity":"recycling","name":"Farnham Park Golf Course","osm_id":"1409406212","tag":{"recycling_type":"container"}},"type":"Feature"},
	{"geometry":{"coordinates":[-0.589549,51.547236],"type":"Point"},"properties":{"amenity":"recycling","name":"Dog and Pot car park","osm_id":"1409406893","tag":{"recycling_type":"container"}},"type":"Feature"},
	{"geometry":{"coordinates":[-0.540381,51.51138],"type":"Point"},"properties":{"amenity":"waste_basket","osm_id":"1412507673"},"type":"Feature"},
	{"geometry":{"coordinates":[-0.592005,51.525954],"type":"Point"},"properties":{"amenity":"waste_basket","osm_id":"1810396872"},"type":"Feature"}
]
}
