{
"type": "FeatureCollection",
"lastupdate": "2020-07-25T00:42:33Z",
"features": [
	{"geometry":{"coordinates":[-0.583341,51.240332],"type":"Point"},"properties":{"amenity":"recycling","osm_id":"29942631"},"type":"Feature"},
	{"geometry":{"coordinates":[-0.605327,51.241679],"type":"Point"},"properties":{"amenity":"recycling","osm_id":"73971034","tag":{"location":"overground","recycling:cans":"yes","recycling:glass":"yes","recycling:paper":"yes","recycling_type":"container"}},"type":"Feature"},
	{"geometry":{"coordinates":[-0.561901,51.259255],"type":"Point"},"properties":{"amenity":"recycling","name":"Guildford Community Recycling Centre","osm_id":"180713189","tag":{"Fr 08:00-16:00; Sa":null,"Su 09:00-16:00; Jan 01 off; Dec 25 off; Dec 26 off":null,"Th":null,"addr:city":"Guildford","addr:postcode":"GU1 1RU","addr:street":"Moorfield Road","opening_hours":"Mo","phone":"+44 1483 532 187","recycling_type":"centre"}},"type":"Feature"},
	{"geometry":{"coordinates":[-0.559754,51.248861],"type":"Point"},"properties":{"amenity":"recycling","osm_id":"251141897"},"type":"Feature"},
	{"geometry":{"coordinates":[-0.538255,51.251533],"type":"Point"},"properties":{"amenity":"recycling","osm_id":"256308597"},"type":"Feature"},
	{"geometry":{"coordinates":[-0.604985,51.253849],"type":"Point"},"properties":{"amenity":"recycling","osm_id":"263158442"},"type":"Feature"},
	{"geometry":{"coordinates":[-0.533376,51.245143],"type":"Point"},"properties":{"amenity":"recycling","name":"Merrow Village Hall","osm_id":"269958274"},"type":"Feature"},
	{"geometry":{"coordinates":[-0.610983,51.248907],"type":"Point"},"properties":{"amenity":"recycling","osm_id":"290202200","tag":{"location":"overground","recycling:cans":"yes","recycling:clothes":"yes","recycling:glass_bottles":"yes","recycling:plastic":"no","recycling:plastic_packaging":"yes","recycling:shoes":"yes","recycling_type":"container"}},"type":"Feature"},
	{"geometry":{"coordinates":[-0.588913,51.242642],"type":"Point"},"properties":{"amenity":"recycling","osm_id":"503989073"},"type":"Feature"},
	{"geometry":{"coordinates":[-0.59005,51.242842],"type":"Point"},"properties":{"amenity":"recycling","osm_id":"503989075"},"type":"Feature"},
	{"geometry":{"coordinates":[-0.588173,51.242421],"type":"Point"},"properties":{"amenity":"recycling","osm_id":"503989076"},"type":"Feature"},
	{"geometry":{"coordinates":[-0.587447,51.242271],"type":"Point"},"properties":{"amenity":"recycling","osm_id":"611572007"},"type":"Feature"},
	{"geometry":{"coordinates":[-0.588674,51.259936],"type":"Point"},"properties":{"amenity":"recycling","osm_id":"882924219"},"type":"Feature"},
	{"geometry":{"coordinates":[-0.545943,51.257878],"type":"Point"},"properties":{"amenity":"waste_basket","osm_id":"1320178495"},"type":"Feature"},
	{"geometry":{"coordinates":[-0.546065,51.246407],"type":"Point"},"properties":{"amenity":"waste_basket","osm_id":"1685011890"},"type":"Feature"},
	{"geometry":{"coordinates":[-0.544112,51.246139],"type":"Point"},"properties":{"amenity":"waste_basket","osm_id":"1685011893"},"type":"Feature"},
	{"geometry":{"coordinates":[-0.548069,51.246824],"type":"Point"},"properties":{"amenity":"waste_basket","osm_id":"1685011894"},"type":"Feature"},
	{"geometry":{"coordinates":[-0.596114,51.242323],"type":"Point"},"properties":{"amenity":"waste_basket","osm_id":"4908742772"},"type":"Feature"},
	{"geometry":{"coordinates":[-0.587131,51.241967],"type":"Point"},"properties":{"amenity":"recycling","osm_id":"4971910864","tag":{"recycling_type":"container"}},"type":"Feature"},
	{"geometry":{"coordinates":[-0.596582,51.24407],"type":"Point"},"properties":{"amenity":"waste_basket","osm_id":"4973654383"},"type":"Feature"},
	{"geometry":{"coordinates":[-0.613431,51.236996],"type":"Point"},"properties":{"amenity":"recycling","osm_id":"4973871881"},"type":"Feature"},
	{"geometry":{"coordinates":[-0.611703,51.236869],"type":"Point"},"properties":{"amenity":"recycling","osm_id":"4973871882"},"type":"Feature"},
	{"geometry":{"coordinates":[-0.612486,51.236391],"type":"Point"},"properties":{"amenity":"recycling","osm_id":"4973871883"},"type":"Feature"},
	{"geometry":{"coordinates":[-0.611342,51.237531],"type":"Point"},"properties":{"amenity":"recycling","osm_id":"4987904290","tag":{"recycling_type":"container"}},"type":"Feature"},
	{"geometry":{"coordinates":[-0.6105,51.237555],"type":"Point"},"properties":{"amenity":"recycling","osm_id":"4987904291","tag":{"recycling_type":"container"}},"type":"Feature"},
	{"geometry":{"coordinates":[-0.608393,51.239362],"type":"Point"},"properties":{"amenity":"recycling","osm_id":"4987904299","tag":{"recycling_type":"container"}},"type":"Feature"},
	{"geometry":{"coordinates":[-0.604678,51.240262],"type":"Point"},"properties":{"amenity":"waste_basket","osm_id":"5017532077"},"type":"Feature"},
	{"geometry":{"coordinates":[-0.608672,51.239396],"type":"Point"},"properties":{"amenity":"waste_basket","osm_id":"5017532078"},"type":"Feature"},
	{"geometry":{"coordinates":[-0.589506,51.24442],"type":"Point"},"properties":{"amenity":"recycling","osm_id":"5158776924","tag":{"recycling:cans":"yes","recycling:cardboard":"yes","recycling:glass":"yes","recycling:paper":"yes","recycling:plastic":"yes","recycling_type":"container"}},"type":"Feature"},
	{"geometry":{"coordinates":[-0.589182,51.244419],"type":"Point"},"properties":{"amenity":"recycling","osm_id":"5158776925","tag":{"recycling:cans":"yes","recycling:cardboard":"yes","recycling:glass":"yes","recycling:paper":"yes","recycling:plastic":"yes","recycling_type":"container"}},"type":"Feature"}
]
}
