{
"type": "FeatureCollection",
"lastupdate": "2020-07-25T00:42:33Z",
"features": [
	{"geometry":{"coordinates":[-2.07506,55.840284],"type":"Point"},"properties":{"amenity":"recycling","osm_id":"248660277","tag":{"recycling:clothes":"yes","recycling:glass":"yes","recycling_type":"container"}},"type":"Feature"},
	{"geometry":{"coordinates":[-2.09291,55.873657],"type":"Point"},"properties":{"amenity":"recycling","osm_id":"2121213241","tag":{"recycling:glass":"yes","recycling_type":"container"}},"type":"Feature"},
	{"geometry":{"coordinates":[-2.091356,55.873003],"type":"Point"},"properties":{"amenity":"recycling","osm_id":"5908397604","tag":{"recycling:paper":"yes","recycling:plastic":"yes","recycling_type":"container"}},"type":"Feature"},
	{"geometry":{"coordinates":[-2.068453,55.841597],"type":"Point"},"properties":{"amenity":"recycling","osm_id":"5910121455","tag":{"operator":"Scottish Borders Council","recycling:paper":"yes","recycling:plastic":"yes","recycling_type":"container","website":"https://www.scotborders.gov.uk/info/20001/bins_rubbish_and_recycling"}},"type":"Feature"},
	{"geometry":{"coordinates":[-2.070151,55.842422],"type":"Point"},"properties":{"amenity":"waste_basket","osm_id":"5917991386","tag":{"waste":"trash"}},"type":"Feature"},
	{"geometry":{"coordinates":[-2.063632,55.838666],"type":"Point"},"properties":{"amenity":"waste_basket","osm_id":"6064287985","tag":{"waste":"trash"}},"type":"Feature"}
]
}
