{
"type": "FeatureCollection",
"lastupdate": "2020-07-30T00:29:16Z",
"features": [
	{"geometry":{"coordinates":[-2.096466,54.971413],"type":"Point"},"properties":{"amenity":"recycling","osm_id":"472329392","tag":{"recycling:clothes":"yes","recycling:glass_bottles":"yes","recycling:plastic":"yes"}},"type":"Feature"},
	{"geometry":{"coordinates":[-2.102927,54.972524],"type":"Point"},"properties":{"amenity":"waste_basket","osm_id":"3550575093"},"type":"Feature"},
	{"geometry":{"coordinates":[-2.10178,54.971539],"type":"Point"},"properties":{"amenity":"waste_basket","osm_id":"3550618290"},"type":"Feature"},
	{"geometry":{"coordinates":[-2.101536,54.97174],"type":"Point"},"properties":{"amenity":"waste_basket","osm_id":"3550625684"},"type":"Feature"},
	{"geometry":{"coordinates":[-2.100417,54.971582],"type":"Point"},"properties":{"amenity":"waste_basket","osm_id":"3550692289"},"type":"Feature"},
	{"geometry":{"coordinates":[-2.103191,54.970242],"type":"Point"},"properties":{"amenity":"waste_basket","osm_id":"3550982229"},"type":"Feature"}
]
}
