{
"type": "FeatureCollection",
"lastupdate": "2020-07-31T01:06:47Z",
"features": [
	{"geometry":{"coordinates":[-2.069382,53.363955],"type":"Point"},"properties":{"amenity":"recycling","osm_id":"277309599","tag":{"recycling:clothes":"yes","recycling:glass":"yes"}},"type":"Feature"},
	{"geometry":{"coordinates":[-2.071097,53.364134],"type":"Point"},"properties":{"amenity":"waste_basket","osm_id":"6137116554","tag":{"waste":"dog_excrement"}},"type":"Feature"},
	{"geometry":{"coordinates":[-2.080999,53.356192],"type":"Point"},"properties":{"amenity":"waste_basket","osm_id":"6137322225","tag":{"waste":"dog_excrement"}},"type":"Feature"},
	{"geometry":{"coordinates":[-2.0624,53.382184],"type":"Point"},"properties":{"amenity":"waste_basket","osm_id":"6137563367"},"type":"Feature"},
	{"geometry":{"coordinates":[-2.059867,53.382318],"type":"Point"},"properties":{"amenity":"waste_basket","osm_id":"6137563369"},"type":"Feature"},
	{"geometry":{"coordinates":[-2.054914,53.363019],"type":"Point"},"properties":{"amenity":"waste_basket","osm_id":"6139089606","tag":{"material":"metal"}},"type":"Feature"}
]
}
