{
"type": "FeatureCollection",
"lastupdate": "2020-07-31T01:06:47Z",
"features": [
	{"geometry":{"coordinates":[-2.063384,52.542117],"type":"Point"},"properties":{"amenity":"recycling","osm_id":"270826034"},"type":"Feature"},
	{"geometry":{"coordinates":[-2.071414,52.566017],"type":"Point"},"properties":{"amenity":"recycling","name":"Rathbone","osm_id":"764039664"},"type":"Feature"},
	{"geometry":{"coordinates":[-2.050936,52.583752],"type":"Point"},"properties":{"amenity":"waste_basket","osm_id":"1477746424"},"type":"Feature"},
	{"geometry":{"coordinates":[-2.087344,52.541642],"type":"Point"},"properties":{"amenity":"recycling","osm_id":"1666052454"},"type":"Feature"},
	{"geometry":{"coordinates":[-2.045994,52.578141],"type":"Point"},"properties":{"amenity":"recycling","osm_id":"2688707474","tag":{"recycling:cans":"yes","recycling:clothes":"yes","recycling:glass":"yes","recycling:paper":"yes"}},"type":"Feature"},
	{"geometry":{"coordinates":[-2.095137,52.547686],"type":"Point"},"properties":{"amenity":"waste_basket","osm_id":"7572388546","tag":{"waste":"dog_excrement"}},"type":"Feature"}
]
}
