{
"type": "FeatureCollection",
"lastupdate": "2020-07-30T00:29:16Z",
"features": [
	{"geometry":{"coordinates":[-2.026555,52.502109],"type":"Point"},"properties":{"amenity":"recycling","osm_id":"347095236","tag":{"recycling:batteries":"yes","recycling:cans":"yes","recycling:clothes":"yes","recycling:glass":"yes","recycling:paper":"yes","recycling:scrap_metal":"yes"}},"type":"Feature"},
	{"geometry":{"coordinates":[-2.029772,52.484739],"type":"Point"},"properties":{"amenity":"recycling","osm_id":"913293695"},"type":"Feature"},
	{"geometry":{"coordinates":[-2.028366,52.487473],"type":"Point"},"properties":{"amenity":"recycling","osm_id":"3124788837"},"type":"Feature"},
	{"geometry":{"coordinates":[-2.025838,52.500578],"type":"Point"},"properties":{"amenity":"recycling","name":"Sandwell Household Recycling Centre","osm_id":"3942231182","tag":{"website":"http://www.sandwell.gov.uk/info/200160/bins_and_recycling/2183/find_a_recycling_centre_or_rubbish_tip"}},"type":"Feature"},
	{"geometry":{"coordinates":[-2.031427,52.529511],"type":"Point"},"properties":{"amenity":"waste_basket","osm_id":"3999419042"},"type":"Feature"},
	{"geometry":{"coordinates":[-2.035528,52.530229],"type":"Point"},"properties":{"amenity":"waste_basket","osm_id":"4000889726"},"type":"Feature"},
	{"geometry":{"coordinates":[-2.031993,52.529601],"type":"Point"},"properties":{"amenity":"waste_basket","osm_id":"4000939427"},"type":"Feature"},
	{"geometry":{"coordinates":[-2.0778,52.508597],"type":"Point"},"properties":{"amenity":"waste_basket","osm_id":"6545868383"},"type":"Feature"}
]
}
