{
"type": "FeatureCollection",
"lastupdate": "2020-07-26T00:31:07Z",
"features": [
	{"geometry":{"coordinates":[-4.697122,51.713297],"type":"Point"},"properties":{"amenity":"waste_basket","osm_id":"4693256436"},"type":"Feature"},
	{"geometry":{"coordinates":[-4.692975,51.716748],"type":"Point"},"properties":{"amenity":"waste_basket","osm_id":"4693256443"},"type":"Feature"},
	{"geometry":{"coordinates":[-4.690556,51.717913],"type":"Point"},"properties":{"amenity":"waste_basket","osm_id":"4693256446"},"type":"Feature"},
	{"geometry":{"coordinates":[-4.6867,51.722666],"type":"Point"},"properties":{"amenity":"waste_basket","osm_id":"4693256483"},"type":"Feature"},
	{"geometry":{"coordinates":[-4.686848,51.722446],"type":"Point"},"properties":{"amenity":"waste_basket","osm_id":"4693256491"},"type":"Feature"},
	{"geometry":{"coordinates":[-4.696108,51.706614],"type":"Point"},"properties":{"amenity":"waste_basket","osm_id":"4693319020"},"type":"Feature"},
	{"geometry":{"coordinates":[-4.701701,51.712003],"type":"Point"},"properties":{"amenity":"waste_basket","osm_id":"4693361046"},"type":"Feature"},
	{"geometry":{"coordinates":[-4.725969,51.702322],"type":"Point"},"properties":{"amenity":"recycling","name":"Crane Cross Civic Amenity & Recycling Centre ","osm_id":"5471154384","tag":{"recycling_type":"centre"}},"type":"Feature"}
]
}
