{
"type": "FeatureCollection",
"lastupdate": "2020-07-24T00:48:03Z",
"features": [
	{"geometry":{"coordinates":[-3.3079,56.127954],"type":"Point"},"properties":{"amenity":"recycling","name":"Lochgelly Recyling Point (Bank Street)","osm_id":"60329464","tag":{"recycling:cans":"yes","recycling:clothes":"yes","recycling:glass_bottles":"yes","recycling:plastic":"yes","recycling:plastic_bottles":"yes","recycling:plastic_packaging":"yes","recycling:shoes":"yes","recycling_type":"container"}},"type":"Feature"},
	{"geometry":{"coordinates":[-3.304298,56.127576],"type":"Point"},"properties":{"amenity":"recycling","name":"Lochgelly Recycling Point (Playing Fields car park)","osm_id":"262846212","tag":{"recycling:cans":"yes","recycling:cardboard":"yes","recycling:glass":"yes","recycling:paper":"yes","recycling:plastic_bottles":"yes","recycling:polystyrene":"yes"}},"type":"Feature"},
	{"geometry":{"coordinates":[-3.33696,56.150902],"type":"Point"},"properties":{"amenity":"recycling","osm_id":"486777367","tag":{"recycling:glass":"yes","recycling:glass_bottles":"yes","recycling:paper":"yes","recycling_type":"container"}},"type":"Feature"},
	{"geometry":{"coordinates":[-3.307473,56.132671],"type":"Point"},"properties":{"amenity":"waste_basket","osm_id":"6793459530"},"type":"Feature"},
	{"geometry":{"coordinates":[-3.307812,56.133171],"type":"Point"},"properties":{"amenity":"waste_basket","osm_id":"6793459531","tag":{"waste":"dog_excrement"}},"type":"Feature"},
	{"geometry":{"coordinates":[-3.307453,56.13245],"type":"Point"},"properties":{"amenity":"waste_basket","osm_id":"6793459532"},"type":"Feature"},
	{"geometry":{"coordinates":[-3.308601,56.135003],"type":"Point"},"properties":{"amenity":"waste_basket","osm_id":"6793459536"},"type":"Feature"},
	{"geometry":{"coordinates":[-3.308552,56.129852],"type":"Point"},"properties":{"amenity":"waste_basket","osm_id":"6793459538"},"type":"Feature"},
	{"geometry":{"coordinates":[-3.309312,56.126471],"type":"Point"},"properties":{"amenity":"waste_basket","osm_id":"6795816935"},"type":"Feature"},
	{"geometry":{"coordinates":[-3.309315,56.126675],"type":"Point"},"properties":{"amenity":"waste_basket","osm_id":"6795816936"},"type":"Feature"},
	{"geometry":{"coordinates":[-3.309352,56.127758],"type":"Point"},"properties":{"amenity":"waste_basket","osm_id":"6795816937"},"type":"Feature"},
	{"geometry":{"coordinates":[-3.312089,56.125136],"type":"Point"},"properties":{"amenity":"waste_basket","osm_id":"6795816938"},"type":"Feature"},
	{"geometry":{"coordinates":[-3.312871,56.124831],"type":"Point"},"properties":{"amenity":"waste_basket","osm_id":"6795816939"},"type":"Feature"},
	{"geometry":{"coordinates":[-3.3149,56.124188],"type":"Point"},"properties":{"amenity":"waste_basket","osm_id":"6797285504"},"type":"Feature"},
	{"geometry":{"coordinates":[-3.312268,56.125187],"type":"Point"},"properties":{"amenity":"waste_basket","osm_id":"6797285505"},"type":"Feature"},
	{"geometry":{"coordinates":[-3.304367,56.126458],"type":"Point"},"properties":{"amenity":"waste_basket","osm_id":"6797285514","tag":{"material":"steel"}},"type":"Feature"},
	{"geometry":{"coordinates":[-3.302884,56.127489],"type":"Point"},"properties":{"amenity":"waste_basket","osm_id":"6797285515","tag":{"material":"steel"}},"type":"Feature"},
	{"geometry":{"coordinates":[-3.302228,56.124625],"type":"Point"},"properties":{"amenity":"waste_basket","osm_id":"6797285519","tag":{"material":"metal"}},"type":"Feature"},
	{"geometry":{"coordinates":[-3.303448,56.125218],"type":"Point"},"properties":{"amenity":"waste_basket","osm_id":"6797285520","tag":{"material":"metal"}},"type":"Feature"},
	{"geometry":{"coordinates":[-3.30377,56.125337],"type":"Point"},"properties":{"amenity":"waste_basket","osm_id":"6797285521","tag":{"material":"metal"}},"type":"Feature"},
	{"geometry":{"coordinates":[-3.304286,56.127467],"type":"Point"},"properties":{"amenity":"waste_basket","osm_id":"6797285526","tag":{"material":"metal"}},"type":"Feature"},
	{"geometry":{"coordinates":[-3.303755,56.131339],"type":"Point"},"properties":{"amenity":"waste_basket","osm_id":"6797285543","tag":{"material":"plastic"}},"type":"Feature"},
	{"geometry":{"coordinates":[-3.306044,56.130702],"type":"Point"},"properties":{"amenity":"waste_basket","osm_id":"6797285545","tag":{"material":"plastic"}},"type":"Feature"},
	{"geometry":{"coordinates":[-3.30947,56.12955],"type":"Point"},"properties":{"amenity":"waste_basket","osm_id":"6797285546","tag":{"material":"plastic"}},"type":"Feature"},
	{"geometry":{"coordinates":[-3.309681,56.128845],"type":"Point"},"properties":{"amenity":"waste_basket","osm_id":"6797285547","tag":{"material":"metal"}},"type":"Feature"},
	{"geometry":{"coordinates":[-3.309543,56.127577],"type":"Point"},"properties":{"amenity":"waste_basket","osm_id":"6797285548"},"type":"Feature"},
	{"geometry":{"coordinates":[-3.309444,56.126332],"type":"Point"},"properties":{"amenity":"waste_basket","osm_id":"6797285549","tag":{"material":"metal"}},"type":"Feature"},
	{"geometry":{"coordinates":[-3.311527,56.125504],"type":"Point"},"properties":{"amenity":"waste_basket","osm_id":"6797285550","tag":{"material":"metal"}},"type":"Feature"},
	{"geometry":{"coordinates":[-3.303262,56.124532],"type":"Point"},"properties":{"amenity":"waste_basket","osm_id":"6800448570"},"type":"Feature"},
	{"geometry":{"coordinates":[-3.302865,56.125754],"type":"Point"},"properties":{"amenity":"waste_basket","osm_id":"6800448571"},"type":"Feature"},
	{"geometry":{"coordinates":[-3.309677,56.127857],"type":"Point"},"properties":{"amenity":"waste_basket","osm_id":"6804075994"},"type":"Feature"},
	{"geometry":{"coordinates":[-3.33418,56.14734],"type":"Point"},"properties":{"amenity":"waste_basket","osm_id":"6810340554"},"type":"Feature"},
	{"geometry":{"coordinates":[-3.339223,56.148838],"type":"Point"},"properties":{"amenity":"waste_basket","osm_id":"6810340560","tag":{"material":"wood"}},"type":"Feature"},
	{"geometry":{"coordinates":[-3.309893,56.129559],"type":"Point"},"properties":{"amenity":"waste_basket","osm_id":"6835953553"},"type":"Feature"},
	{"geometry":{"coordinates":[-3.313725,56.133246],"type":"Point"},"properties":{"amenity":"waste_basket","osm_id":"6835991698"},"type":"Feature"},
	{"geometry":{"coordinates":[-3.314156,56.133769],"type":"Point"},"properties":{"amenity":"waste_basket","osm_id":"6835991699"},"type":"Feature"},
	{"geometry":{"coordinates":[-3.313513,56.133399],"type":"Point"},"properties":{"amenity":"waste_basket","osm_id":"6835991700"},"type":"Feature"},
	{"geometry":{"coordinates":[-3.312833,56.132687],"type":"Point"},"properties":{"amenity":"waste_basket","osm_id":"6838903240","tag":{"material":"plastic"}},"type":"Feature"},
	{"geometry":{"coordinates":[-3.311912,56.132095],"type":"Point"},"properties":{"amenity":"waste_basket","osm_id":"6838903241","tag":{"material":"metal"}},"type":"Feature"},
	{"geometry":{"coordinates":[-3.33393,56.145351],"type":"Point"},"properties":{"amenity":"waste_basket","osm_id":"6841959790","tag":{"material":"metal"}},"type":"Feature"},
	{"geometry":{"coordinates":[-3.330801,56.146752],"type":"Point"},"properties":{"amenity":"waste_basket","osm_id":"6841959792","tag":{"material":"concrete"}},"type":"Feature"},
	{"geometry":{"coordinates":[-3.306809,56.125738],"type":"Point"},"properties":{"amenity":"waste_basket","osm_id":"6848203583","tag":{"material":"plastic"}},"type":"Feature"},
	{"geometry":{"coordinates":[-3.30847,56.127845],"type":"Point"},"properties":{"amenity":"waste_basket","osm_id":"6848203668"},"type":"Feature"},
	{"geometry":{"coordinates":[-3.308474,56.128007],"type":"Point"},"properties":{"amenity":"waste_basket","osm_id":"6848203669"},"type":"Feature"},
	{"geometry":{"coordinates":[-3.311647,56.129781],"type":"Point"},"properties":{"amenity":"waste_basket","osm_id":"6848203732"},"type":"Feature"},
	{"geometry":{"coordinates":[-3.30654,56.128491],"type":"Point"},"properties":{"amenity":"waste_basket","osm_id":"6924911616"},"type":"Feature"},
	{"geometry":{"coordinates":[-3.309057,56.126256],"type":"Point"},"properties":{"amenity":"waste_basket","osm_id":"6939740121","tag":{"material":"plastic"}},"type":"Feature"},
	{"geometry":{"coordinates":[-3.313849,56.136596],"type":"Point"},"properties":{"amenity":"waste_basket","osm_id":"6945538389"},"type":"Feature"},
	{"geometry":{"coordinates":[-3.311064,56.137517],"type":"Point"},"properties":{"amenity":"recycling","name":"Recycle Fife","osm_id":"6945538799","tag":{"operator":"Recycle Fife","operator:type":"private","phone":"+44 1592 781984","recycling_type":"centre"}},"type":"Feature"},
	{"geometry":{"coordinates":[-3.279194,56.144087],"type":"Point"},"properties":{"amenity":"recycling","name":"Bowhill Recycling Facility","osm_id":"6955219721","tag":{"recycling_type":"centre"}},"type":"Feature"},
	{"geometry":{"coordinates":[-3.303119,56.129034],"type":"Point"},"properties":{"amenity":"waste_basket","osm_id":"7259146646"},"type":"Feature"},
	{"geometry":{"coordinates":[-3.316745,56.132526],"type":"Point"},"properties":{"amenity":"waste_basket","osm_id":"7259146668","tag":{"waste":"dog_excrement"}},"type":"Feature"},
	{"geometry":{"coordinates":[-3.314269,56.136523],"type":"Point"},"properties":{"amenity":"waste_basket","osm_id":"7261946532"},"type":"Feature"},
	{"geometry":{"coordinates":[-3.316169,56.131648],"type":"Point"},"properties":{"amenity":"waste_basket","osm_id":"7264727084"},"type":"Feature"},
	{"geometry":{"coordinates":[-3.317253,56.126612],"type":"Point"},"properties":{"amenity":"waste_basket","osm_id":"7264790692"},"type":"Feature"},
	{"geometry":{"coordinates":[-3.316098,56.126544],"type":"Point"},"properties":{"amenity":"waste_basket","osm_id":"7264790693"},"type":"Feature"},
	{"geometry":{"coordinates":[-3.316967,56.126266],"type":"Point"},"properties":{"amenity":"waste_basket","osm_id":"7264790694"},"type":"Feature"}
]
}
