{
"type": "FeatureCollection",
"lastupdate": "2020-07-28T01:29:12Z",
"features": [
	{"geometry":{"coordinates":[-3.300573,56.054413],"type":"Point"},"properties":{"amenity":"recycling","osm_id":"738156055","tag":{"location":"overground","recycling:clothes":"yes","recycling:glass_bottles":"yes","recycling_type":"container"}},"type":"Feature"},
	{"geometry":{"coordinates":[-3.287678,56.053175],"type":"Point"},"properties":{"amenity":"recycling","osm_id":"4032146585","tag":{"location":"overground","recycling:cans":"yes","recycling_type":"container"}},"type":"Feature"},
	{"geometry":{"coordinates":[-3.286573,56.055072],"type":"Point"},"properties":{"amenity":"waste_basket","osm_id":"6577729653"},"type":"Feature"},
	{"geometry":{"coordinates":[-3.297515,56.055497],"type":"Point"},"properties":{"amenity":"waste_basket","osm_id":"7093206388","tag":{"survey:date":"2019-12-29"}},"type":"Feature"},
	{"geometry":{"coordinates":[-3.296756,56.051488],"type":"Point"},"properties":{"amenity":"waste_basket","osm_id":"7106649570"},"type":"Feature"},
	{"geometry":{"coordinates":[-3.297214,56.051246],"type":"Point"},"properties":{"amenity":"waste_basket","osm_id":"7106649573"},"type":"Feature"}
]
}
