{
"type": "FeatureCollection",
"lastupdate": "2020-07-29T00:24:51Z",
"features": [
	{"geometry":{"coordinates":[-0.185657,51.866677],"type":"Point"},"properties":{"amenity":"recycling","osm_id":"470672035"},"type":"Feature"},
	{"geometry":{"coordinates":[-0.234055,51.85452],"type":"Point"},"properties":{"amenity":"recycling","osm_id":"486014446"},"type":"Feature"},
	{"geometry":{"coordinates":[-0.18182,51.86594],"type":"Point"},"properties":{"amenity":"recycling","osm_id":"488402706"},"type":"Feature"},
	{"geometry":{"coordinates":[-0.181733,51.868858],"type":"Point"},"properties":{"amenity":"waste_basket","osm_id":"5294086866"},"type":"Feature"},
	{"geometry":{"coordinates":[-0.181384,51.870129],"type":"Point"},"properties":{"amenity":"waste_basket","osm_id":"5294086917","tag":{"waste":"dog_excrement"}},"type":"Feature"},
	{"geometry":{"coordinates":[-0.181501,51.870135],"type":"Point"},"properties":{"amenity":"waste_basket","osm_id":"5294086918"},"type":"Feature"},
	{"geometry":{"coordinates":[-0.183479,51.868552],"type":"Point"},"properties":{"amenity":"waste_basket","osm_id":"5294086919","tag":{"waste":"dog_excrement"}},"type":"Feature"},
	{"geometry":{"coordinates":[-0.180982,51.868025],"type":"Point"},"properties":{"amenity":"waste_basket","osm_id":"5294086920","tag":{"waste":"dog_excrement"}},"type":"Feature"},
	{"geometry":{"coordinates":[-0.180983,51.868049],"type":"Point"},"properties":{"amenity":"waste_basket","osm_id":"5294086921"},"type":"Feature"},
	{"geometry":{"coordinates":[-0.188402,51.864896],"type":"Point"},"properties":{"amenity":"waste_basket","osm_id":"5294087060","tag":{"waste":"dog_excrement"}},"type":"Feature"},
	{"geometry":{"coordinates":[-0.18835,51.864914],"type":"Point"},"properties":{"amenity":"waste_basket","osm_id":"5294087061"},"type":"Feature"}
]
}
