{
"type": "FeatureCollection",
"lastupdate": "2020-07-25T00:42:33Z",
"features": [
	{"geometry":{"coordinates":[-0.2171,51.356956],"type":"Point"},"properties":{"amenity":"recycling","osm_id":"36871896"},"type":"Feature"},
	{"geometry":{"coordinates":[-0.215812,51.360395],"type":"Point"},"properties":{"amenity":"recycling","osm_id":"251779254"},"type":"Feature"},
	{"geometry":{"coordinates":[-0.224089,51.368639],"type":"Point"},"properties":{"amenity":"recycling","osm_id":"266880602"},"type":"Feature"},
	{"geometry":{"coordinates":[-0.190863,51.358676],"type":"Point"},"properties":{"amenity":"recycling","osm_id":"269014539","tag":{"recycling:cans":"yes","recycling:clothes":"yes","recycling:glass":"yes","recycling:paper":"yes","recycling:plastic_bottles":"yes"}},"type":"Feature"},
	{"geometry":{"coordinates":[-0.196872,51.347752],"type":"Point"},"properties":{"amenity":"recycling","osm_id":"269137157"},"type":"Feature"},
	{"geometry":{"coordinates":[-0.218269,51.379895],"type":"Point"},"properties":{"amenity":"recycling","osm_id":"970557270","tag":{"recycling:cans":"yes","recycling:cardboard":"yes","recycling:magazines":"yes","recycling:paper":"yes"}},"type":"Feature"},
	{"geometry":{"coordinates":[-0.221676,51.376805],"type":"Point"},"properties":{"amenity":"recycling","osm_id":"970601945","tag":{"recycling:cans":"yes","recycling:cardboard":"yes","recycling:glass_bottles":"yes","recycling:magazines":"yes","recycling:newspaper":"yes","recycling:paper":"yes"}},"type":"Feature"},
	{"geometry":{"coordinates":[-0.225854,51.372515],"type":"Point"},"properties":{"amenity":"recycling","name":"Sainsbury's Supermarket Car Park","osm_id":"970601977","tag":{"recycling:cans":"yes","recycling:clothes":"yes","recycling:magazines":"yes","recycling:newspaper":"yes","recycling:paper":"yes"}},"type":"Feature"},
	{"geometry":{"coordinates":[-0.194167,51.344667],"type":"Point"},"properties":{"amenity":"recycling","osm_id":"1108185074"},"type":"Feature"},
	{"geometry":{"coordinates":[-0.205319,51.374311],"type":"Point"},"properties":{"amenity":"recycling","osm_id":"1510802612"},"type":"Feature"},
	{"geometry":{"coordinates":[-0.195143,51.370638],"type":"Point"},"properties":{"amenity":"recycling","osm_id":"1510803621"},"type":"Feature"},
	{"geometry":{"coordinates":[-0.194263,51.351837],"type":"Point"},"properties":{"amenity":"recycling","osm_id":"1672765266"},"type":"Feature"},
	{"geometry":{"coordinates":[-0.199748,51.352073],"type":"Point"},"properties":{"amenity":"recycling","osm_id":"1759630074","tag":{"recycling:cans":"yes","recycling:glass":"yes","recycling:paper":"yes","recycling:plastic_bottles":"yes"}},"type":"Feature"},
	{"geometry":{"coordinates":[-0.197692,51.344385],"type":"Point"},"properties":{"amenity":"recycling","osm_id":"2145473251","tag":{"recycling:cans":"yes","recycling:glass":"yes","recycling:magazines":"yes","recycling:newspaper":"yes","recycling:plastic":"yes","recycling:shoes":"yes","recycling:textiles":"yes","source_ref":"https://www.sutton.gov.uk/index.aspx?articleid=3422"}},"type":"Feature"},
	{"geometry":{"coordinates":[-0.252641,51.385488],"type":"Point"},"properties":{"amenity":"waste_basket","osm_id":"3043305148"},"type":"Feature"},
	{"geometry":{"coordinates":[-0.251439,51.384658],"type":"Point"},"properties":{"amenity":"recycling","osm_id":"3044105783"},"type":"Feature"},
	{"geometry":{"coordinates":[-0.237334,51.376799],"type":"Point"},"properties":{"amenity":"waste_basket","osm_id":"3054972428"},"type":"Feature"},
	{"geometry":{"coordinates":[-0.229887,51.359053],"type":"Point"},"properties":{"amenity":"waste_basket","osm_id":"5094603912"},"type":"Feature"},
	{"geometry":{"coordinates":[-0.229215,51.358091],"type":"Point"},"properties":{"amenity":"waste_basket","osm_id":"5094612145","tag":{"addr:street":"Fir Walk"}},"type":"Feature"},
	{"geometry":{"coordinates":[-0.229766,51.358467],"type":"Point"},"properties":{"amenity":"waste_basket","osm_id":"5094612148","tag":{"addr:street":"Fir Walk"}},"type":"Feature"},
	{"geometry":{"coordinates":[-0.229311,51.358225],"type":"Point"},"properties":{"amenity":"waste_basket","osm_id":"5094612149"},"type":"Feature"},
	{"geometry":{"coordinates":[-0.218325,51.357737],"type":"Point"},"properties":{"amenity":"waste_basket","osm_id":"5095055145","tag":{"waste":"dog_excrement"}},"type":"Feature"},
	{"geometry":{"coordinates":[-0.224193,51.356969],"type":"Point"},"properties":{"amenity":"waste_basket","osm_id":"5095055146"},"type":"Feature"},
	{"geometry":{"coordinates":[-0.211996,51.35526],"type":"Point"},"properties":{"amenity":"waste_basket","osm_id":"5095055150"},"type":"Feature"},
	{"geometry":{"coordinates":[-0.212461,51.355128],"type":"Point"},"properties":{"amenity":"waste_basket","osm_id":"5095055154"},"type":"Feature"},
	{"geometry":{"coordinates":[-0.229782,51.357868],"type":"Point"},"properties":{"amenity":"waste_basket","osm_id":"5493891805"},"type":"Feature"},
	{"geometry":{"coordinates":[-0.231275,51.361379],"type":"Point"},"properties":{"amenity":"waste_basket","osm_id":"5493921634","tag":{"waste":"dog_excrement"}},"type":"Feature"},
	{"geometry":{"coordinates":[-0.214573,51.355851],"type":"Point"},"properties":{"amenity":"waste_basket","osm_id":"6456440094"},"type":"Feature"},
	{"geometry":{"coordinates":[-0.23944,51.394243],"type":"Point"},"properties":{"amenity":"recycling","osm_id":"6459989187","tag":{"recycling:clothes":"yes","recycling_type":"container"}},"type":"Feature"},
	{"geometry":{"coordinates":[-0.2361,51.393296],"type":"Point"},"properties":{"amenity":"recycling","osm_id":"6486878892","tag":{"recycling:clothes":"yes","recycling_type":"container"}},"type":"Feature"},
	{"geometry":{"coordinates":[-0.223237,51.392747],"type":"Point"},"properties":{"amenity":"recycling","osm_id":"6564063676","tag":{"recycling:clothes":"yes","recycling:shoes":"yes","recycling_type":"container"}},"type":"Feature"},
	{"geometry":{"coordinates":[-0.213575,51.398315],"type":"Point"},"properties":{"amenity":"waste_basket","osm_id":"6579767553"},"type":"Feature"},
	{"geometry":{"coordinates":[-0.216104,51.388375],"type":"Point"},"properties":{"amenity":"recycling","osm_id":"7040958700","tag":{"recycling:clothes":"yes","recycling:shoes":"yes","recycling_type":"container"}},"type":"Feature"},
	{"geometry":{"coordinates":[-0.211824,51.385308],"type":"Point"},"properties":{"amenity":"recycling","osm_id":"7644680989","tag":{"recycling:shoes":"yes","recycling_type":"container"}},"type":"Feature"},
	{"geometry":{"coordinates":[-0.21276,51.386157],"type":"Point"},"properties":{"amenity":"recycling","osm_id":"7647657146","tag":{"recycling:clothes":"yes","recycling:shoes":"yes","recycling_type":"container"}},"type":"Feature"}
]
}
