{
"type": "FeatureCollection",
"lastupdate": "2020-07-25T00:42:33Z",
"features": [
	{"geometry":{"coordinates":[0.034232,51.399328],"type":"Point"},"properties":{"amenity":"recycling","name":"Waldo Road Reuse & Recycling Centre","osm_id":"420364322"},"type":"Feature"},
	{"geometry":{"coordinates":[0.011282,51.406888],"type":"Point"},"properties":{"amenity":"recycling","osm_id":"420369793"},"type":"Feature"},
	{"geometry":{"coordinates":[0.014992,51.40652],"type":"Point"},"properties":{"amenity":"recycling","osm_id":"420773292"},"type":"Feature"},
	{"geometry":{"coordinates":[0.057855,51.449778],"type":"Point"},"properties":{"amenity":"recycling","osm_id":"649495456"},"type":"Feature"},
	{"geometry":{"coordinates":[0.058198,51.449764],"type":"Point"},"properties":{"amenity":"recycling","osm_id":"649501430"},"type":"Feature"},
	{"geometry":{"coordinates":[0.011743,51.399929],"type":"Point"},"properties":{"amenity":"waste_basket","osm_id":"2168764327"},"type":"Feature"},
	{"geometry":{"coordinates":[0.012407,51.403036],"type":"Point"},"properties":{"amenity":"waste_basket","osm_id":"2168764328"},"type":"Feature"},
	{"geometry":{"coordinates":[0.012228,51.400026],"type":"Point"},"properties":{"amenity":"waste_basket","osm_id":"2168764329"},"type":"Feature"},
	{"geometry":{"coordinates":[0.013256,51.399843],"type":"Point"},"properties":{"amenity":"waste_basket","osm_id":"2168764331"},"type":"Feature"},
	{"geometry":{"coordinates":[0.010944,51.403988],"type":"Point"},"properties":{"amenity":"waste_basket","osm_id":"2168764334"},"type":"Feature"},
	{"geometry":{"coordinates":[0.013113,51.403596],"type":"Point"},"properties":{"amenity":"waste_basket","osm_id":"2168764336"},"type":"Feature"},
	{"geometry":{"coordinates":[0.012425,51.402751],"type":"Point"},"properties":{"amenity":"waste_basket","osm_id":"2168764337"},"type":"Feature"},
	{"geometry":{"coordinates":[0.011803,51.402586],"type":"Point"},"properties":{"amenity":"waste_basket","osm_id":"2168764339"},"type":"Feature"},
	{"geometry":{"coordinates":[0.01206,51.402324],"type":"Point"},"properties":{"amenity":"waste_basket","osm_id":"2168764341"},"type":"Feature"},
	{"geometry":{"coordinates":[0.01273,51.403457],"type":"Point"},"properties":{"amenity":"waste_basket","osm_id":"2168764342"},"type":"Feature"},
	{"geometry":{"coordinates":[0.012885,51.401673],"type":"Point"},"properties":{"amenity":"waste_basket","osm_id":"2168764343"},"type":"Feature"},
	{"geometry":{"coordinates":[0.012375,51.403278],"type":"Point"},"properties":{"amenity":"waste_basket","osm_id":"2168764344"},"type":"Feature"},
	{"geometry":{"coordinates":[0.013381,51.401279],"type":"Point"},"properties":{"amenity":"waste_basket","osm_id":"2168764345"},"type":"Feature"},
	{"geometry":{"coordinates":[0.074608,51.412127],"type":"Point"},"properties":{"amenity":"waste_basket","osm_id":"4663509853"},"type":"Feature"},
	{"geometry":{"coordinates":[0.034383,51.45284],"type":"Point"},"properties":{"amenity":"waste_basket","osm_id":"5220304637"},"type":"Feature"},
	{"geometry":{"coordinates":[0.034977,51.452817],"type":"Point"},"properties":{"amenity":"waste_basket","osm_id":"5220304638"},"type":"Feature"},
	{"geometry":{"coordinates":[0.035089,51.452743],"type":"Point"},"properties":{"amenity":"waste_basket","osm_id":"5220304654"},"type":"Feature"},
	{"geometry":{"coordinates":[0.03512,51.452687],"type":"Point"},"properties":{"amenity":"waste_basket","osm_id":"5220304655"},"type":"Feature"},
	{"geometry":{"coordinates":[0.027474,51.44218],"type":"Point"},"properties":{"amenity":"waste_basket","osm_id":"6019392551"},"type":"Feature"},
	{"geometry":{"coordinates":[0.027368,51.441623],"type":"Point"},"properties":{"amenity":"waste_basket","osm_id":"6019392552"},"type":"Feature"}
]
}
