{
"type": "FeatureCollection",
"lastupdate": "2020-07-26T00:31:07Z",
"features": [
	{"geometry":{"coordinates":[-1.337253,52.848766],"type":"Point"},"properties":{"amenity":"recycling","osm_id":"1232970784","tag":{"recycling:books":"yes","recycling:cans":"yes","recycling:cartons":"yes","recycling:clothes":"yes","recycling:foil":"yes","recycling:glass_bottles":"yes","recycling:paper":"yes","recycling_type":"container"}},"type":"Feature"},
	{"geometry":{"coordinates":[-1.345228,52.844016],"type":"Point"},"properties":{"amenity":"recycling","osm_id":"1295374812","tag":{"recycling:cans":"yes","recycling:clothes":"yes","recycling:plastic_bottles":"yes","recycling:shoes":"yes","recycling_type":"container"}},"type":"Feature"},
	{"geometry":{"coordinates":[-1.339822,52.816459],"type":"Point"},"properties":{"amenity":"waste_basket","osm_id":"5306922337"},"type":"Feature"},
	{"geometry":{"coordinates":[-1.339634,52.840121],"type":"Point"},"properties":{"amenity":"waste_basket","osm_id":"6172865673"},"type":"Feature"},
	{"geometry":{"coordinates":[-1.34011,52.840315],"type":"Point"},"properties":{"amenity":"waste_basket","osm_id":"6172865681"},"type":"Feature"},
	{"geometry":{"coordinates":[-1.337325,52.839723],"type":"Point"},"properties":{"amenity":"waste_basket","osm_id":"6172866099"},"type":"Feature"},
	{"geometry":{"coordinates":[-1.336725,52.843141],"type":"Point"},"properties":{"amenity":"waste_basket","osm_id":"6177431704"},"type":"Feature"},
	{"geometry":{"coordinates":[-1.33644,52.842836],"type":"Point"},"properties":{"amenity":"waste_basket","osm_id":"6177431707"},"type":"Feature"},
	{"geometry":{"coordinates":[-1.336284,52.842597],"type":"Point"},"properties":{"amenity":"waste_basket","osm_id":"6177431717"},"type":"Feature"},
	{"geometry":{"coordinates":[-1.34094,52.841373],"type":"Point"},"properties":{"amenity":"waste_basket","osm_id":"6179797323"},"type":"Feature"},
	{"geometry":{"coordinates":[-1.337293,52.844817],"type":"Point"},"properties":{"amenity":"waste_basket","osm_id":"6179799712"},"type":"Feature"},
	{"geometry":{"coordinates":[-1.337277,52.843999],"type":"Point"},"properties":{"amenity":"waste_basket","osm_id":"6179799729"},"type":"Feature"},
	{"geometry":{"coordinates":[-1.33564,52.841729],"type":"Point"},"properties":{"amenity":"waste_basket","osm_id":"6181768092"},"type":"Feature"},
	{"geometry":{"coordinates":[-1.335967,52.841833],"type":"Point"},"properties":{"amenity":"waste_basket","osm_id":"6181768158"},"type":"Feature"},
	{"geometry":{"coordinates":[-1.33262,52.840196],"type":"Point"},"properties":{"amenity":"waste_basket","osm_id":"6182420889"},"type":"Feature"},
	{"geometry":{"coordinates":[-1.336703,52.840366],"type":"Point"},"properties":{"amenity":"waste_basket","osm_id":"6182421167"},"type":"Feature"},
	{"geometry":{"coordinates":[-1.339708,52.841369],"type":"Point"},"properties":{"amenity":"waste_basket","osm_id":"6184955784"},"type":"Feature"},
	{"geometry":{"coordinates":[-1.339082,52.841607],"type":"Point"},"properties":{"amenity":"waste_basket","osm_id":"6184955804"},"type":"Feature"},
	{"geometry":{"coordinates":[-1.337472,52.842669],"type":"Point"},"properties":{"amenity":"waste_basket","osm_id":"6184955807"},"type":"Feature"},
	{"geometry":{"coordinates":[-1.337457,52.84249],"type":"Point"},"properties":{"amenity":"waste_basket","osm_id":"6184955809"},"type":"Feature"},
	{"geometry":{"coordinates":[-1.3376,52.842394],"type":"Point"},"properties":{"amenity":"waste_basket","osm_id":"6184955810"},"type":"Feature"},
	{"geometry":{"coordinates":[-1.33798,52.842343],"type":"Point"},"properties":{"amenity":"waste_basket","osm_id":"6184955812"},"type":"Feature"},
	{"geometry":{"coordinates":[-1.338066,52.842147],"type":"Point"},"properties":{"amenity":"waste_basket","osm_id":"6184955818"},"type":"Feature"},
	{"geometry":{"coordinates":[-1.338631,52.84184],"type":"Point"},"properties":{"amenity":"waste_basket","osm_id":"6184955819"},"type":"Feature"},
	{"geometry":{"coordinates":[-1.337983,52.840888],"type":"Point"},"properties":{"amenity":"waste_basket","osm_id":"6184956121"},"type":"Feature"},
	{"geometry":{"coordinates":[-1.339275,52.841504],"type":"Point"},"properties":{"amenity":"waste_basket","osm_id":"6184956188"},"type":"Feature"},
	{"geometry":{"coordinates":[-1.336963,52.84803],"type":"Point"},"properties":{"amenity":"waste_basket","osm_id":"6226216293"},"type":"Feature"},
	{"geometry":{"coordinates":[-1.336253,52.849116],"type":"Point"},"properties":{"amenity":"waste_basket","osm_id":"6226216326"},"type":"Feature"},
	{"geometry":{"coordinates":[-1.33567,52.850046],"type":"Point"},"properties":{"amenity":"waste_basket","osm_id":"6226216651"},"type":"Feature"},
	{"geometry":{"coordinates":[-1.342078,52.849548],"type":"Point"},"properties":{"amenity":"waste_basket","osm_id":"6240717577"},"type":"Feature"},
	{"geometry":{"coordinates":[-1.337735,52.844447],"type":"Point"},"properties":{"amenity":"waste_basket","osm_id":"6245740164"},"type":"Feature"},
	{"geometry":{"coordinates":[-1.338992,52.845764],"type":"Point"},"properties":{"amenity":"waste_basket","osm_id":"6245740310","tag":{"waste":"dog_excrement"}},"type":"Feature"},
	{"geometry":{"coordinates":[-1.338988,52.845778],"type":"Point"},"properties":{"amenity":"waste_basket","osm_id":"6245740311"},"type":"Feature"},
	{"geometry":{"coordinates":[-1.336261,52.850857],"type":"Point"},"properties":{"amenity":"waste_basket","osm_id":"6245740549"},"type":"Feature"},
	{"geometry":{"coordinates":[-1.335713,52.85081],"type":"Point"},"properties":{"amenity":"waste_basket","osm_id":"6245740553"},"type":"Feature"},
	{"geometry":{"coordinates":[-1.341635,52.846153],"type":"Point"},"properties":{"amenity":"waste_basket","osm_id":"6250727552"},"type":"Feature"},
	{"geometry":{"coordinates":[-1.350388,52.845854],"type":"Point"},"properties":{"amenity":"waste_basket","osm_id":"7008440038","tag":{"collection_times":"Wednesday","waste":"dog_excrement"}},"type":"Feature"},
	{"geometry":{"coordinates":[-1.341311,52.835276],"type":"Point"},"properties":{"amenity":"waste_basket","osm_id":"7042223300","tag":{"waste":"dog_excrement"}},"type":"Feature"},
	{"geometry":{"coordinates":[-1.339693,52.835365],"type":"Point"},"properties":{"amenity":"waste_basket","osm_id":"7042223301","tag":{"waste":"dog_excrement"}},"type":"Feature"},
	{"geometry":{"coordinates":[-1.340766,52.835015],"type":"Point"},"properties":{"amenity":"waste_basket","osm_id":"7042223302"},"type":"Feature"},
	{"geometry":{"coordinates":[-1.332666,52.817333],"type":"Point"},"properties":{"amenity":"waste_basket","osm_id":"7057323719"},"type":"Feature"},
	{"geometry":{"coordinates":[-1.332131,52.816931],"type":"Point"},"properties":{"amenity":"waste_basket","osm_id":"7057323722"},"type":"Feature"}
]
}
