{
"type": "FeatureCollection",
"lastupdate": "2020-07-29T00:24:51Z",
"features": [
	{"geometry":{"coordinates":[-1.328232,52.058776],"type":"Point"},"properties":{"amenity":"recycling","osm_id":"676397109","tag":{"location":"overground","recycling:glass":"yes","recycling_type":"container"}},"type":"Feature"},
	{"geometry":{"coordinates":[-1.346742,52.07858],"type":"Point"},"properties":{"amenity":"recycling","osm_id":"763100701"},"type":"Feature"},
	{"geometry":{"coordinates":[-1.338176,52.074324],"type":"Point"},"properties":{"amenity":"recycling","osm_id":"1987277311","tag":{"recycling:batteries":"no","recycling:books":"yes","recycling:cans":"yes","recycling:cardboard":"yes","recycling:cartons":"no","recycling:clothes":"yes","recycling:electrical_appliances":"no","recycling:glass":"no","recycling:glass_bottles":"yes","recycling:green_waste":"no","recycling:magazines":"yes","recycling:newspaper":"yes","recycling:paper":"yes","recycling:paper_packaging":"yes","recycling:plastic":"no","recycling:plastic_bottles":"no","recycling:plastic_packaging":"no","recycling:scrap_metal":"no","recycling:small_appliances":"yes","recycling:waste":"no","recycling:wood":"no","recycling_type":"container"}},"type":"Feature"},
	{"geometry":{"coordinates":[-1.332533,52.057474],"type":"Point"},"properties":{"amenity":"recycling","osm_id":"2081003386","tag":{"recycling:cans":"yes","recycling:clothes":"yes","recycling:glass":"yes","recycling:shoes":"yes","recycling_type":"container"}},"type":"Feature"},
	{"geometry":{"coordinates":[-1.363611,52.062639],"type":"Point"},"properties":{"amenity":"recycling","osm_id":"2081086454"},"type":"Feature"},
	{"geometry":{"coordinates":[-1.338351,52.063067],"type":"Point"},"properties":{"amenity":"recycling","osm_id":"2081088687"},"type":"Feature"},
	{"geometry":{"coordinates":[-1.332212,52.059176],"type":"Point"},"properties":{"amenity":"recycling","osm_id":"2081384122","tag":{"recycling:cans":"yes","recycling:clothes":"yes","recycling:glass":"yes","recycling:shoes":"yes","recycling_type":"container"}},"type":"Feature"},
	{"geometry":{"coordinates":[-1.355312,52.073917],"type":"Point"},"properties":{"amenity":"recycling","osm_id":"2081448110"},"type":"Feature"},
	{"geometry":{"coordinates":[-1.320266,52.06744],"type":"Point"},"properties":{"amenity":"recycling","osm_id":"2081460384"},"type":"Feature"},
	{"geometry":{"coordinates":[-1.333815,52.065543],"type":"Point"},"properties":{"amenity":"recycling","osm_id":"2206932224"},"type":"Feature"},
	{"geometry":{"coordinates":[-1.329712,52.061944],"type":"Point"},"properties":{"amenity":"waste_basket","osm_id":"2894558348","tag":{"check_date":"2019-11-26"}},"type":"Feature"},
	{"geometry":{"coordinates":[-1.329661,52.061954],"type":"Point"},"properties":{"amenity":"waste_basket","osm_id":"2894558349"},"type":"Feature"},
	{"geometry":{"coordinates":[-1.328367,52.064448],"type":"Point"},"properties":{"amenity":"waste_basket","osm_id":"2894558350"},"type":"Feature"},
	{"geometry":{"coordinates":[-1.328359,52.06565],"type":"Point"},"properties":{"amenity":"waste_basket","osm_id":"2894558351"},"type":"Feature"},
	{"geometry":{"coordinates":[-1.328498,52.066775],"type":"Point"},"properties":{"amenity":"waste_basket","osm_id":"2894562206"},"type":"Feature"},
	{"geometry":{"coordinates":[-1.328964,52.067162],"type":"Point"},"properties":{"amenity":"recycling","osm_id":"2894562207"},"type":"Feature"},
	{"geometry":{"coordinates":[-1.326844,52.06718],"type":"Point"},"properties":{"amenity":"waste_basket","osm_id":"2894562208"},"type":"Feature"},
	{"geometry":{"coordinates":[-1.319938,52.067458],"type":"Point"},"properties":{"amenity":"waste_basket","osm_id":"2919602836"},"type":"Feature"},
	{"geometry":{"coordinates":[-1.32792,52.069498],"type":"Point"},"properties":{"amenity":"waste_basket","osm_id":"2919602838"},"type":"Feature"},
	{"geometry":{"coordinates":[-1.320175,52.070085],"type":"Point"},"properties":{"amenity":"waste_basket","osm_id":"2919602839"},"type":"Feature"},
	{"geometry":{"coordinates":[-1.349952,52.078268],"type":"Point"},"properties":{"amenity":"waste_basket","osm_id":"2919602840"},"type":"Feature"},
	{"geometry":{"coordinates":[-1.351258,52.078457],"type":"Point"},"properties":{"amenity":"waste_basket","osm_id":"2919602841"},"type":"Feature"},
	{"geometry":{"coordinates":[-1.347862,52.078949],"type":"Point"},"properties":{"amenity":"waste_basket","osm_id":"2919602842"},"type":"Feature"},
	{"geometry":{"coordinates":[-1.361818,52.079851],"type":"Point"},"properties":{"amenity":"waste_basket","osm_id":"2919602843"},"type":"Feature"},
	{"geometry":{"coordinates":[-1.328231,52.065787],"type":"Point"},"properties":{"amenity":"waste_basket","osm_id":"4676173480"},"type":"Feature"},
	{"geometry":{"coordinates":[-1.327033,52.065432],"type":"Point"},"properties":{"amenity":"waste_basket","osm_id":"4676173481"},"type":"Feature"},
	{"geometry":{"coordinates":[-1.32793,52.065682],"type":"Point"},"properties":{"amenity":"waste_basket","osm_id":"5110988510","tag":{"waste":"dog_excrement"}},"type":"Feature"},
	{"geometry":{"coordinates":[-1.325948,52.064019],"type":"Point"},"properties":{"amenity":"waste_basket","osm_id":"5111012694"},"type":"Feature"},
	{"geometry":{"coordinates":[-1.325957,52.064009],"type":"Point"},"properties":{"amenity":"recycling","osm_id":"5111012695","tag":{"recycling_type":"container"}},"type":"Feature"},
	{"geometry":{"coordinates":[-1.326998,52.065506],"type":"Point"},"properties":{"amenity":"recycling","osm_id":"5111393326","tag":{"recycling_type":"container"}},"type":"Feature"},
	{"geometry":{"coordinates":[-1.331905,52.05781],"type":"Point"},"properties":{"amenity":"recycling","osm_id":"6946123126","tag":{"recycling:clothes":"yes","recycling:shoes":"yes","recycling_type":"container"}},"type":"Feature"},
	{"geometry":{"coordinates":[-1.327477,52.062227],"type":"Point"},"properties":{"amenity":"waste_basket","osm_id":"7012506271"},"type":"Feature"}
]
}
