{
"type": "FeatureCollection",
"lastupdate": "2020-07-25T00:42:33Z",
"features": [
	{"geometry":{"coordinates":[-1.340562,50.970695],"type":"Point"},"properties":{"amenity":"recycling","osm_id":"265419750"},"type":"Feature"},
	{"geometry":{"coordinates":[-1.330935,50.980739],"type":"Point"},"properties":{"amenity":"recycling","osm_id":"265468279","tag":{"recycling:clothes":"yes","recycling:glass_bottles":"yes"}},"type":"Feature"},
	{"geometry":{"coordinates":[-1.374853,50.988435],"type":"Point"},"properties":{"amenity":"recycling","osm_id":"565502438"},"type":"Feature"},
	{"geometry":{"coordinates":[-1.385431,50.979015],"type":"Point"},"properties":{"amenity":"recycling","osm_id":"918004764","tag":{"recycling:glass":"yes","recycling_type":"container"}},"type":"Feature"},
	{"geometry":{"coordinates":[-1.390358,50.965806],"type":"Point"},"properties":{"amenity":"recycling","osm_id":"1641793771"},"type":"Feature"},
	{"geometry":{"coordinates":[-1.320921,50.996225],"type":"Point"},"properties":{"amenity":"recycling","name":"Colden Common Community Centre","osm_id":"1994602242","tag":{"recycling:cardboard":"yes","recycling:clothes":"yes","recycling:glass_bottles":"yes","recycling:magazines":"yes","recycling:newspaper":"yes","recycling:paper":"yes","recycling:shoes":"yes"}},"type":"Feature"},
	{"geometry":{"coordinates":[-1.369294,50.975681],"type":"Point"},"properties":{"amenity":"recycling","osm_id":"2147715391","tag":{"recycling_type":"container"}},"type":"Feature"},
	{"geometry":{"coordinates":[-1.371848,50.995824],"type":"Point"},"properties":{"amenity":"waste_basket","osm_id":"4709771436","tag":{"designation":"Dog Waste Bin"}},"type":"Feature"},
	{"geometry":{"coordinates":[-1.372518,50.99385],"type":"Point"},"properties":{"amenity":"waste_basket","osm_id":"4709771437","tag":{"designation":"Dog Waste Bin"}},"type":"Feature"},
	{"geometry":{"coordinates":[-1.372202,50.995984],"type":"Point"},"properties":{"amenity":"waste_basket","osm_id":"4709771438","tag":{"designation":"Dog Waste Bin"}},"type":"Feature"},
	{"geometry":{"coordinates":[-1.353896,50.970399],"type":"Point"},"properties":{"amenity":"waste_basket","osm_id":"5738083819"},"type":"Feature"},
	{"geometry":{"coordinates":[-1.353462,50.970071],"type":"Point"},"properties":{"amenity":"waste_basket","osm_id":"5739326193"},"type":"Feature"},
	{"geometry":{"coordinates":[-1.353422,50.969854],"type":"Point"},"properties":{"amenity":"waste_basket","osm_id":"5739326195"},"type":"Feature"},
	{"geometry":{"coordinates":[-1.352861,50.970418],"type":"Point"},"properties":{"amenity":"waste_basket","osm_id":"5739326196"},"type":"Feature"},
	{"geometry":{"coordinates":[-1.353897,50.971498],"type":"Point"},"properties":{"amenity":"waste_basket","osm_id":"5739326197"},"type":"Feature"},
	{"geometry":{"coordinates":[-1.353038,50.970471],"type":"Point"},"properties":{"amenity":"waste_basket","osm_id":"5739326198"},"type":"Feature"},
	{"geometry":{"coordinates":[-1.353376,50.968868],"type":"Point"},"properties":{"amenity":"waste_basket","osm_id":"5739338894"},"type":"Feature"},
	{"geometry":{"coordinates":[-1.353404,50.968563],"type":"Point"},"properties":{"amenity":"waste_basket","osm_id":"5739338896"},"type":"Feature"},
	{"geometry":{"coordinates":[-1.352239,50.96739],"type":"Point"},"properties":{"amenity":"waste_basket","osm_id":"5739399604"},"type":"Feature"},
	{"geometry":{"coordinates":[-1.352121,50.967596],"type":"Point"},"properties":{"amenity":"waste_basket","osm_id":"5739399605"},"type":"Feature"},
	{"geometry":{"coordinates":[-1.35192,50.968695],"type":"Point"},"properties":{"amenity":"waste_basket","osm_id":"5739401626"},"type":"Feature"},
	{"geometry":{"coordinates":[-1.35071,50.969274],"type":"Point"},"properties":{"amenity":"waste_basket","osm_id":"5739407485"},"type":"Feature"},
	{"geometry":{"coordinates":[-1.349962,50.97091],"type":"Point"},"properties":{"amenity":"waste_basket","osm_id":"5739417730"},"type":"Feature"},
	{"geometry":{"coordinates":[-1.351102,50.971965],"type":"Point"},"properties":{"amenity":"waste_basket","osm_id":"5739435685"},"type":"Feature"},
	{"geometry":{"coordinates":[-1.350983,50.972068],"type":"Point"},"properties":{"amenity":"waste_basket","osm_id":"5739436983"},"type":"Feature"},
	{"geometry":{"coordinates":[-1.351771,50.971619],"type":"Point"},"properties":{"amenity":"waste_basket","osm_id":"5739507282"},"type":"Feature"},
	{"geometry":{"coordinates":[-1.35176,50.971621],"type":"Point"},"properties":{"amenity":"waste_basket","osm_id":"5747333043"},"type":"Feature"},
	{"geometry":{"coordinates":[-1.379203,50.96798],"type":"Point"},"properties":{"amenity":"waste_basket","name":"Bin","osm_id":"7153668985","tag":{"survey:date":"2020-01-23"}},"type":"Feature"},
	{"geometry":{"coordinates":[-1.377223,50.969454],"type":"Point"},"properties":{"amenity":"waste_basket","name":"Bin","osm_id":"7153668986","tag":{"survey:date":"2020-01-23"}},"type":"Feature"},
	{"geometry":{"coordinates":[-1.374061,50.971315],"type":"Point"},"properties":{"amenity":"waste_basket","name":"Bin","osm_id":"7153668987","tag":{"survey:date":"2020-01-23"}},"type":"Feature"}
]
}
