{
"type": "FeatureCollection",
"lastupdate": "2020-07-27T00:28:31Z",
"features": [
	{"geometry":{"coordinates":[-1.362605,50.891142],"type":"Point"},"properties":{"amenity":"recycling","osm_id":"370881137"},"type":"Feature"},
	{"geometry":{"coordinates":[-1.405228,50.897094],"type":"Point"},"properties":{"amenity":"recycling","osm_id":"704880383","tag":{"recycling:glass":"yes"}},"type":"Feature"},
	{"geometry":{"coordinates":[-1.396385,50.897205],"type":"Point"},"properties":{"amenity":"recycling","name":"South Western House Recycling Centre","osm_id":"1174979496","tag":{"recycling:glass_bottles":"yes"}},"type":"Feature"},
	{"geometry":{"coordinates":[-1.350398,50.869712],"type":"Point"},"properties":{"amenity":"waste_basket","osm_id":"1443483876"},"type":"Feature"},
	{"geometry":{"coordinates":[-1.319393,50.893339],"type":"Point"},"properties":{"amenity":"recycling","osm_id":"1769332220"},"type":"Feature"},
	{"geometry":{"coordinates":[-1.357356,50.876792],"type":"Point"},"properties":{"amenity":"recycling","osm_id":"2449939464"},"type":"Feature"},
	{"geometry":{"coordinates":[-1.33969,50.880184],"type":"Point"},"properties":{"amenity":"recycling","osm_id":"2450390296"},"type":"Feature"},
	{"geometry":{"coordinates":[-1.395979,50.898874],"type":"Point"},"properties":{"amenity":"recycling","osm_id":"3188829290","tag":{"recycling:glass":"yes","recycling_type":"container"}},"type":"Feature"},
	{"geometry":{"coordinates":[-1.318744,50.890806],"type":"Point"},"properties":{"amenity":"waste_basket","osm_id":"4351050901"},"type":"Feature"},
	{"geometry":{"coordinates":[-1.405959,50.897248],"type":"Point"},"properties":{"amenity":"waste_basket","osm_id":"4979653704"},"type":"Feature"},
	{"geometry":{"coordinates":[-1.406211,50.897452],"type":"Point"},"properties":{"amenity":"waste_basket","osm_id":"4979653706"},"type":"Feature"},
	{"geometry":{"coordinates":[-1.404022,50.901563],"type":"Point"},"properties":{"amenity":"waste_basket","osm_id":"5008462554"},"type":"Feature"},
	{"geometry":{"coordinates":[-1.403974,50.901091],"type":"Point"},"properties":{"amenity":"waste_basket","osm_id":"5008462555"},"type":"Feature"},
	{"geometry":{"coordinates":[-1.404068,50.901091],"type":"Point"},"properties":{"amenity":"waste_basket","osm_id":"5008462865"},"type":"Feature"},
	{"geometry":{"coordinates":[-1.405758,50.850238],"type":"Point"},"properties":{"amenity":"waste_basket","osm_id":"5075590041","tag":{"waste":"dog_excrement"}},"type":"Feature"},
	{"geometry":{"coordinates":[-1.361992,50.896185],"type":"Point"},"properties":{"amenity":"waste_basket","osm_id":"6060248088"},"type":"Feature"},
	{"geometry":{"coordinates":[-1.361951,50.894048],"type":"Point"},"properties":{"amenity":"waste_basket","osm_id":"6060248101"},"type":"Feature"},
	{"geometry":{"coordinates":[-1.361212,50.89389],"type":"Point"},"properties":{"amenity":"waste_basket","osm_id":"6060248114"},"type":"Feature"},
	{"geometry":{"coordinates":[-1.359793,50.893719],"type":"Point"},"properties":{"amenity":"waste_basket","osm_id":"6060248123"},"type":"Feature"},
	{"geometry":{"coordinates":[-1.404548,50.902729],"type":"Point"},"properties":{"amenity":"waste_basket","osm_id":"6594241205"},"type":"Feature"}
]
}
