{
"type": "FeatureCollection",
"lastupdate": "2020-07-30T00:29:16Z",
"features": [
	{"geometry":{"coordinates":[-4.152985,55.763169],"type":"Point"},"properties":{"amenity":"recycling","osm_id":"442580259"},"type":"Feature"},
	{"geometry":{"coordinates":[-4.19883,55.7408],"type":"Point"},"properties":{"amenity":"recycling","name":"Morrisons","osm_id":"444926185","tag":{"recycling:clothes":"yes","recycling:glass":"yes","recycling:glass_bottles":"yes","recycling_type":"container"}},"type":"Feature"},
	{"geometry":{"coordinates":[-4.14532,55.748936],"type":"Point"},"properties":{"amenity":"waste_basket","osm_id":"6960201587"},"type":"Feature"},
	{"geometry":{"coordinates":[-4.145523,55.74904],"type":"Point"},"properties":{"amenity":"waste_basket","osm_id":"6960203187"},"type":"Feature"},
	{"geometry":{"coordinates":[-4.144916,55.748857],"type":"Point"},"properties":{"amenity":"waste_basket","osm_id":"6960203489"},"type":"Feature"},
	{"geometry":{"coordinates":[-4.172874,55.761571],"type":"Point"},"properties":{"amenity":"waste_basket","osm_id":"6960268785"},"type":"Feature"}
]
}
