{
"type": "FeatureCollection",
"lastupdate": "2020-07-25T00:42:33Z",
"features": [
	{"geometry":{"coordinates":[-0.670968,50.797434],"type":"Point"},"properties":{"amenity":"recycling","osm_id":"428250117"},"type":"Feature"},
	{"geometry":{"coordinates":[-0.61791,50.794507],"type":"Point"},"properties":{"amenity":"recycling","osm_id":"1966245821"},"type":"Feature"},
	{"geometry":{"coordinates":[-0.656306,50.793932],"type":"Point"},"properties":{"amenity":"waste_basket","osm_id":"4749518122"},"type":"Feature"},
	{"geometry":{"coordinates":[-0.656547,50.79382],"type":"Point"},"properties":{"amenity":"waste_basket","osm_id":"4749518123"},"type":"Feature"},
	{"geometry":{"coordinates":[-0.656486,50.793817],"type":"Point"},"properties":{"amenity":"waste_basket","osm_id":"4749518124"},"type":"Feature"},
	{"geometry":{"coordinates":[-0.655975,50.793988],"type":"Point"},"properties":{"amenity":"waste_basket","osm_id":"4749518125"},"type":"Feature"},
	{"geometry":{"coordinates":[-0.655839,50.793905],"type":"Point"},"properties":{"amenity":"waste_basket","osm_id":"4749518126"},"type":"Feature"},
	{"geometry":{"coordinates":[-0.656519,50.793887],"type":"Point"},"properties":{"amenity":"waste_basket","osm_id":"4752648579"},"type":"Feature"},
	{"geometry":{"coordinates":[-0.658642,50.792905],"type":"Point"},"properties":{"amenity":"recycling","osm_id":"4764732341","tag":{"recycling_type":"container"}},"type":"Feature"},
	{"geometry":{"coordinates":[-0.639545,50.793796],"type":"Point"},"properties":{"amenity":"waste_basket","osm_id":"4767961500"},"type":"Feature"},
	{"geometry":{"coordinates":[-0.657336,50.793991],"type":"Point"},"properties":{"amenity":"waste_basket","osm_id":"4852426078"},"type":"Feature"},
	{"geometry":{"coordinates":[-0.651715,50.792474],"type":"Point"},"properties":{"amenity":"waste_basket","osm_id":"4887295223"},"type":"Feature"},
	{"geometry":{"coordinates":[-0.656183,50.793637],"type":"Point"},"properties":{"amenity":"waste_basket","osm_id":"4902476050"},"type":"Feature"},
	{"geometry":{"coordinates":[-0.655963,50.793558],"type":"Point"},"properties":{"amenity":"waste_basket","osm_id":"4902476051"},"type":"Feature"},
	{"geometry":{"coordinates":[-0.655763,50.793385],"type":"Point"},"properties":{"amenity":"waste_basket","osm_id":"4902476052"},"type":"Feature"},
	{"geometry":{"coordinates":[-0.655807,50.793432],"type":"Point"},"properties":{"amenity":"waste_basket","osm_id":"4902476053"},"type":"Feature"},
	{"geometry":{"coordinates":[-0.655562,50.793223],"type":"Point"},"properties":{"amenity":"waste_basket","osm_id":"4902476054"},"type":"Feature"},
	{"geometry":{"coordinates":[-0.655854,50.792915],"type":"Point"},"properties":{"amenity":"waste_basket","osm_id":"4910805021"},"type":"Feature"},
	{"geometry":{"coordinates":[-0.621342,50.794541],"type":"Point"},"properties":{"amenity":"waste_basket","osm_id":"5003155103"},"type":"Feature"},
	{"geometry":{"coordinates":[-0.638018,50.793994],"type":"Point"},"properties":{"amenity":"waste_basket","osm_id":"5022418859"},"type":"Feature"},
	{"geometry":{"coordinates":[-0.637662,50.793526],"type":"Point"},"properties":{"amenity":"waste_basket","osm_id":"5037508928","tag":{"waste":"dog_excrement"}},"type":"Feature"},
	{"geometry":{"coordinates":[-0.638359,50.793638],"type":"Point"},"properties":{"amenity":"waste_basket","osm_id":"5037508931"},"type":"Feature"},
	{"geometry":{"coordinates":[-0.64248,50.7922],"type":"Point"},"properties":{"amenity":"waste_basket","osm_id":"5037508933"},"type":"Feature"},
	{"geometry":{"coordinates":[-0.64248,50.79219],"type":"Point"},"properties":{"amenity":"waste_basket","osm_id":"5037508934","tag":{"waste":"dog_excrement"}},"type":"Feature"},
	{"geometry":{"coordinates":[-0.640884,50.792696],"type":"Point"},"properties":{"amenity":"waste_basket","osm_id":"5037508941"},"type":"Feature"},
	{"geometry":{"coordinates":[-0.638463,50.793517],"type":"Point"},"properties":{"amenity":"waste_basket","osm_id":"5037508942"},"type":"Feature"},
	{"geometry":{"coordinates":[-0.652121,50.792492],"type":"Point"},"properties":{"amenity":"waste_basket","osm_id":"5045054582"},"type":"Feature"},
	{"geometry":{"coordinates":[-0.641008,50.792317],"type":"Point"},"properties":{"amenity":"waste_basket","osm_id":"5045055803"},"type":"Feature"},
	{"geometry":{"coordinates":[-0.63782,50.792387],"type":"Point"},"properties":{"amenity":"waste_basket","osm_id":"5061001887"},"type":"Feature"},
	{"geometry":{"coordinates":[-0.62972,50.794995],"type":"Point"},"properties":{"amenity":"waste_basket","osm_id":"5086911812"},"type":"Feature"},
	{"geometry":{"coordinates":[-0.641528,50.797265],"type":"Point"},"properties":{"amenity":"waste_basket","osm_id":"5148284528","tag":{"description":"Dog waste bin only"}},"type":"Feature"},
	{"geometry":{"coordinates":[-0.666518,50.793767],"type":"Point"},"properties":{"amenity":"waste_basket","osm_id":"5154012763"},"type":"Feature"},
	{"geometry":{"coordinates":[-0.666646,50.793325],"type":"Point"},"properties":{"amenity":"waste_basket","osm_id":"5154012767"},"type":"Feature"},
	{"geometry":{"coordinates":[-0.642597,50.792613],"type":"Point"},"properties":{"amenity":"waste_basket","osm_id":"5224887755"},"type":"Feature"},
	{"geometry":{"coordinates":[-0.671111,50.794032],"type":"Point"},"properties":{"amenity":"waste_basket","osm_id":"5961067630"},"type":"Feature"},
	{"geometry":{"coordinates":[-0.67188,50.794871],"type":"Point"},"properties":{"amenity":"waste_basket","osm_id":"5961067631"},"type":"Feature"},
	{"geometry":{"coordinates":[-0.669329,50.803929],"type":"Point"},"properties":{"amenity":"waste_basket","osm_id":"6778088849","tag":{"waste":"dog_excrement"}},"type":"Feature"},
	{"geometry":{"coordinates":[-0.672724,50.803369],"type":"Point"},"properties":{"amenity":"waste_basket","osm_id":"6778088852","tag":{"waste":"dog_excrement"}},"type":"Feature"},
	{"geometry":{"coordinates":[-0.638197,50.793845],"type":"Point"},"properties":{"amenity":"waste_basket","osm_id":"6778227762"},"type":"Feature"},
	{"geometry":{"coordinates":[-0.679483,50.799832],"type":"Point"},"properties":{"amenity":"waste_basket","osm_id":"6778410407","tag":{"waste":"dog_excrement"}},"type":"Feature"},
	{"geometry":{"coordinates":[-0.679718,50.799767],"type":"Point"},"properties":{"amenity":"waste_basket","osm_id":"7152616355","tag":{"colour":"Black"}},"type":"Feature"}
]
}
