{
"type": "FeatureCollection",
"lastupdate": "2020-07-24T00:48:03Z",
"features": [
	{"geometry":{"coordinates":[-4.313158,55.872485],"type":"Point"},"properties":{"amenity":"recycling","osm_id":"26401937"},"type":"Feature"},
	{"geometry":{"coordinates":[-4.366043,55.862194],"type":"Point"},"properties":{"amenity":"recycling","osm_id":"503768173"},"type":"Feature"},
	{"geometry":{"coordinates":[-4.351641,55.863688],"type":"Point"},"properties":{"amenity":"recycling","name":"Shieldhall Recycling Centre","osm_id":"503792521","tag":{"addr:city":"Glasgow","addr:postcode":"G51","addr:street":"Renfrew Road","opening_hours":"Mo-Su 08:00-20:00; Jan 1 off; Dec 25 off","operator":"Glasgow City Council","recycling_type":"centre"}},"type":"Feature"},
	{"geometry":{"coordinates":[-4.322281,55.851249],"type":"Point"},"properties":{"amenity":"recycling","osm_id":"1251686833"},"type":"Feature"},
	{"geometry":{"coordinates":[-4.308345,55.870412],"type":"Point"},"properties":{"amenity":"recycling","osm_id":"1348706968","tag":{"recycling:clothes":"yes","recycling:glass":"yes","recycling:paper":"yes"}},"type":"Feature"},
	{"geometry":{"coordinates":[-4.316885,55.863429],"type":"Point"},"properties":{"amenity":"recycling","osm_id":"1412277024"},"type":"Feature"},
	{"geometry":{"coordinates":[-4.315872,55.826451],"type":"Point"},"properties":{"amenity":"waste_basket","osm_id":"5036950621"},"type":"Feature"},
	{"geometry":{"coordinates":[-4.315757,55.826505],"type":"Point"},"properties":{"amenity":"waste_basket","osm_id":"5036950721"},"type":"Feature"},
	{"geometry":{"coordinates":[-4.328349,55.838986],"type":"Point"},"properties":{"amenity":"waste_basket","osm_id":"6048483076"},"type":"Feature"}
]
}
