{
"type": "FeatureCollection",
"lastupdate": "2020-07-28T01:29:12Z",
"features": [
	{"geometry":{"coordinates":[-1.665225,55.013294],"type":"Point"},"properties":{"amenity":"recycling","name":"Tesco Recycling","osm_id":"508408513"},"type":"Feature"},
	{"geometry":{"coordinates":[-1.615672,54.97964],"type":"Point"},"properties":{"amenity":"waste_basket","osm_id":"1303600815"},"type":"Feature"},
	{"geometry":{"coordinates":[-1.592441,54.988661],"type":"Point"},"properties":{"amenity":"waste_basket","osm_id":"3042093839"},"type":"Feature"},
	{"geometry":{"coordinates":[-1.588723,54.989735],"type":"Point"},"properties":{"amenity":"waste_basket","osm_id":"3042093852"},"type":"Feature"},
	{"geometry":{"coordinates":[-1.612635,54.981137],"type":"Point"},"properties":{"amenity":"waste_basket","osm_id":"4140694755"},"type":"Feature"},
	{"geometry":{"coordinates":[-1.6129,54.981046],"type":"Point"},"properties":{"amenity":"waste_basket","osm_id":"4140694756"},"type":"Feature"},
	{"geometry":{"coordinates":[-1.613099,54.981005],"type":"Point"},"properties":{"amenity":"waste_basket","osm_id":"4140694757"},"type":"Feature"},
	{"geometry":{"coordinates":[-1.609232,54.992276],"type":"Point"},"properties":{"amenity":"waste_basket","osm_id":"4420387414"},"type":"Feature"},
	{"geometry":{"coordinates":[-1.622576,54.979758],"type":"Point"},"properties":{"amenity":"waste_basket","osm_id":"4592281486"},"type":"Feature"},
	{"geometry":{"coordinates":[-1.665864,54.98157],"type":"Point"},"properties":{"amenity":"waste_basket","osm_id":"4603482326"},"type":"Feature"},
	{"geometry":{"coordinates":[-1.591299,54.997947],"type":"Point"},"properties":{"amenity":"waste_basket","name":"Newton Rd/Denewell Av. bin","osm_id":"4621890229"},"type":"Feature"},
	{"geometry":{"coordinates":[-1.586023,54.979484],"type":"Point"},"properties":{"amenity":"recycling","osm_id":"4634786806","tag":{"recycling_type":"container"}},"type":"Feature"},
	{"geometry":{"coordinates":[-1.586201,54.979852],"type":"Point"},"properties":{"amenity":"waste_basket","osm_id":"4634826666"},"type":"Feature"},
	{"geometry":{"coordinates":[-1.606475,54.992453],"type":"Point"},"properties":{"amenity":"waste_basket","osm_id":"5153629783"},"type":"Feature"},
	{"geometry":{"coordinates":[-1.615353,54.979027],"type":"Point"},"properties":{"amenity":"recycling","osm_id":"5233478941","tag":{"recycling_type":"container"}},"type":"Feature"},
	{"geometry":{"coordinates":[-1.619848,55.006828],"type":"Point"},"properties":{"amenity":"waste_basket","osm_id":"5286829260"},"type":"Feature"},
	{"geometry":{"coordinates":[-1.610117,54.993513],"type":"Point"},"properties":{"amenity":"waste_basket","osm_id":"5464912320"},"type":"Feature"},
	{"geometry":{"coordinates":[-1.609832,54.993623],"type":"Point"},"properties":{"amenity":"waste_basket","osm_id":"5464912927"},"type":"Feature"},
	{"geometry":{"coordinates":[-1.609873,54.99367],"type":"Point"},"properties":{"amenity":"waste_basket","osm_id":"5464912928"},"type":"Feature"},
	{"geometry":{"coordinates":[-1.609723,54.993477],"type":"Point"},"properties":{"amenity":"recycling","osm_id":"5464912930","tag":{"recycling:cans":"yes","recycling:cardboard":"yes","recycling:paper":"yes","recycling:plastic":"yes","recycling_type":"container"}},"type":"Feature"},
	{"geometry":{"coordinates":[-1.610098,54.993604],"type":"Point"},"properties":{"amenity":"recycling","osm_id":"5464912932","tag":{"recycling:cans":"yes","recycling:cardboard":"yes","recycling:paper":"yes","recycling:plastic":"yes","recycling_type":"container"}},"type":"Feature"},
	{"geometry":{"coordinates":[-1.609741,54.993176],"type":"Point"},"properties":{"amenity":"recycling","osm_id":"5464912933","tag":{"operator":"British Heart Foundation","recycling:books":"yes","recycling:cds":"yes","recycling:clothes":"yes","recycling:dvds":"yes","recycling:games":"yes","recycling:handbags":"yes","recycling:homeware":"yes","recycling:shoes":"yes","recycling:toys":"yes","recycling_type":"container"}},"type":"Feature"},
	{"geometry":{"coordinates":[-1.610057,54.99391],"type":"Point"},"properties":{"amenity":"recycling","osm_id":"5464912941","tag":{"operator":"British Heart Foundation","recycling:books":"yes","recycling:cds":"yes","recycling:clothes":"yes","recycling:dvds":"yes","recycling:games":"yes","recycling:handbags":"yes","recycling:homeware":"yes","recycling:shoes":"yes","recycling:toys":"yes","recycling_type":"container"}},"type":"Feature"},
	{"geometry":{"coordinates":[-1.611876,54.981235],"type":"Point"},"properties":{"amenity":"waste_basket","osm_id":"5617937027"},"type":"Feature"},
	{"geometry":{"coordinates":[-1.598122,54.991369],"type":"Point"},"properties":{"amenity":"waste_basket","osm_id":"5714258334"},"type":"Feature"},
	{"geometry":{"coordinates":[-1.598233,54.99106],"type":"Point"},"properties":{"amenity":"waste_basket","osm_id":"5714258338"},"type":"Feature"},
	{"geometry":{"coordinates":[-1.598488,54.990305],"type":"Point"},"properties":{"amenity":"waste_basket","osm_id":"5714258343"},"type":"Feature"},
	{"geometry":{"coordinates":[-1.60071,54.98847],"type":"Point"},"properties":{"amenity":"waste_basket","osm_id":"5714258360"},"type":"Feature"},
	{"geometry":{"coordinates":[-1.594311,54.987448],"type":"Point"},"properties":{"amenity":"waste_basket","osm_id":"5715474984"},"type":"Feature"},
	{"geometry":{"coordinates":[-1.602111,54.978169],"type":"Point"},"properties":{"amenity":"waste_basket","osm_id":"6094250386"},"type":"Feature"},
	{"geometry":{"coordinates":[-1.589678,54.982878],"type":"Point"},"properties":{"amenity":"waste_basket","osm_id":"6158393749"},"type":"Feature"},
	{"geometry":{"coordinates":[-1.583432,54.985148],"type":"Point"},"properties":{"amenity":"waste_basket","osm_id":"6158393753"},"type":"Feature"},
	{"geometry":{"coordinates":[-1.621102,55.012392],"type":"Point"},"properties":{"amenity":"waste_basket","osm_id":"6201092623"},"type":"Feature"},
	{"geometry":{"coordinates":[-1.611829,54.977973],"type":"Point"},"properties":{"amenity":"waste_basket","osm_id":"6282314116"},"type":"Feature"},
	{"geometry":{"coordinates":[-1.620147,55.004785],"type":"Point"},"properties":{"amenity":"waste_basket","osm_id":"6283568620"},"type":"Feature"},
	{"geometry":{"coordinates":[-1.582499,55.01353],"type":"Point"},"properties":{"amenity":"waste_basket","osm_id":"6326523324"},"type":"Feature"},
	{"geometry":{"coordinates":[-1.609806,54.979699],"type":"Point"},"properties":{"amenity":"recycling","osm_id":"6432349406","tag":{"recycling:clothes":"yes","recycling_type":"container"}},"type":"Feature"},
	{"geometry":{"coordinates":[-1.594063,54.987511],"type":"Point"},"properties":{"amenity":"waste_basket","osm_id":"6656728678"},"type":"Feature"},
	{"geometry":{"coordinates":[-1.586853,55.019945],"type":"Point"},"properties":{"amenity":"waste_basket","osm_id":"7208868269"},"type":"Feature"},
	{"geometry":{"coordinates":[-1.60291,55.006582],"type":"Point"},"properties":{"amenity":"recycling","osm_id":"7208868385","tag":{"recycling:clothes":"yes","recycling_type":"container"}},"type":"Feature"}
]
}
