{
"type": "FeatureCollection",
"lastupdate": "2020-07-29T00:24:51Z",
"features": [
	{"geometry":{"coordinates":[-4.041713,55.772634],"type":"Point"},"properties":{"amenity":"recycling","osm_id":"293929031","tag":{"recycling:glass":"yes"}},"type":"Feature"},
	{"geometry":{"coordinates":[-4.010814,55.763012],"type":"Point"},"properties":{"amenity":"recycling","osm_id":"1313326788","tag":{"recycling:cans":"yes","recycling:glass":"yes","recycling:paper":"yes"}},"type":"Feature"},
	{"geometry":{"coordinates":[-4.012756,55.752414],"type":"Point"},"properties":{"amenity":"waste_basket","osm_id":"6920245188"},"type":"Feature"},
	{"geometry":{"coordinates":[-3.994379,55.743599],"type":"Point"},"properties":{"amenity":"waste_basket","osm_id":"6920245487"},"type":"Feature"},
	{"geometry":{"coordinates":[-4.018052,55.772278],"type":"Point"},"properties":{"amenity":"waste_basket","osm_id":"6920267885"},"type":"Feature"},
	{"geometry":{"coordinates":[-4.017959,55.772263],"type":"Point"},"properties":{"amenity":"waste_basket","osm_id":"6920267886"},"type":"Feature"},
	{"geometry":{"coordinates":[-3.959695,55.773341],"type":"Point"},"properties":{"amenity":"waste_basket","osm_id":"7751923888"},"type":"Feature"}
]
}
