{
"type": "FeatureCollection",
"lastupdate": "2020-07-29T00:24:51Z",
"features": [
	{"geometry":{"coordinates":[-1.177511,52.962119],"type":"Point"},"properties":{"amenity":"recycling","osm_id":"378313118"},"type":"Feature"},
	{"geometry":{"coordinates":[-1.190476,52.983432],"type":"Point"},"properties":{"amenity":"recycling","name":"Stockhill Lane Fire Station Recycling Site","osm_id":"519007663","tag":{"operator":"Nottingham City Council","recycling_type":"container"}},"type":"Feature"},
	{"geometry":{"coordinates":[-1.19849,53.001347],"type":"Point"},"properties":{"amenity":"recycling","name":"Gilead Street Car Park Recycling Site","osm_id":"728318338","tag":{"operator":"Nottingham City Council","recycling:clothes":"yes","recycling:glass_bottles":"yes","recycling:shoes":"yes","recycling_type":"container"}},"type":"Feature"},
	{"geometry":{"coordinates":[-1.151826,52.973423],"type":"Point"},"properties":{"amenity":"recycling","name":"Carrington Recycling Site","osm_id":"813272921","tag":{"operator":"Nottingham City Council","recycling:cardboard":"yes","recycling:clothes":"yes","recycling:glass_bottles":"yes","recycling:paper":"yes","recycling:shoes":"yes","recycling_type":"container"}},"type":"Feature"},
	{"geometry":{"coordinates":[-1.229794,52.986857],"type":"Point"},"properties":{"amenity":"recycling","osm_id":"1094702363","tag":{"operator":"Broxtowe Borough Council"}},"type":"Feature"},
	{"geometry":{"coordinates":[-1.228489,52.993654],"type":"Point"},"properties":{"amenity":"recycling","osm_id":"1149742786","tag":{"recycling:glass":"yes","recycling_type":"container"}},"type":"Feature"},
	{"geometry":{"coordinates":[-1.151601,52.962855],"type":"Point"},"properties":{"amenity":"waste_basket","osm_id":"1313465153"},"type":"Feature"},
	{"geometry":{"coordinates":[-1.151099,52.962286],"type":"Point"},"properties":{"amenity":"waste_basket","osm_id":"1313465350","tag":{"brand":"Big Belly Solar","operator":"Kyron","rubbsh_crusher":"yes","solar_powered":"yes"}},"type":"Feature"},
	{"geometry":{"coordinates":[-1.144247,52.982918],"type":"Point"},"properties":{"amenity":"recycling","name":"Hall Street, Sherwood Recycling Site","osm_id":"1489246167","tag":{"operator":"Nottingham City Council","recycling:cans":"yes","recycling:clothes":"yes","recycling:glass_bottles":"yes","recycling:shoes":"yes","recycling_type":"container"}},"type":"Feature"},
	{"geometry":{"coordinates":[-1.168137,52.965662],"type":"Point"},"properties":{"amenity":"recycling","name":"Muslim Aid","osm_id":"2275189453","tag":{"recycling:clothes":"yes","recycling_type":"container"}},"type":"Feature"},
	{"geometry":{"coordinates":[-1.156002,53.002853],"type":"Point"},"properties":{"amenity":"recycling","osm_id":"2368332995"},"type":"Feature"},
	{"geometry":{"coordinates":[-1.154025,52.969006],"type":"Point"},"properties":{"amenity":"recycling","name":"New College Nottingham Recycling Site","osm_id":"2383517948","tag":{"recycling:clothes":"yes","recycling:glass":"yes","recycling_type":"container"}},"type":"Feature"},
	{"geometry":{"coordinates":[-1.228172,52.964422],"type":"Point"},"properties":{"amenity":"recycling","name":"Bracebridge Drive Shops Recycling Site","osm_id":"3622156135","tag":{"recycling_type":"container"}},"type":"Feature"},
	{"geometry":{"coordinates":[-1.189721,53.009559],"type":"Point"},"properties":{"amenity":"recycling","name":"Morrisons, Bulwell Recycling Site","osm_id":"3678096633","tag":{"operator":"Nottingham City Council","recycling:cans":"yes","recycling:clothes":"yes","recycling:glass_bottles":"yes","recycling:shoes":"yes","recycling_type":"container"}},"type":"Feature"},
	{"geometry":{"coordinates":[-1.179666,53.00198],"type":"Point"},"properties":{"amenity":"recycling","osm_id":"3709810191","tag":{"recycling_type":"container"}},"type":"Feature"},
	{"geometry":{"coordinates":[-1.196508,53.001395],"type":"Point"},"properties":{"amenity":"waste_basket","osm_id":"4230998533"},"type":"Feature"},
	{"geometry":{"coordinates":[-1.196266,53.001889],"type":"Point"},"properties":{"amenity":"waste_basket","osm_id":"4230998628"},"type":"Feature"},
	{"geometry":{"coordinates":[-1.196166,53.002189],"type":"Point"},"properties":{"amenity":"waste_basket","osm_id":"4230998669"},"type":"Feature"},
	{"geometry":{"coordinates":[-1.195899,52.999707],"type":"Point"},"properties":{"amenity":"recycling","name":"Bulwell Train Station Recycling Site","osm_id":"4232608190","tag":{"operator":"Nottingham City Council","recycling:clothes":"yes","recycling:glass_bottles":"yes","recycling:shoes":"yes","recycling_type":"container"}},"type":"Feature"},
	{"geometry":{"coordinates":[-1.168622,52.965774],"type":"Point"},"properties":{"amenity":"recycling","name":"British Heart Foundation","osm_id":"4286726407","tag":{"recycling:books":"yes","recycling:clothes":"yes","recycling:shoes":"yes","recycling_type":"container"}},"type":"Feature"},
	{"geometry":{"coordinates":[-1.151949,52.973215],"type":"Point"},"properties":{"amenity":"waste_basket","osm_id":"4294939122"},"type":"Feature"},
	{"geometry":{"coordinates":[-1.151916,52.973267],"type":"Point"},"properties":{"amenity":"waste_basket","osm_id":"4294939123"},"type":"Feature"},
	{"geometry":{"coordinates":[-1.145736,52.98232],"type":"Point"},"properties":{"amenity":"waste_basket","osm_id":"4297221802"},"type":"Feature"},
	{"geometry":{"coordinates":[-1.145483,52.982627],"type":"Point"},"properties":{"amenity":"waste_basket","osm_id":"4297221806"},"type":"Feature"},
	{"geometry":{"coordinates":[-1.145261,52.982891],"type":"Point"},"properties":{"amenity":"waste_basket","osm_id":"4297221809"},"type":"Feature"},
	{"geometry":{"coordinates":[-1.147373,52.979485],"type":"Point"},"properties":{"amenity":"recycling","osm_id":"4301295524","tag":{"recycling:clothes":"yes","recycling_type":"container"}},"type":"Feature"},
	{"geometry":{"coordinates":[-1.145471,52.982234],"type":"Point"},"properties":{"amenity":"waste_basket","osm_id":"4301295792"},"type":"Feature"},
	{"geometry":{"coordinates":[-1.145338,52.982363],"type":"Point"},"properties":{"amenity":"waste_basket","osm_id":"4301295796"},"type":"Feature"},
	{"geometry":{"coordinates":[-1.189011,52.975956],"type":"Point"},"properties":{"amenity":"waste_basket","osm_id":"4318891999"},"type":"Feature"},
	{"geometry":{"coordinates":[-1.189093,52.976074],"type":"Point"},"properties":{"amenity":"waste_basket","osm_id":"4318892011"},"type":"Feature"},
	{"geometry":{"coordinates":[-1.189373,52.976426],"type":"Point"},"properties":{"amenity":"waste_basket","osm_id":"4318892046"},"type":"Feature"},
	{"geometry":{"coordinates":[-1.189411,52.97648],"type":"Point"},"properties":{"amenity":"waste_basket","osm_id":"4318892049"},"type":"Feature"},
	{"geometry":{"coordinates":[-1.217261,52.99582],"type":"Point"},"properties":{"amenity":"waste_basket","osm_id":"5516706441"},"type":"Feature"},
	{"geometry":{"coordinates":[-1.176771,52.963665],"type":"Point"},"properties":{"amenity":"waste_basket","osm_id":"5519024765"},"type":"Feature"},
	{"geometry":{"coordinates":[-1.195278,52.995168],"type":"Point"},"properties":{"amenity":"waste_basket","osm_id":"6512003415"},"type":"Feature"},
	{"geometry":{"coordinates":[-1.185981,53.011818],"type":"Point"},"properties":{"amenity":"waste_basket","osm_id":"6512025982"},"type":"Feature"},
	{"geometry":{"coordinates":[-1.176996,52.994533],"type":"Point"},"properties":{"amenity":"waste_basket","osm_id":"6512209742"},"type":"Feature"},
	{"geometry":{"coordinates":[-1.168347,52.990926],"type":"Point"},"properties":{"amenity":"waste_basket","osm_id":"6512209747"},"type":"Feature"},
	{"geometry":{"coordinates":[-1.185632,52.985048],"type":"Point"},"properties":{"amenity":"waste_basket","osm_id":"6512520054"},"type":"Feature"},
	{"geometry":{"coordinates":[-1.192417,52.989278],"type":"Point"},"properties":{"amenity":"waste_basket","osm_id":"6512539087"},"type":"Feature"},
	{"geometry":{"coordinates":[-1.188653,52.988429],"type":"Point"},"properties":{"amenity":"waste_basket","osm_id":"6512539119"},"type":"Feature"},
	{"geometry":{"coordinates":[-1.187988,52.986936],"type":"Point"},"properties":{"amenity":"waste_basket","osm_id":"6512539128"},"type":"Feature"},
	{"geometry":{"coordinates":[-1.192626,52.990638],"type":"Point"},"properties":{"amenity":"waste_basket","osm_id":"6512541183"},"type":"Feature"},
	{"geometry":{"coordinates":[-1.192493,52.989889],"type":"Point"},"properties":{"amenity":"waste_basket","osm_id":"6512557988"},"type":"Feature"},
	{"geometry":{"coordinates":[-1.196243,52.995331],"type":"Point"},"properties":{"amenity":"waste_basket","osm_id":"6512558042"},"type":"Feature"},
	{"geometry":{"coordinates":[-1.161213,52.993494],"type":"Point"},"properties":{"amenity":"waste_basket","osm_id":"7498711325"},"type":"Feature"},
	{"geometry":{"coordinates":[-1.15579,52.995437],"type":"Point"},"properties":{"amenity":"waste_basket","osm_id":"7498711365"},"type":"Feature"},
	{"geometry":{"coordinates":[-1.226981,52.986793],"type":"Point"},"properties":{"amenity":"waste_basket","osm_id":"7538534474","tag":{"waste":"dog_excrement"}},"type":"Feature"},
	{"geometry":{"coordinates":[-1.228911,52.985043],"type":"Point"},"properties":{"amenity":"waste_basket","osm_id":"7538534475","tag":{"waste":"dog_excrement"}},"type":"Feature"},
	{"geometry":{"coordinates":[-1.229316,52.984952],"type":"Point"},"properties":{"amenity":"waste_basket","osm_id":"7538534476"},"type":"Feature"},
	{"geometry":{"coordinates":[-1.22874,52.983809],"type":"Point"},"properties":{"amenity":"waste_basket","osm_id":"7538534479","tag":{"waste":"dog_excrement"}},"type":"Feature"},
	{"geometry":{"coordinates":[-1.227613,52.98615],"type":"Point"},"properties":{"amenity":"waste_basket","osm_id":"7539238374"},"type":"Feature"}
]
}
