{
"type": "FeatureCollection",
"lastupdate": "2020-07-26T00:31:07Z",
"features": [
	{"geometry":{"coordinates":[-1.205727,52.869425],"type":"Point"},"properties":{"amenity":"recycling","osm_id":"706725094","tag":{"recycling_type":"container"}},"type":"Feature"},
	{"geometry":{"coordinates":[-1.174563,52.905205],"type":"Point"},"properties":{"amenity":"recycling","osm_id":"2667385119","tag":{"location":"overground","recycling:cartons":"yes","recycling:clothes":"yes","recycling:glass_bottles":"yes","recycling:shoes":"yes","recycling_type":"container"}},"type":"Feature"},
	{"geometry":{"coordinates":[-1.153584,52.886811],"type":"Point"},"properties":{"amenity":"recycling","osm_id":"3671060194","tag":{"recycling:clothes":"yes","recycling:glass_bottles":"yes","recycling_type":"container"}},"type":"Feature"},
	{"geometry":{"coordinates":[-1.181077,52.897187],"type":"Point"},"properties":{"amenity":"waste_basket","osm_id":"6501822949"},"type":"Feature"},
	{"geometry":{"coordinates":[-1.181247,52.897101],"type":"Point"},"properties":{"amenity":"waste_basket","osm_id":"6501823002"},"type":"Feature"},
	{"geometry":{"coordinates":[-1.187956,52.900874],"type":"Point"},"properties":{"amenity":"waste_basket","osm_id":"7274712896"},"type":"Feature"},
	{"geometry":{"coordinates":[-1.185819,52.9016],"type":"Point"},"properties":{"amenity":"waste_basket","osm_id":"7274712897"},"type":"Feature"},
	{"geometry":{"coordinates":[-1.177057,52.904359],"type":"Point"},"properties":{"amenity":"recycling","name":"The Waste Station","osm_id":"7277398442","tag":{" buys some recyclable waste and resalable second-hand goods":null,"addr:city":"Nottingham","addr:housenumber":"172a","addr:postcode":"NG11 8AD","addr:street":"Southchurch Drive","description":"Waste removal service","email":"thewastestation2019@outlook.com","operator":"R B Services","recycling_type":"centre"}},"type":"Feature"}
]
}
