{
"type": "FeatureCollection",
"lastupdate": "2020-07-31T01:06:47Z",
"features": [
	{"geometry":{"coordinates":[0.161124,51.40993],"type":"Point"},"properties":{"amenity":"recycling","osm_id":"256116174"},"type":"Feature"},
	{"geometry":{"coordinates":[0.171344,51.401831],"type":"Point"},"properties":{"amenity":"recycling","osm_id":"283442250"},"type":"Feature"},
	{"geometry":{"coordinates":[0.101894,51.435371],"type":"Point"},"properties":{"amenity":"recycling","osm_id":"303997960","tag":{"shop":"doityourself"}},"type":"Feature"},
	{"geometry":{"coordinates":[0.175149,51.409275],"type":"Point"},"properties":{"amenity":"waste_basket","osm_id":"967206324"},"type":"Feature"},
	{"geometry":{"coordinates":[0.175363,51.409285],"type":"Point"},"properties":{"amenity":"waste_basket","osm_id":"967206531"},"type":"Feature"},
	{"geometry":{"coordinates":[0.174999,51.409191],"type":"Point"},"properties":{"amenity":"waste_basket","osm_id":"967206656","tag":{"waste":"dog_excrement"}},"type":"Feature"},
	{"geometry":{"coordinates":[0.174478,51.40943],"type":"Point"},"properties":{"amenity":"waste_basket","osm_id":"967206899"},"type":"Feature"},
	{"geometry":{"coordinates":[0.173268,51.408857],"type":"Point"},"properties":{"amenity":"waste_basket","osm_id":"967284301"},"type":"Feature"},
	{"geometry":{"coordinates":[0.172851,51.408899],"type":"Point"},"properties":{"amenity":"waste_basket","osm_id":"967284518","tag":{"waste":"dog_excrement"}},"type":"Feature"},
	{"geometry":{"coordinates":[0.17546,51.409451],"type":"Point"},"properties":{"amenity":"recycling","osm_id":"968121614","tag":{"recycling:glass":"yes","recycling:paper":"yes"}},"type":"Feature"},
	{"geometry":{"coordinates":[0.16196,51.401546],"type":"Point"},"properties":{"amenity":"waste_basket","osm_id":"2781392460","tag":{"waste":"dog_excrement"}},"type":"Feature"},
	{"geometry":{"coordinates":[0.167879,51.40438],"type":"Point"},"properties":{"amenity":"waste_basket","osm_id":"2781392463","tag":{"waste":"dog_excrement"}},"type":"Feature"},
	{"geometry":{"coordinates":[0.167192,51.406307],"type":"Point"},"properties":{"amenity":"waste_basket","osm_id":"2781392472","tag":{"waste":"dog_excrement"}},"type":"Feature"},
	{"geometry":{"coordinates":[0.171274,51.404807],"type":"Point"},"properties":{"amenity":"waste_basket","osm_id":"3024083171","tag":{"waste":"dog_excrement"}},"type":"Feature"},
	{"geometry":{"coordinates":[0.172735,51.404828],"type":"Point"},"properties":{"amenity":"waste_basket","osm_id":"3024083172","tag":{"waste":"dog_excrement"}},"type":"Feature"},
	{"geometry":{"coordinates":[0.175439,51.405316],"type":"Point"},"properties":{"amenity":"waste_basket","osm_id":"3024083176","tag":{"waste":"dog_excrement"}},"type":"Feature"},
	{"geometry":{"coordinates":[0.169941,51.405393],"type":"Point"},"properties":{"amenity":"waste_basket","osm_id":"3024083177","tag":{"waste":"dog_excrement"}},"type":"Feature"},
	{"geometry":{"coordinates":[0.171578,51.405504],"type":"Point"},"properties":{"amenity":"waste_basket","osm_id":"3024083179","tag":{"waste":"dog_excrement"}},"type":"Feature"},
	{"geometry":{"coordinates":[0.171439,51.406293],"type":"Point"},"properties":{"amenity":"waste_basket","osm_id":"3024083197","tag":{"waste":"dog_excrement"}},"type":"Feature"},
	{"geometry":{"coordinates":[0.101688,51.424743],"type":"Point"},"properties":{"amenity":"recycling","osm_id":"5076404234","tag":{"recycling_type":"container"}},"type":"Feature"},
	{"geometry":{"coordinates":[0.100772,51.42626],"type":"Point"},"properties":{"amenity":"waste_basket","osm_id":"5181018319"},"type":"Feature"},
	{"geometry":{"coordinates":[0.100773,51.426149],"type":"Point"},"properties":{"amenity":"waste_basket","osm_id":"5181018621"},"type":"Feature"},
	{"geometry":{"coordinates":[0.100772,51.426016],"type":"Point"},"properties":{"amenity":"waste_basket","osm_id":"5181018622"},"type":"Feature"},
	{"geometry":{"coordinates":[0.100771,51.426008],"type":"Point"},"properties":{"amenity":"waste_basket","osm_id":"5181018623"},"type":"Feature"},
	{"geometry":{"coordinates":[0.111314,51.417294],"type":"Point"},"properties":{"amenity":"waste_basket","osm_id":"5181705497"},"type":"Feature"},
	{"geometry":{"coordinates":[0.113573,51.417894],"type":"Point"},"properties":{"amenity":"waste_basket","osm_id":"5181705498"},"type":"Feature"},
	{"geometry":{"coordinates":[0.113636,51.417898],"type":"Point"},"properties":{"amenity":"waste_basket","osm_id":"5181705499","tag":{"waste":"dog_excrement"}},"type":"Feature"},
	{"geometry":{"coordinates":[0.111252,51.420076],"type":"Point"},"properties":{"amenity":"waste_basket","osm_id":"5181705502"},"type":"Feature"},
	{"geometry":{"coordinates":[0.111427,51.420097],"type":"Point"},"properties":{"amenity":"waste_basket","osm_id":"5181705503"},"type":"Feature"},
	{"geometry":{"coordinates":[0.110933,51.419738],"type":"Point"},"properties":{"amenity":"waste_basket","osm_id":"5181705504"},"type":"Feature"},
	{"geometry":{"coordinates":[0.117711,51.41862],"type":"Point"},"properties":{"amenity":"waste_basket","osm_id":"5181854748"},"type":"Feature"},
	{"geometry":{"coordinates":[0.117445,51.418861],"type":"Point"},"properties":{"amenity":"waste_basket","osm_id":"5181854749"},"type":"Feature"},
	{"geometry":{"coordinates":[0.115961,51.41799],"type":"Point"},"properties":{"amenity":"recycling","osm_id":"5182856725","tag":{"recycling_type":"container"}},"type":"Feature"},
	{"geometry":{"coordinates":[0.123072,51.416611],"type":"Point"},"properties":{"amenity":"waste_basket","osm_id":"5182906023"},"type":"Feature"},
	{"geometry":{"coordinates":[0.114063,51.420339],"type":"Point"},"properties":{"amenity":"waste_basket","osm_id":"5182913049"},"type":"Feature"},
	{"geometry":{"coordinates":[0.106611,51.424793],"type":"Point"},"properties":{"amenity":"waste_basket","osm_id":"5182913051"},"type":"Feature"},
	{"geometry":{"coordinates":[0.106288,51.424843],"type":"Point"},"properties":{"amenity":"waste_basket","osm_id":"5182913052"},"type":"Feature"},
	{"geometry":{"coordinates":[0.106001,51.424935],"type":"Point"},"properties":{"amenity":"waste_basket","osm_id":"5182913053"},"type":"Feature"},
	{"geometry":{"coordinates":[0.105467,51.424971],"type":"Point"},"properties":{"amenity":"waste_basket","osm_id":"5182913054"},"type":"Feature"},
	{"geometry":{"coordinates":[0.104973,51.42531],"type":"Point"},"properties":{"amenity":"waste_basket","osm_id":"5182913056"},"type":"Feature"},
	{"geometry":{"coordinates":[0.104374,51.425561],"type":"Point"},"properties":{"amenity":"waste_basket","osm_id":"5182913057"},"type":"Feature"},
	{"geometry":{"coordinates":[0.104296,51.425768],"type":"Point"},"properties":{"amenity":"waste_basket","osm_id":"5182913060"},"type":"Feature"},
	{"geometry":{"coordinates":[0.103929,51.425998],"type":"Point"},"properties":{"amenity":"waste_basket","osm_id":"5182913061"},"type":"Feature"},
	{"geometry":{"coordinates":[0.102901,51.426312],"type":"Point"},"properties":{"amenity":"waste_basket","osm_id":"5182913063"},"type":"Feature"},
	{"geometry":{"coordinates":[0.10205,51.426317],"type":"Point"},"properties":{"amenity":"waste_basket","osm_id":"5182913064"},"type":"Feature"},
	{"geometry":{"coordinates":[0.101608,51.426473],"type":"Point"},"properties":{"amenity":"waste_basket","osm_id":"5182913065"},"type":"Feature"},
	{"geometry":{"coordinates":[0.101217,51.426388],"type":"Point"},"properties":{"amenity":"waste_basket","osm_id":"5182913067"},"type":"Feature"},
	{"geometry":{"coordinates":[0.119528,51.417585],"type":"Point"},"properties":{"amenity":"recycling","osm_id":"5186865652","tag":{"recycling_type":"container"}},"type":"Feature"},
	{"geometry":{"coordinates":[0.119548,51.417612],"type":"Point"},"properties":{"amenity":"waste_basket","osm_id":"5186865653"},"type":"Feature"},
	{"geometry":{"coordinates":[0.11981,51.417785],"type":"Point"},"properties":{"amenity":"waste_basket","osm_id":"5186897867"},"type":"Feature"},
	{"geometry":{"coordinates":[0.119728,51.417781],"type":"Point"},"properties":{"amenity":"waste_basket","osm_id":"5186897870"},"type":"Feature"},
	{"geometry":{"coordinates":[0.097292,51.426126],"type":"Point"},"properties":{"amenity":"waste_basket","osm_id":"5189683225","tag":{"waste":"dog_excrement"}},"type":"Feature"},
	{"geometry":{"coordinates":[0.117779,51.420711],"type":"Point"},"properties":{"amenity":"recycling","osm_id":"5190118483","tag":{"recycling_type":"container"}},"type":"Feature"},
	{"geometry":{"coordinates":[0.100246,51.426552],"type":"Point"},"properties":{"amenity":"waste_basket","osm_id":"5190208535"},"type":"Feature"},
	{"geometry":{"coordinates":[0.100401,51.426374],"type":"Point"},"properties":{"amenity":"waste_basket","osm_id":"5190208542"},"type":"Feature"},
	{"geometry":{"coordinates":[0.100211,51.426369],"type":"Point"},"properties":{"amenity":"waste_basket","osm_id":"5190208543"},"type":"Feature"},
	{"geometry":{"coordinates":[0.102543,51.425216],"type":"Point"},"properties":{"amenity":"waste_basket","osm_id":"5190267819"},"type":"Feature"},
	{"geometry":{"coordinates":[0.118483,51.418571],"type":"Point"},"properties":{"amenity":"waste_basket","osm_id":"5191321689"},"type":"Feature"},
	{"geometry":{"coordinates":[0.117889,51.418922],"type":"Point"},"properties":{"amenity":"waste_basket","osm_id":"5214739810"},"type":"Feature"},
	{"geometry":{"coordinates":[0.117739,51.41855],"type":"Point"},"properties":{"amenity":"waste_basket","osm_id":"5214739812"},"type":"Feature"},
	{"geometry":{"coordinates":[0.093068,51.427796],"type":"Point"},"properties":{"amenity":"waste_basket","osm_id":"6017702404"},"type":"Feature"},
	{"geometry":{"coordinates":[0.093193,51.428055],"type":"Point"},"properties":{"amenity":"recycling","osm_id":"6017702405","tag":{"recycling_type":"container"}},"type":"Feature"},
	{"geometry":{"coordinates":[0.169559,51.453535],"type":"Point"},"properties":{"amenity":"waste_basket","osm_id":"6030068538"},"type":"Feature"},
	{"geometry":{"coordinates":[0.166472,51.453861],"type":"Point"},"properties":{"amenity":"waste_basket","osm_id":"6030068542","tag":{"waste":"dog_excrement"}},"type":"Feature"},
	{"geometry":{"coordinates":[0.154765,51.451046],"type":"Point"},"properties":{"amenity":"waste_basket","osm_id":"6281108091"},"type":"Feature"},
	{"geometry":{"coordinates":[0.154487,51.451037],"type":"Point"},"properties":{"amenity":"waste_basket","osm_id":"6281108092","tag":{"waste":"dog_excrement"}},"type":"Feature"},
	{"geometry":{"coordinates":[0.166686,51.447695],"type":"Point"},"properties":{"amenity":"waste_basket","osm_id":"7036030885","tag":{"waste":"dog_excrement"}},"type":"Feature"},
	{"geometry":{"coordinates":[0.166663,51.447689],"type":"Point"},"properties":{"amenity":"waste_basket","osm_id":"7036030886"},"type":"Feature"},
	{"geometry":{"coordinates":[0.164839,51.453006],"type":"Point"},"properties":{"amenity":"waste_basket","osm_id":"7040892249","tag":{"waste":"dog_excrement"}},"type":"Feature"},
	{"geometry":{"coordinates":[0.166221,51.449296],"type":"Point"},"properties":{"amenity":"waste_basket","osm_id":"7040892263"},"type":"Feature"},
	{"geometry":{"coordinates":[0.164642,51.445613],"type":"Point"},"properties":{"amenity":"waste_basket","osm_id":"7253001250","tag":{"waste":"dog_excrement"}},"type":"Feature"},
	{"geometry":{"coordinates":[0.164699,51.445645],"type":"Point"},"properties":{"amenity":"waste_basket","osm_id":"7253001251"},"type":"Feature"}
]
}
