{
"type": "FeatureCollection",
"lastupdate": "2020-07-29T00:24:51Z",
"features": [
	{"geometry":{"coordinates":[0.753403,52.449192],"type":"Point"},"properties":{"amenity":"recycling","osm_id":"1139364397","tag":{"recycling:clothes":"yes","recycling:glass":"yes","recycling:paper":"yes"}},"type":"Feature"},
	{"geometry":{"coordinates":[0.781329,52.43178],"type":"Point"},"properties":{"amenity":"waste_basket","osm_id":"3736549788"},"type":"Feature"},
	{"geometry":{"coordinates":[0.75478,52.429348],"type":"Point"},"properties":{"amenity":"waste_basket","osm_id":"6978433195","tag":{"bdc:name":"HILL HOUSE PLAY AREA","operator":"Breckland District Council","waste":"dog_excrement"}},"type":"Feature"},
	{"geometry":{"coordinates":[0.754447,52.429546],"type":"Point"},"properties":{"amenity":"waste_basket","osm_id":"6978433196","tag":{"bdc:name":"HILL HOUSE PLAY AREA","operator":"Breckland District Council"}},"type":"Feature"},
	{"geometry":{"coordinates":[0.735738,52.429333],"type":"Point"},"properties":{"amenity":"waste_basket","osm_id":"7298764353"},"type":"Feature"},
	{"geometry":{"coordinates":[0.736035,52.42955],"type":"Point"},"properties":{"amenity":"waste_basket","osm_id":"7298764354"},"type":"Feature"},
	{"geometry":{"coordinates":[0.752415,52.429536],"type":"Point"},"properties":{"amenity":"waste_basket","osm_id":"7473011613","tag":{"waste":"dog_excrement"}},"type":"Feature"},
	{"geometry":{"coordinates":[0.755196,52.445814],"type":"Point"},"properties":{"amenity":"waste_basket","osm_id":"7498997587"},"type":"Feature"},
	{"geometry":{"coordinates":[0.752979,52.450721],"type":"Point"},"properties":{"amenity":"waste_basket","osm_id":"7499026316"},"type":"Feature"}
]
}
