{
"type": "FeatureCollection",
"lastupdate": "2020-07-25T00:42:33Z",
"features": [
	{"geometry":{"coordinates":[1.219681,52.617698],"type":"Point"},"properties":{"amenity":"waste_basket","osm_id":"359194887"},"type":"Feature"},
	{"geometry":{"coordinates":[1.219176,52.617227],"type":"Point"},"properties":{"amenity":"waste_basket","osm_id":"359194891"},"type":"Feature"},
	{"geometry":{"coordinates":[1.219768,52.616715],"type":"Point"},"properties":{"amenity":"waste_basket","osm_id":"359194895"},"type":"Feature"},
	{"geometry":{"coordinates":[1.220035,52.617041],"type":"Point"},"properties":{"amenity":"waste_basket","osm_id":"359194896"},"type":"Feature"},
	{"geometry":{"coordinates":[1.21951,52.616985],"type":"Point"},"properties":{"amenity":"waste_basket","osm_id":"359194901"},"type":"Feature"},
	{"geometry":{"coordinates":[1.219673,52.616952],"type":"Point"},"properties":{"amenity":"waste_basket","osm_id":"359194904"},"type":"Feature"},
	{"geometry":{"coordinates":[1.220237,52.617146],"type":"Point"},"properties":{"amenity":"waste_basket","osm_id":"359194906"},"type":"Feature"},
	{"geometry":{"coordinates":[1.22027,52.617186],"type":"Point"},"properties":{"amenity":"waste_basket","osm_id":"359194908"},"type":"Feature"},
	{"geometry":{"coordinates":[1.220384,52.617449],"type":"Point"},"properties":{"amenity":"waste_basket","osm_id":"359194911"},"type":"Feature"},
	{"geometry":{"coordinates":[1.22073,52.617579],"type":"Point"},"properties":{"amenity":"waste_basket","osm_id":"359194914"},"type":"Feature"},
	{"geometry":{"coordinates":[1.220714,52.617545],"type":"Point"},"properties":{"amenity":"waste_basket","osm_id":"359194915"},"type":"Feature"},
	{"geometry":{"coordinates":[1.22015,52.617679],"type":"Point"},"properties":{"amenity":"waste_basket","osm_id":"359194918"},"type":"Feature"},
	{"geometry":{"coordinates":[1.22016,52.630554],"type":"Point"},"properties":{"amenity":"waste_basket","osm_id":"364049001"},"type":"Feature"},
	{"geometry":{"coordinates":[1.211383,52.640722],"type":"Point"},"properties":{"amenity":"waste_basket","osm_id":"364156863"},"type":"Feature"},
	{"geometry":{"coordinates":[1.222119,52.619798],"type":"Point"},"properties":{"amenity":"recycling","osm_id":"393789735","tag":{"recycling:clothes":"yes","recycling:glass_bottles":"yes","recycling:paper":"yes","recycling:scrap_metal":"yes"}},"type":"Feature"},
	{"geometry":{"coordinates":[1.215986,52.637877],"type":"Point"},"properties":{"amenity":"recycling","name":"Bowthorpe Shopping Centre","osm_id":"514316209","tag":{"recycling:cans":"yes","recycling:glass_bottles":"yes","url":"http://www.norwich.gov.uk/intranet_docs/A-Z/Recycling/Recycling_Centres.pdf"}},"type":"Feature"},
	{"geometry":{"coordinates":[1.230417,52.635153],"type":"Point"},"properties":{"amenity":"recycling","name":"Freed Man PH, St Mildreds Road","osm_id":"514316301","tag":{"recycling:glass_bottles":"yes","recycling:paper":"yes","recycling_type":"container","website":"https://www.norwich.gov.uk/intranet_docs/A-Z/Recycling/Recycling_Centres.pdf"}},"type":"Feature"},
	{"geometry":{"coordinates":[1.209673,52.640132],"type":"Point"},"properties":{"amenity":"waste_basket","osm_id":"583293215"},"type":"Feature"},
	{"geometry":{"coordinates":[1.215072,52.641066],"type":"Point"},"properties":{"amenity":"waste_basket","osm_id":"583293226"},"type":"Feature"},
	{"geometry":{"coordinates":[1.219532,52.639575],"type":"Point"},"properties":{"amenity":"waste_basket","osm_id":"583293228"},"type":"Feature"},
	{"geometry":{"coordinates":[1.21893,52.629048],"type":"Point"},"properties":{"amenity":"waste_basket","osm_id":"583296523"},"type":"Feature"},
	{"geometry":{"coordinates":[1.212256,52.637105],"type":"Point"},"properties":{"amenity":"waste_basket","osm_id":"583296524"},"type":"Feature"},
	{"geometry":{"coordinates":[1.220021,52.60288],"type":"Point"},"properties":{"amenity":"waste_basket","osm_id":"587687996","tag":{"waste":"trash"}},"type":"Feature"},
	{"geometry":{"coordinates":[1.223803,52.641644],"type":"Point"},"properties":{"amenity":"waste_basket","osm_id":"878762698"},"type":"Feature"},
	{"geometry":{"coordinates":[1.208571,52.641416],"type":"Point"},"properties":{"amenity":"waste_basket","osm_id":"1362824028"},"type":"Feature"},
	{"geometry":{"coordinates":[1.181566,52.603951],"type":"Point"},"properties":{"amenity":"recycling","osm_id":"1675524196","tag":{"recycling:clothes":"yes","recycling:glass_bottles":"yes","recycling_type":"container"}},"type":"Feature"},
	{"geometry":{"coordinates":[1.21831,52.63631],"type":"Point"},"properties":{"amenity":"waste_basket","osm_id":"1691874354"},"type":"Feature"},
	{"geometry":{"coordinates":[1.217732,52.642494],"type":"Point"},"properties":{"amenity":"recycling","osm_id":"3031739759","tag":{"recycling:clothes":"yes","recycling_type":"container"}},"type":"Feature"},
	{"geometry":{"coordinates":[1.208188,52.641487],"type":"Point"},"properties":{"amenity":"waste_basket","osm_id":"3131421127"},"type":"Feature"},
	{"geometry":{"coordinates":[1.193445,52.615966],"type":"Point"},"properties":{"amenity":"waste_basket","osm_id":"3363387029","tag":{"waste_basket":"dog_feces"}},"type":"Feature"},
	{"geometry":{"coordinates":[1.201867,52.620249],"type":"Point"},"properties":{"amenity":"waste_basket","osm_id":"3363387036","tag":{"waste_basket":"dog_feces"}},"type":"Feature"},
	{"geometry":{"coordinates":[1.188505,52.617147],"type":"Point"},"properties":{"amenity":"waste_basket","osm_id":"3376604799"},"type":"Feature"},
	{"geometry":{"coordinates":[1.18368,52.617937],"type":"Point"},"properties":{"amenity":"waste_basket","osm_id":"3376604809","tag":{"waste":"dog_excrement"}},"type":"Feature"},
	{"geometry":{"coordinates":[1.166708,52.600151],"type":"Point"},"properties":{"amenity":"waste_basket","osm_id":"3500127711","tag":{"waste":"dog_excrement"}},"type":"Feature"},
	{"geometry":{"coordinates":[1.173856,52.597781],"type":"Point"},"properties":{"amenity":"recycling","osm_id":"3500127724","tag":{"recycling:clothes":"yes"}},"type":"Feature"},
	{"geometry":{"coordinates":[1.181282,52.597365],"type":"Point"},"properties":{"amenity":"waste_basket","osm_id":"3500127725","tag":{"waste":"dog_excrement"}},"type":"Feature"},
	{"geometry":{"coordinates":[1.181333,52.597388],"type":"Point"},"properties":{"amenity":"waste_basket","osm_id":"3500127726"},"type":"Feature"},
	{"geometry":{"coordinates":[1.184629,52.633079],"type":"Point"},"properties":{"amenity":"waste_basket","osm_id":"6426865113"},"type":"Feature"},
	{"geometry":{"coordinates":[1.230437,52.610203],"type":"Point"},"properties":{"amenity":"waste_basket","osm_id":"6637023801","tag":{"waste":"trash"}},"type":"Feature"},
	{"geometry":{"coordinates":[1.218861,52.621198],"type":"Point"},"properties":{"amenity":"waste_basket","osm_id":"6814232386","tag":{"waste":"trash"}},"type":"Feature"},
	{"geometry":{"coordinates":[1.219593,52.603577],"type":"Point"},"properties":{"amenity":"recycling","osm_id":"7684480918","tag":{"recycling:bags":"yes","recycling:cardboard":"yes","recycling:clothes":"yes","recycling:glass_bottles":"yes","recycling:paper":"yes","recycling:shoes":"yes","recycling_type":"container","website":"https://www.south-norfolk.gov.uk/residents/rubbish-and-recycling/recycling/where-can-i-recycle-more"}},"type":"Feature"}
]
}
