{
"type": "FeatureCollection",
"lastupdate": "2020-07-25T00:42:33Z",
"features": [
	{"geometry":{"coordinates":[-3.402243,56.136783],"type":"Point"},"properties":{"amenity":"waste_basket","osm_id":"2423321236"},"type":"Feature"},
	{"geometry":{"coordinates":[-3.354244,56.14971],"type":"Point"},"properties":{"amenity":"waste_basket","osm_id":"6810340542","tag":{"material":"metal"}},"type":"Feature"},
	{"geometry":{"coordinates":[-3.342698,56.141851],"type":"Point"},"properties":{"amenity":"waste_basket","osm_id":"6810340543","tag":{"material":"metal"}},"type":"Feature"},
	{"geometry":{"coordinates":[-3.35427,56.14309],"type":"Point"},"properties":{"amenity":"waste_basket","osm_id":"7727078024"},"type":"Feature"},
	{"geometry":{"coordinates":[-3.35589,56.149291],"type":"Point"},"properties":{"amenity":"waste_basket","osm_id":"7727078026"},"type":"Feature"},
	{"geometry":{"coordinates":[-3.362524,56.141716],"type":"Point"},"properties":{"amenity":"waste_basket","osm_id":"7727078067"},"type":"Feature"}
]
}
