{
"type": "FeatureCollection",
"lastupdate": "2020-07-25T00:42:33Z",
"features": [
	{"geometry":{"coordinates":[-4.227692,57.49069],"type":"Point"},"properties":{"amenity":"recycling","name":"Inverness Recycling Centre","osm_id":"436625029","tag":{"opening_hours":"Mo-Su 09:30-20:00","operator":"Highland Council","phone":"+44 1463 230634"}},"type":"Feature"},
	{"geometry":{"coordinates":[-4.230741,57.477432],"type":"Point"},"properties":{"amenity":"recycling","osm_id":"439279794","tag":{"location":"overground","recycling:books":"yes","recycling:cans":"yes","recycling:clothes":"yes","recycling:glass":"yes","recycling:glass_bottles":"yes","recycling:music":"yes","recycling:paper":"yes","recycling:shoes":"yes","recycling_type":"container"}},"type":"Feature"},
	{"geometry":{"coordinates":[-4.242599,57.475826],"type":"Point"},"properties":{"amenity":"waste_basket","osm_id":"439279814"},"type":"Feature"},
	{"geometry":{"coordinates":[-4.24486,57.482124],"type":"Point"},"properties":{"amenity":"recycling","osm_id":"440163767","tag":{"recycling:clothes":"yes","recycling:glass":"yes","recycling_type":"container"}},"type":"Feature"},
	{"geometry":{"coordinates":[-4.232864,57.472719],"type":"Point"},"properties":{"amenity":"recycling","osm_id":"475601105"},"type":"Feature"},
	{"geometry":{"coordinates":[-4.243856,57.480643],"type":"Point"},"properties":{"amenity":"recycling","osm_id":"1109549743","tag":{"recycling:cans":"yes","recycling:clothes":"yes","recycling:glass":"yes","recycling:paper":"yes"}},"type":"Feature"},
	{"geometry":{"coordinates":[-4.248971,57.475634],"type":"Point"},"properties":{"amenity":"recycling","osm_id":"1650715520"},"type":"Feature"},
	{"geometry":{"coordinates":[-4.241288,57.471432],"type":"Point"},"properties":{"amenity":"recycling","osm_id":"1761154546","tag":{"recycling:clothes":"yes","recycling:glass":"yes"}},"type":"Feature"},
	{"geometry":{"coordinates":[-4.238214,57.488686],"type":"Point"},"properties":{"amenity":"recycling","name":"Thornbush Road Recycling Point","osm_id":"2524665315"},"type":"Feature"},
	{"geometry":{"coordinates":[-4.222107,57.487816],"type":"Point"},"properties":{"amenity":"recycling","osm_id":"2700695296","tag":{"recycling:clothes":"yes","recycling:glass":"yes"}},"type":"Feature"},
	{"geometry":{"coordinates":[-4.248136,57.501418],"type":"Point"},"properties":{"amenity":"recycling","osm_id":"3045473138","tag":{"recycling:cans":"yes","recycling:clothes":"yes","recycling:glass":"yes","recycling:paper":"yes"}},"type":"Feature"},
	{"geometry":{"coordinates":[-4.223959,57.47964],"type":"Point"},"properties":{"amenity":"recycling","osm_id":"4988775813","tag":{"operator":"recycle for Scotland","recycling:cans":"yes","recycling:glass_bottles":"yes","recycling:paper":"yes","recycling:plastic_bottles":"yes","recycling:waste":"yes","recycling_type":"centre"}},"type":"Feature"},
	{"geometry":{"coordinates":[-4.223244,57.471661],"type":"Point"},"properties":{"amenity":"waste_basket","osm_id":"6252056592"},"type":"Feature"},
	{"geometry":{"coordinates":[-4.224424,57.47222],"type":"Point"},"properties":{"amenity":"waste_basket","osm_id":"6253918012","tag":{"waste":"dog_excrement"}},"type":"Feature"},
	{"geometry":{"coordinates":[-4.226047,57.478411],"type":"Point"},"properties":{"amenity":"waste_basket","osm_id":"6837291332"},"type":"Feature"},
	{"geometry":{"coordinates":[-4.225035,57.478726],"type":"Point"},"properties":{"amenity":"waste_basket","osm_id":"6837291333"},"type":"Feature"},
	{"geometry":{"coordinates":[-4.224177,57.479006],"type":"Point"},"properties":{"amenity":"waste_basket","osm_id":"6837291334"},"type":"Feature"}
]
}
